lon,lat,division,booth_info,premises,opening_hours,has_bbq,address,source,state,polling_place_name,has_nothing,has_caek,extra_info,polling_place_type,has_run_out,has_other,stall_name,stall_description,stall_website,first_report,latest_report
138.3303529,-35.5588857,Finniss, ;  Full Wheelchair Access,Parawa Recreation Centre,,0,1541 Range Rd PARAWA SA,,SA,Parawa,0,0,,,,,,,
140.7940513,-34.1833765,Chaffey, ;  Assisted Wheelchair Access,Paringa Murtho War Memorial Hall,,0,Sturt Hwy PARINGA SA,,SA,Paringa,0,0,,,,,,,
138.555297,-34.990607,Elder, ;  Full Wheelchair Access,Ascot Park Primary School,,0,1-37 Pildappa Ave PARK HOLME SA,,SA,Park Holme South,0,0,,,,,,,
138.619851,-34.944179,Unley,Gym;  Full Wheelchair Access,Parkside Primary School,,0,12 Robsart St PARKSIDE SA,,SA,Parkside,0,0,,,,,,,
138.672396,-34.873789,Morialta, ;  Full Wheelchair Access,Il Nido Children's Centre,,0,22 Campbell Road PARADISE SA,,SA,Paradise,0,0,,,,,,,
138.684909,-34.87067,Morialta,access by George and Harris Streets;  Full Wheelchair Access,Paradise Primary School,,0,100 George St PARADISE SA,,SA,Paradise East,0,0,,,,,,,
138.660516,-34.870808,Hartley,enter from either Lincoln Road or Pam Street.;  Full Wheelchair Access,Paradise Kindergarten,,0,21A Lincoln Rd PARADISE SA,,SA,Paradise West,0,0,,,,,,,
138.5944612,-34.7564969,Taylor, ;  No Wheelchair Access,Settlers Farm Campus,,0,23 Barassi St PARALOWIE SA,,SA,Paralowie West,0,0,,,,,,,
137.2640254,-35.7928778,Finniss, ;  Assisted Wheelchair Access,Soldier Settlement Museum,,0,Cnr Wedgewood Rd & Rowland Hill Hwy PARNDANA SA,,SA,Parndana,0,0,,,,,,,
138.587263,-34.9923126,Waite, ;  Assisted Wheelchair Access,Pasadena High School,,0,Daws Rd PASADENA SA,,SA,Pasadena,0,0,,,,,,,
138.6712568,-34.7587905,Little Para, ;  Assisted Wheelchair Access,Salisbury Park Primary School,,0,Wildwood Dr SALISBURY PARK SA,,SA,Salisbury Park,0,0,,,,,,,
138.5396081,-34.5925659,Goyder, ;  Full Wheelchair Access,Two Wells Primary School,,0,Gawler Rd TWO WELLS SA,,SA,Two Wells,0,0,,,,,,,
138.635396,-34.753208,Ramsay, ;  Assisted Wheelchair Access,Salisbury North R-7 School,,0,38 Bagster Rd SALISBURY NORTH SA,,SA,Salisbury North,0,0,,,,,,,
138.625428,-35.00373,Davenport, ;  Full Wheelchair Access,Belair School,,1,45-83 Main Rd BELAIR SA,,SA,Belair,0,0,,,,,,,
140.6929197,-36.3584166,MacKillop, ;  Assisted Wheelchair Access,Mundulla Primary School,,0,Cnr Hinge & Kennedy Sts MUNDULLA SA,,SA,Mundulla,0,0,,,,,,,
138.6850781,-34.6738411,Napier,via Douglas Drive;  Full Wheelchair Access,Mark Oliphant College,,0,99 Douglas Dr MUNNO PARA SA,,SA,Munno Para,0,0,,,,,,,
139.038239,-34.780295,Schubert, ;  Assisted Wheelchair Access,Mount Pleasant Soldiers Memorial Hall,,0,10 Melrose Street MOUNT PLEASANT SA,,SA,Mount Pleasant,0,0,,,,,,,
138.9589961,-34.8758247,Kavel, ;  Assisted Wheelchair Access,Mount Torrens Soldiers Memorial Hall,,0,Main Road MOUNT TORRENS SA,,SA,Mount Torrens,0,0,,,,,,,
140.794188,-37.824117,Mount Gambier, ;  Assisted Wheelchair Access,McDonald Park Primary School,,0,57 North Tce MOUNT GAMBIER SA,,SA,Mount Gambier Park,0,0,,,,,,,
140.7639375,-37.824545,Mount Gambier, ;  Full Wheelchair Access,Mount Gambier High School,,0,Brownes Rd MOUNT GAMBIER SA,,SA,Mount Gambier West,0,0,,,,,,,
140.7905126,-37.8382561,Mount Gambier, ;  Assisted Wheelchair Access,Melaleuca Park Primary School,,0,Boandik Tce MOUNT GAMBIER SA,,SA,Mount Gambier East,0,0,,,,,,,
140.7725293,-37.8149058,Mount Gambier, ;  Assisted Wheelchair Access,Mount Gambier North Primary School,,0,Heath Street MOUNT GAMBIER SA,,SA,Mount Gambier North,0,0,,,,,,,
138.6214325,-35.3510388,Finniss, ;  Full Wheelchair Access,Mount Compass Area School Trade Training Centre,,0,Cnr School Road & Arthur Road MOUNT COMPASS SA,,SA,Mount Compass,0,0,,,,,,,
140.7589296,-37.8585661,Mount Gambier, ;  Full Wheelchair Access,Mount Gambier Christ Church Hall,,0,Bay Road MOUNT GAMBIER SA,,SA,Mount Gambier,0,0,,,,,,,
138.6763533,-34.900672,Morialta,enter via Moules Road;  Full Wheelchair Access,Norwood Morialta Middle School,,0,Morialta Rd West ROSTREVOR SA,,SA,Rostrevor South,0,0,,,,,,,
138.521702,-34.856144,Cheltenham, ;  Assisted Wheelchair Access,Mount Carmel College,,0,33 Newcastle St ROSEWATER SA,,SA,Rosewater,0,0,,,,,,,
138.5114624,-34.8729983,Cheltenham, ;  Assisted Wheelchair Access,Hendon Primary School,,0,Cedar Ave ROYAL PARK SA,,SA,Royal Park South,0,0,,,,,,,
138.511895,-34.870653,Cheltenham, ;  Assisted Wheelchair Access,United Church Royal Park,,0,50 Tapleys Hill Rd ROYAL PARK SA,,SA,Royal Park,0,0,,,,,,,
138.6017993,-33.2052414,Stuart, ;  Assisted Wheelchair Access,Jamestown Memorial Hall,,0,Ayr St JAMESTOWN SA,,SA,Jamestown,0,0,,,,,,,
137.1481361,-32.7255611,Giles, ;  Assisted Wheelchair Access,Iron Knob Rural Transaction Centre,,0,Dickinson St IRON KNOB SA,,SA,Iron Knob,0,0,,,,,,,
138.508657,-34.8848485,Lee, ;  Full Wheelchair Access,Seaton High School,,0,Glenburnie St SEATON SA,,SA,Seaton,0,0,,,,,,,
138.8276692,-34.611704,Schubert, ;  Full Wheelchair Access,Sandy Creek Primary School,,0,Davies Rd SANDY CREEK SA,,SA,Sandy Creek,0,0,,,,,,,
140.8620684,-36.9363689,MacKillop, ;  Assisted Wheelchair Access,Naracoorte Polocrosse Clubroom,,0,Peake Street HYNAM SA,,SA,Hynam,0,0,,,,,,,
138.516945,-35.153249,Mawson,Melsetter Road;  Full Wheelchair Access,Huntfield Heights Primary School,,0,78 Melsetter Rd HUNTFIELD HEIGHTS SA,,SA,Huntfield Heights,0,0,,,,,,,
138.6474316,-34.8203943,Playford, ;  Assisted Wheelchair Access,North Ingle Primary School,,0,7 Rothwell Ave INGLE FARM SA,,SA,Ingle Farm North,0,0,,,,,,,
138.641024,-34.8276363,Playford, ;  Assisted Wheelchair Access,Ingle Farm Primary School,,0,Belalie Rd INGLE FARM SA,,SA,Ingle Farm,0,0,,,,,,,
138.7055732,-34.8479094,Newland, ;  Full Wheelchair Access,Highbury Primary School,,0,Honeysuckle Dr HOPE VALLEY SA,,SA,Hope Valley,0,0,,,,,,,
138.671214,-34.856509,Torrens, ;  Full Wheelchair Access,Kildare College,,0,96 Valiant Rd HOLDEN HILL SA,,SA,Holden Hill,0,0,,,,,,,
138.7631714,-34.8285716,Newland, ;  Full Wheelchair Access,Houghton CWA Room,,0,Cnr Horn & Black Hill Rds HOUGHTON SA,,SA,Houghton,0,0,,,,,,,
138.687805,-34.839576,Florey, ;  Assisted Wheelchair Access,John XXIII Catholic Community Centre,,0,50 Reservoir Rd HOPE VALLEY SA,,SA,Hope Valley North,0,0,,,,,,,
138.619897,-34.976512,Waite,Carpark entry off Smith-Dorien St;  Assisted Wheelchair Access,Mitcham Village Uniting Church Hall,,1,103 Princes Road MITCHAM SA,,SA,Mitcham,0,1,,,,,,,
138.5574781,-34.9974885,Elder,access only via Gate 3 - Marion Road;  Full Wheelchair Access,Hamilton Secondary College,,0,Gate 3/815 Marion Rd MITCHELL PARK SA,,SA,Mitchell Park,0,0,,,,,,,
138.5612118,-35.0149165,Elder, ;  Full Wheelchair Access,Suneden Special School,,0,21 McInerney Ave MITCHELL PARK SA,,SA,Mitchell Park South,0,0,,,,,,,
139.1178822,-34.4711386,Schubert, ;  Assisted Wheelchair Access,Moculta Soldiers Memorial Hall,,0,Cnr Truro & Angaston Rds MOCULTA SA,,SA,Moculta,0,0,,,,,,,
138.6935754,-34.8260257,Florey,enter from Iliad Grove;  Assisted Wheelchair Access,Modbury Primary School,,0,2 Golden Grove Rd MODBURY NORTH SA,,SA,Modbury,0,0,,,,,,,
138.6823646,-34.8103189,Florey, ;  Assisted Wheelchair Access,The Heights School,,0,Brunel Dr MODBURY HEIGHTS SA,,SA,Modbury Heights,0,0,,,,,,,
138.673163,-34.824708,Florey, ;  No Wheelchair Access,Modbury North Kindergarten,,0,12 Burragah Ct MODBURY NORTH SA,,SA,Modbury North,0,0,,,,,,,
138.6966108,-34.8400048,Florey,car parking via Aroona Avenue;  Assisted Wheelchair Access,Modbury South Primary School,,0,Dampier Ave HOPE VALLEY SA,,SA,Modbury South,0,0,,,,,,,
138.6758384,-34.8341412,Florey, ;  Assisted Wheelchair Access,Modbury West Primary School,,0,Wright Rd MODBURY SA,,SA,Modbury West,0,0,,,,,,,
140.5569993,-34.2377818,Chaffey, ;  Assisted Wheelchair Access,Monash Memorial Hall,,0,Randall Tce MONASH SA,,SA,Monash,0,0,,,,,,,
140.90626,-36.367832,MacKillop, ;  Assisted Wheelchair Access,Wolseley Community Club,,0,Railway Tce N WOLSELEY SA,,SA,Wolseley,0,0,,,,,,,
138.965152,-35.208944,Heysen, ;  Full Wheelchair Access,Richardson Hall,,0,Callington Rd WOODCHESTER SA,,SA,Woodchester,0,0,,,,,,,
139.3805639,-35.2193919,Hammond, ;  No Wheelchair Access,Woods Point Community Hall,,0,Baily St WOODS POINT SA,,SA,Woods Point,0,0,,,,,,,
138.878883,-34.9530021,Kavel,enter via William Street;  Full Wheelchair Access,Woodside Primary School,,0,23 Moffett St WOODSIDE SA,,SA,Woodside,0,0,,,,,,,
138.6426954,-34.8690596,Torrens, ;  Full Wheelchair Access,St Pius X School,,0,8 Windsor Gr WINDSOR GARDENS SA,,SA,Windsor Gardens West,0,0,,,,,,,
140.5257636,-34.3126383,Chaffey, ;  No Wheelchair Access,Croation Association Hall,,0,41 Bullpit Rd WINKIE SA,,SA,Winkie,0,0,,,,,,,
138.2667496,-33.0355004,Stuart, ;  Assisted Wheelchair Access,Wirrabara Institute Hall,,0,Cnr West Tce & Hill Side Rd WIRRABARA SA,,SA,Wirrabara,0,0,,,,,,,
134.533517,-32.4037598,Flinders, ;  No Wheelchair Access,Wirrulla Memorial Hall,,0,Cnr Chapman Tce & Dewar St WIRRULLA SA,,SA,Wirrulla,0,0,,,,,,,
138.505836,-34.898174,Colton, ;  Full Wheelchair Access,Christian Family Centre,,0,185 Frederick Rd SEATON SA,,SA,Seaton West,0,0,,,,,,,
138.5371787,-34.8842075,Cheltenham, ;  Assisted Wheelchair Access,Adelaide Miethke Kindergarten,,0,Cnr Oval & Cedar Ave WOODVILLE SOUTH SA,,SA,Woodville South,0,0,,,,,,,
136.824344,-31.1991685,Giles, ;  Assisted Wheelchair Access,Woomera Board Community Centre,,0,Banool Ave WOOMERA SA,,SA,Woomera,0,0,,,,,,,
138.707676,-35.00393,Heysen, ;  Full Wheelchair Access,St Catherine's School,,0,22 Ayers Hill Rd STIRLING SA,,SA,Stirling West,0,0,,,,,,,
137.839248,-32.5131833,Stuart,School Gym;  Assisted Wheelchair Access,Stirling North Primary School,,0,Beckman St STIRLING NORTH SA,,SA,Stirling North,0,0,,,,,,,
138.655678,-34.911144,Dunstan, ;  Assisted Wheelchair Access,Adelaide Korean Church Hall,,0,40 Third Ave ST MORRIS SA,,SA,St Morris,0,0,,,,,,,
138.7103723,-34.8322116,Newland, ;  Full Wheelchair Access,St Agnes Primary School,,0,Smart Rd ST AGNES SA,,SA,St Agnes,0,0,,,,,,,
139.0894273,-34.7068221,Schubert, ;  Assisted Wheelchair Access,Springton Public Hall,,0,Graetz Tce SPRINGTON SA,,SA,Springton,0,0,,,,,,,
138.6081729,-33.498039,Stuart, ;  Assisted Wheelchair Access,Spalding Hall Complex,,0,Main St SPALDING SA,,SA,Spalding,0,0,,,,,,,
138.73475,-35.002144,Heysen, ;  Full Wheelchair Access,Stirling East Primary School,,1,51 Braeside Rd STIRLING SA,,SA,Stirling,0,0,,,,,,,
137.796695,-34.909344,Goyder, ;  Assisted Wheelchair Access,Stansbury Institute Hall,,0,6 Weaver St STANSBURY SA,,SA,Stansbury,0,0,,,,,,,
138.6276022,-34.9022202,Dunstan, ;  Full Wheelchair Access,College Park Scout Hall,,1,95 Fourth Ave ST PETERS SA,,SA,St Peters West,0,1,,,,,,,
138.6262697,-34.9074096,Dunstan,Disabled access via Westminster St staff carpark;  Full Wheelchair Access,East Adelaide Primary School,,0,Second Ave ST PETERS SA,,SA,St Peters,0,0,,,,,,,
138.3506584,-34.4545955,Goyder, ;  Full Wheelchair Access,Dublin Institute,,0,Cnr Sixth & First Sts DUBLIN SA,,SA,Dublin,0,0,,,,,,,
138.7973924,-35.0771677,Heysen, ;  Full Wheelchair Access,Echunga Primary School,,0,802 Echunga Rd ECHUNGA SA,,SA,Echunga,0,0,,,,,,,
138.815338,-34.841913,Morialta, ;  No Wheelchair Access,Cudlee Creek Soldiers Memorial Hall,,0,4 Redden Rd CUDLEE CREEK SA,,SA,Cudlee Creek,0,0,,,,,,,
135.727834,-34.264834,Flinders, ;  Assisted Wheelchair Access,Cummins Community Hall,,0,46 Railway Tce CUMMINS SA,,SA,Cummins,0,0,,,,,,,
138.566049,-34.880251,Croydon, ;  Assisted Wheelchair Access,Church of the Nazarene,,0,60 Days Rd CROYDON PARK SA,,SA,Croydon Park,0,0,,,,,,,
138.207347,-33.351642,Frome, ;  Full Wheelchair Access,Crystal Brook Institute,,0,21 Bowman St CRYSTAL BROOK SA,,SA,Crystal Brook,0,0,,,,,,,
136.1991104,-33.4665558,Flinders, ;  Assisted Wheelchair Access,Darke Peak Sporting Complex,,0,Cnr Carapee Hill & Balumbah Kinnard Rds DARKE PEAK SA,,SA,Darke Peak,0,0,,,,,,,
138.672848,-34.861134,Torrens, ;  Full Wheelchair Access,Dernancourt Primary School,,0,29 Parsons Rd DERNANCOURT SA,,SA,Dernancourt,0,0,,,,,,,
137.7112343,-34.6975671,Goyder, ;  Assisted Wheelchair Access,Curramulka Institute,,0,Main St CURRAMULKA SA,,SA,Curramulka,0,0,,,,,,,
138.7729949,-35.439732,Hammond, ;  Assisted Wheelchair Access,Currency Creek Community Hall,,0,Alexandrina Rd CURRENCY CREEK SA,,SA,Currency Creek,0,0,,,,,,,
138.614946,-35.020906,Davenport,Cnr Waite Street;  Full Wheelchair Access,Blackwood Church of Christ Hall,,0,367 Shepherds Hill Rd BLACKWOOD SA,,SA,Blackwood Central,0,0,,,,,,,
138.619936,-35.029545,Davenport, ;  Assisted Wheelchair Access,Blackwood Hills Baptist Church,,0,72 Coromandel Pde BLACKWOOD SA,,SA,Blackwood,0,0,,,,,,,
138.548398,-34.892463,Croydon, ;  Assisted Wheelchair Access,Maltese Cultural Centre,,0,6 Jeanes St BEVERLEY SA,,SA,Beverley,0,0,,,,,,,
140.5981672,-34.2843912,Chaffey, ;  Full Wheelchair Access,Berri Masonic Lodge Hall,,1,2-4 McIntosh St BERRI SA,,SA,Berri,0,0,,,,,,,
138.588927,-35.028943,Davenport, ;  Full Wheelchair Access,Bellevue Heights Primary School,,0,17-19 Vaucluse Cres BELLEVUE HEIGHTS SA,,SA,Bellevue Heights,0,0,,,,,,,
138.5677775,-35.0232198,Davenport, ;  Full Wheelchair Access,Flinders Medical Centre,,0,Womens Health Clinic Flinders Dr BEDFORD PARK SA,,SA,Bedford Park,0,0,,,,,,,
138.580944,-34.960567,Ashford,enter via Canterbury Tce;  Assisted Wheelchair Access,Clarence Park Community Centre,,0,72-74 East Ave BLACK FOREST SA,,SA,Black Forest East,0,0,,,,,,,
138.5728988,-34.9607527,Ashford,enter via School Ave;  Assisted Wheelchair Access,Black Forest Primary School,,0,679 South Rd BLACK FOREST SA,,SA,Black Forest,0,0,,,,,,,
138.495264,-34.839759,Lee, ;  Full Wheelchair Access,Le Fevre Peninsula Primary School,,0,Shorney St BIRKENHEAD SA,,SA,Birkenhead,0,0,,,,,,,
138.9551297,-34.8202391,Kavel,via Pflaum Street;  Assisted Wheelchair Access,Birdwood Primary School,,0,Shannon St BIRDWOOD SA,,SA,Birdwood,0,0,,,,,,,
138.4959668,-34.8258153,Port Adelaide, ;  Full Wheelchair Access,St Albans Anglican Church,,0,Jetty Rd LARGS BAY SA,,SA,Largs Bay Central,0,0,,,,,,,
138.4949362,-34.8240065,Port Adelaide, ;  Assisted Wheelchair Access,Largs Bay Primary School,,0,Cnr Fletcher Rd & Centre St LARGS BAY SA,,SA,Largs Bay,0,0,,,,,,,
138.537705,-34.920681,Colton, ;  Full Wheelchair Access,Lockleys North Primary School,,0,55 Malurus Ave LOCKLEYS SA,,SA,Lockleys North,0,0,,,,,,,
138.5265778,-34.9260559,West Torrens, ;  Assisted Wheelchair Access,Christ the King Church,,0,456 Henley Beach Rd LOCKLEYS SA,,SA,Lockleys,0,0,,,,,,,
138.5793154,-34.9792113,Ashford, ;  Full Wheelchair Access,Edwardstown Primary School,,0,Maria St MELROSE PARK SA,,SA,Melrose Park,0,0,,,,,,,
138.551214,-34.854431,Port Adelaide,Dudley Street;  Full Wheelchair Access,St Patricks School,,0,33a Dudley St MANSFIELD PARK SA,,SA,Mansfield Park,0,0,,,,,,,
138.560056,-34.967421,Ashford, ;  Assisted Wheelchair Access,Vermont Uniting Church,,0,578 Cross Rd SOUTH PLYMPTON SA,,SA,South Plympton North,0,0,,,,,,,
140.1285807,-37.5690625,MacKillop, ;  Assisted Wheelchair Access,Southend Community Club,,0,Eliza St SOUTHEND SA,,SA,Southend,0,0,,,,,,,
138.019375,-33.189284,Frome, ;  Full Wheelchair Access,Solomontown Primary School,,0,79 Three Chain Rd SOLOMONTOWN SA,,SA,Solomontown,0,0,,,,,,,
138.5286355,-35.0252911,Bright, ;  Assisted Wheelchair Access,South Brighton Community Hall,,0,Dover Square SOUTH BRIGHTON SA,,SA,South Brighton,0,0,,,,,,,
133.936365,-32.373495,Flinders, ;  Assisted Wheelchair Access,Smoky Bay CFS Station,,0,1 Tremaine St SMOKY BAY SA,,SA,Smoky Bay,0,0,,,,,,,
138.215213,-33.781214,Frome, ;  Full Wheelchair Access,Snowtown Soldiers Memorial Hall,,0,22 Railway Tce SNOWTOWN SA,,SA,Snowtown,0,0,,,,,,,
138.536206,-35.079445,Mitchell, ;  Full Wheelchair Access,Woodend Primary School,,1,10-22 Edward Beck Dr SHEIDOW PARK SA,,SA,Sheidow Park South,0,0,,,,,,,
138.688171,-34.6860752,Napier,via the small carpark in front of the hall;  Full Wheelchair Access,ECH Residential Care Centre,,0,1 Warooka Drive SMITHFIELD SA,,SA,Smithfield,0,0,,,,,,,
138.4830821,-34.8446223,Lee,entrance via Hart St;  Full Wheelchair Access,Le Fevre High School,,0,Hart St SEMAPHORE SOUTH SA,,SA,Semaphore South,0,0,,,,,,,
138.53227,-35.071412,Mitchell, ;  Full Wheelchair Access,Sheidow Park Primary School,,0,21-43 Adams Rd SHEIDOW PARK SA,,SA,Sheidow Park,0,0,,,,,,,
138.784955,-34.839241,Morialta, ;  Assisted Wheelchair Access,Paracombe CFS Fire Station,,1,Paracombe Rd PARACOMBE SA,,SA,Paracombe,0,0,,,,,,,
138.6531654,-34.8010723,Playford, ;  No Wheelchair Access,Para Hills West Primary School,,0,21 Balkara Rd PARA HILLS WEST SA,,SA,Para Hills West,0,0,,,,,,,
138.5446172,-34.2689093,Goyder, ;  Assisted Wheelchair Access,Owen Hall,,0,Railway Tce OWEN SA,,SA,Owen,0,0,,,,,,,
138.527088,-34.8514367,Port Adelaide, ;  Assisted Wheelchair Access,Junction Community Centre,,0,Cnr Grand Junction Rd & May Tce OTTOWAY SA,,SA,Ottoway,0,0,,,,,,,
139.160892,-34.8529602,Schubert,via Olive Drive & archway to Centenary Memorial Drive;  Assisted Wheelchair Access,Palmer Hall,,0,Adelaide-Mannum Rd PALMER SA,,SA,Palmer,0,0,,,,,,,
140.4971311,-36.5939709,MacKillop, ;  Assisted Wheelchair Access,Padthaway Primary School,,0,Vogelsang Rd PADTHAWAY SA,,SA,Padthaway,0,0,,,,,,,
138.7663096,-34.7117885,Napier, ;  No Wheelchair Access,One Tree Hill Primary School,,0,McGilp Rd ONE TREE HILL SA,,SA,One Tree Hill,0,0,,,,,,,
138.8081557,-35.0037528,Kavel, ;  Full Wheelchair Access,Oakbank Area School,,0,154 Onkaparinga Valley Rd OAKBANK SA,,SA,Oakbank,0,0,,,,,,,
138.479683,-35.125516,Reynell, ;  Full Wheelchair Access,O'Sullivan Beach Primary School,,0,51 Galloway Rd O'SULLIVAN BEACH SA,,SA,O'Sullivan Beach,0,0,,,,,,,
138.613327,-32.733558,Stuart, ;  Assisted Wheelchair Access,Orroroo Town Hall,,0,17 Second St ORROROO SA,,SA,Orroroo,0,0,,,,,,,
138.6038272,-34.9341567,Adelaide,enter off Gilles Street;  Full Wheelchair Access,Gilles St Primary School,,1,91 Gilles St ADELAIDE SA,,SA,Adelaide South,0,0,Plus egg/bacon muffins and drinks,,,,,,
138.568154,-34.894326,Croydon,enter from Elizabeth Street;  Assisted Wheelchair Access,Church of Christ,,0,49 Elizabeth St CROYDON SA,,SA,Croydon,0,0,,,,,,,
138.7153497,-34.6917827,Napier, ;  Assisted Wheelchair Access,Playford Primary School,,0,Somerset Gr CRAIGMORE SA,,SA,Craigmore North,0,0,,,,,,,
139.8498145,-35.687599,MacKillop, ;  Assisted Wheelchair Access,Coonalpyn Hall,,0,Dukes Hwy COONALPYN SA,,SA,Coonalpyn,0,0,,,,,,,
139.6678419,-35.4626967,Hammond, ;  No Wheelchair Access,Coomandook Uniting Church Hall,,0,Dukes Hwy COOMANDOOK SA,,SA,Coomandook,0,0,,,,,,,
137.083263,-34.926379,Goyder, ;  Assisted Wheelchair Access,Corny Point Memorial Hall,,0,2 Liddiards Rd CORNY POINT SA,,SA,Corny Point,0,0,,,,,,,
140.8390021,-37.2912738,MacKillop, ;  Assisted Wheelchair Access,Coonawarra Soldiers Memorial Hall,,0,Helen Rd COONAWARRA SA,,SA,Coonawarra,0,0,,,,,,,
138.5593159,-34.9340199,West Torrens, ;  Full Wheelchair Access,Cowandilla Primary School,,1,21 Jenkins St COWANDILLA SA,,SA,Cowandilla,0,0,,,,,,,
138.626133,-35.03334,Davenport, ;  Assisted Wheelchair Access,Coromandel Valley Primary School,,0,339 Main Rd COROMANDEL VALLEY SA,,SA,Coromandel Valley,0,0,,,,,,,
138.7113539,-34.6976122,Napier,enter via Jamieson Street;  Assisted Wheelchair Access,Craigmore High School,,0,Uley Rd CRAIGMORE SA,,SA,Craigmore,0,0,,,,,,,
136.926375,-33.683738,Flinders, ;  Assisted Wheelchair Access,Franklin Harbour Institute,,0,8 Main St COWELL SA,,SA,Cowell,0,0,,,,,,,
138.63769,-34.876944,Torrens, ;  Assisted Wheelchair Access,Klemzig Primary School,,0,2 Hay St KLEMZIG SA,,SA,Klemzig,0,0,,,,,,,
138.6501329,-34.9256779,Dunstan, ;  Assisted Wheelchair Access,Marryatville Primary School,,0,54 Dankel Ave KENSINGTON SA,,SA,Kensington,0,0,,,,,,,
138.5332069,-35.141617,Mawson, ;  Assisted Wheelchair Access,Hackham East Primary School,,0,Collins Pde HACKHAM SA,,SA,Hackham,0,0,,,,,,,
138.6678396,-34.7916168,Wright,Gym;  Assisted Wheelchair Access,Gulfview Heights Primary School,,0,Kiekebusch Rd GULFVIEW HEIGHTS SA,,SA,Gulfview Heights,0,0,,,,,,,
138.700704,-34.853403,Morialta, ;  Full Wheelchair Access,Turramurra Recreation Centre,,0,1000 Lower North East Rd HIGHBURY SA,,SA,Highbury,0,0,,,,,,,
138.625781,-34.873206,Torrens, ;  Full Wheelchair Access,Church of Christ Hampstead Gardens,,0,28 Gambia Ave HAMPSTEAD GARDENS SA,,SA,Hampstead Gardens,0,0,,,,,,,
138.588912,-34.951508,Ashford, ;  Full Wheelchair Access,Goodwood Primary School,,1,140 Goodwood Rd GOODWOOD SA,,SA,Goodwood,0,0,,,,,,,
138.6359181,-34.9490137,Unley,Gym access via Conyngham Street;  Full Wheelchair Access,Glenunga International High School,,0,99 L'Estrange St GLENUNGA SA,,SA,Glenunga,0,0,,,,,,,
138.708397,-34.767947,Little Para, ;  Full Wheelchair Access,Salvation Army,,1,1681 Golden Grove Rd GREENWITH SA,,SA,Greenwith West,0,0,,,,,,,
138.49588,-34.902423,Colton, ;  Full Wheelchair Access,Grange Primary School,,1,39a Jetty St GRANGE SA,,SA,Grange,0,0,,,,,,,
140.3695088,-36.9657184,MacKillop, ;  Assisted Wheelchair Access,Lucindale Area School,,0,Gum Ave LUCINDALE SA,,SA,Lucindale,0,0,,,,,,,
138.8868673,-34.6040902,Schubert,via Gordon Street;  Full Wheelchair Access,Lyndoch Primary School,,0,Margaret St LYNDOCH SA,,SA,Lyndoch,0,0,,,,,,,
135.757149,-33.565601,Flinders, ;  Assisted Wheelchair Access,Lock Hall,,0,18/19 Railway Tce LOCK SA,,SA,Lock,0,0,,,,,,,
138.5032766,-35.1246005,Reynell, ;  Assisted Wheelchair Access,Lonsdale Heights Primary School,,0,25 Sunningdale Dr CHRISTIE DOWNS SA,,SA,Lonsdale,0,0,,,,,,,
140.5687591,-34.4536809,Chaffey, ;  Assisted Wheelchair Access,Lutheran Peace Hall,,0,Bookpurnong Tce LOXTON SA,,SA,Loxton,0,0,,,,,,,
140.624327,-34.413138,Chaffey, ;  Assisted Wheelchair Access,Loxton North Primary School,,0,379 Balfour-Ogilvy Rd LOXTON NORTH SA,,SA,Loxton North,0,0,,,,,,,
138.646237,-34.94792,Bragg, ;  Full Wheelchair Access,Linden Park Schools,,0,14 Hay Rd LINDEN PARK SA,,SA,Linden Park,0,0,,,,,,,
138.8694903,-35.0536083,Kavel, ;  Assisted Wheelchair Access,Anembo Park Clubrooms,,0,Princes Hwy LITTLEHAMPTON SA,,SA,Littlehampton,0,0,,,,,,,
138.8744829,-34.9050447,Kavel, ;  Full Wheelchair Access,Onkaparinga Senior Citizens Centre,,0,36 Main St LOBETHAL SA,,SA,Lobethal,0,0,,,,,,,
138.1616108,-33.9294336,Frome, ;  Assisted Wheelchair Access,Lochiel Hall,,0,Cnr Robert & Frances Sts LOCHIEL SA,,SA,Lochiel,0,0,,,,,,,
-8.411594,43.3623364,Fisher,South Access - off Hub Drive behind shopping centre. North Access - off Taylor Road;  Assisted Wheelchair Access,Aberfoyle Park High School,,0,36A Taylors Rd East ABERFOYLE PARK SA,,SA,Aberfoyle Park,0,0,,,,,,,
138.5210355,-34.8854202,Cheltenham, ;  Assisted Wheelchair Access,Woodville West Kindergarten,,0,Cnr Elizabeth St & Lawton Cres WOODVILLE WEST SA,,SA,Woodville West,0,0,,,,,,,
138.3910661,-33.360029,Frome, ;  Assisted Wheelchair Access,Georgetown Memorial Hall,,0,Pitt St GEORGETOWN SA,,SA,Georgetown,0,0,,,,,,,
138.3516596,-33.2690827,Frome, ;  Assisted Wheelchair Access,Gladstone Primary School,,0,2 West Tce GLADSTONE SA,,SA,Gladstone,0,0,,,,,,,
138.7478059,-34.6063278,Light, ;  Full Wheelchair Access,Immanuel Lutheran Church Gawler,,0,Cnr Seventh & Second Sts GAWLER SOUTH SA,,SA,Gawler South,0,0,,,,,,,
138.7466702,-34.5991448,Light, ;  Assisted Wheelchair Access,Gawler Uniting Church Hall,,0,Tod St GAWLER SA,,SA,Gawler West,0,0,,,,,,,
138.7504242,-34.5966215,Light, ;  Assisted Wheelchair Access,Gawler Freemasons Centre,,0,Cnr Union St & Lyndoch Rd GAWLER SA,,SA,Gawler,0,0,,,,,,,
138.7613234,-34.5974952,Light, ;  Assisted Wheelchair Access,Gawler East Primary School,,0,Finch Rd GAWLER EAST SA,,SA,Gawler East,0,0,,,,,,,
138.6192763,-34.957183,Unley,"Location Julia's Cafe, enter via gate 1 or 2;  Full Wheelchair Access",Highgate Building,,0,103 Fisher St FULLARTON SA,,SA,Fullarton,0,0,,,,,,,
,,MacKillop, ;  Assisted Wheelchair Access,Furner Community Hall,,0,North Tce FURNER SA,,SA,Furner,0,0,,,,,,,
138.543843,-35.113504,Reynell, ;  Full Wheelchair Access,Woodcroft College,,0,143-173 Bains Rd MORPHETT VALE SA,,SA,Woodcroft West,0,0,,,,,,,
138.5522864,-34.8640168,Croydon, ;  Full Wheelchair Access,Woodville Gardens School B-7,,0,Ridley Gr WOODVILLE GARDENS SA,,SA,Woodville Gardens,0,0,,,,,,,
138.5927058,-34.9688525,Waite, ;  Full Wheelchair Access,Westbourne Park Primary School,,0,2 Marlborough Rd WESTBOURNE PARK SA,,SA,Westbourne Park,0,0,,,,,,,
138.556371,-35.105304,Mawson,Gymnasium off Investigator Drive;  Full Wheelchair Access,Woodcroft Primary School,,0,1-23 Investigator Dr WOODCROFT SA,,SA,Woodcroft,0,0,,,,,,,
138.5989846,-35.0590534,Davenport, ;  Full Wheelchair Access,Aberfoyle Park Baptist Church Hall,,0,Cnr Manning Rd & Lyn St ABERFOYLE PARK SA,,SA,Aberfoyle Park North,0,0,,,,,,,
138.6597471,-34.6754486,Light, ;  Assisted Wheelchair Access,St Columba College,,0,President Ave ANDREWS FARM SA,,SA,Andrews Farm,0,0,,,,,,,
138.645584,-34.962691,Bragg, ;  Assisted Wheelchair Access,St Saviour's Church Hall,,0,2 Pridmore Rd GLEN OSMOND SA,,SA,Glen Osmond,0,0,,,,,,,
140.8700529,-37.8190523,Mount Gambier, ;  Full Wheelchair Access,Glenburnie Memorial Hall,,0,Casterton Rd GLENBURNIE SA,,SA,Glenburnie,0,0,,,,,,,
138.5927058,-34.9688525,Ashford, ;  Full Wheelchair Access,Westbourne Park Primary School,,0,2 Marlborough Rd WESTBOURNE PARK SA,,SA,Westbourne Park,0,0,,,,,,,
138.5374477,-35.0031672,Mitchell, ;  Full Wheelchair Access,Warradale Primary School,,0,Keynes Ave WARRADALE SA,,SA,Warradale,0,0,,,,,,,
138.5396081,-34.5925659,Taylor, ;  Full Wheelchair Access,Two Wells Primary School,,0,Gawler Rd TWO WELLS SA,,SA,Two Wells,0,0,,,,,,,
138.5756991,-35.0033039,Elder,enter from Walsh Avenue;  Assisted Wheelchair Access,St Bernadette's Parish Hall,,0,Cnr South Road & Walsh Avenue ST MARYS SA,,SA,St Marys,0,0,,,,,,,
138.6161112,-34.887827,Enfield,off North East Rd;  Full Wheelchair Access,St Monica's Parish School,,0,92 North East Rd WALKERVILLE SA,,SA,Walkerville North,0,0,,,,,,,
138.6537758,-34.8414157,Florey, ;  No Wheelchair Access,Valley View Kindergarten,,0,Geoffrey Ave VALLEY VIEW SA,,SA,Valley View,0,0,,,,,,,
138.557766,-34.979012,Ashford, ;  Full Wheelchair Access,Forbes Primary School,,0,80 Thomas St SOUTH PLYMPTON SA,,SA,South Plympton,0,0,,,,,,,
138.5266797,-34.9938226,Morphett, ;  Assisted Wheelchair Access,Masonic Homes Inc,,0,91 Diagonal Rd SOMERTON PARK SA,,SA,Somerton Park,0,0,,,,,,,
138.540845,-34.872922,Croydon,enter from Brocas Ave;  No Wheelchair Access,Woodville High School,,0,11 Actil Ave ST CLAIR SA,,SA,St Clair,0,0,,,,,,,
138.7054245,-34.8345115,Florey, ;  Full Wheelchair Access,Ardtornish Primary School,,0,Saarinen Ave ST AGNES SA,,SA,St Agnes West,0,0,,,,,,,
138.6644061,-34.6978323,Taylor, ;  Assisted Wheelchair Access,Swallowcliffe Primary School,,0,Swallowcliffe Road DAVOREN PARK SA,,SA,Davoren Park,0,0,,,,,,,
138.7003008,-34.7123942,Napier, ;  Assisted Wheelchair Access,Craigmore South Primary School,,0,Turner Dr CRAIGMORE SA,,SA,Craigmore South,0,0,,,,,,,
138.6168016,-35.0575373,Davenport, ;  Full Wheelchair Access,Craigburn Primary School,,0,15 Murrays Hill Rd FLAGSTAFF HILL SA,,SA,Flagstaff Hill East,0,0,,,,,,,
138.5890338,-35.0502981,Davenport, ;  Full Wheelchair Access,Flagstaff Hill R-7 School,,0,145 Black Rd FLAGSTAFF HILL SA,,SA,Flagstaff Hill,0,0,,,,,,,
138.5274715,-34.8966445,Cheltenham, ;  No Wheelchair Access,Findon High School,,0,Drummond Ave FINDON SA,,SA,Findon West,0,0,,,,,,,
138.537047,-34.898937,Cheltenham, ;  Assisted Wheelchair Access,Western Link Uniting Church,,0,93 Crittenden Rd FINDON SA,,SA,Findon,0,0,,,,,,,
138.8101047,-34.4544346,Schubert, ;  Full Wheelchair Access,Freeling Lutheran Church,,0,Clarke St FREELING SA,,SA,Freeling,0,0,,,,,,,
140.9531386,-36.715368,MacKillop, ;  No Wheelchair Access,Frances Soldiers Memorial Institute,,0,Railway Tce FRANCES SA,,SA,Frances,0,0,,,,,,,
138.8995005,-34.7974939,Schubert, ;  Full Wheelchair Access,Forreston Memorial Hall,,0,Main Rd FORRESTON SA,,SA,Forreston,0,0,,,,,,,
138.5476693,-34.9076674,Croydon, ;  Assisted Wheelchair Access,Flinders Park Church of Christ,,0,Cnr Franklin & Drake Ave FLINDERS PARK SA,,SA,Flinders Park,0,0,,,,,,,
138.6810992,-34.4708162,Light, ;  No Wheelchair Access,Wasleys Primary School,,0,Annie Tce WASLEYS SA,,SA,Wasleys,0,0,,,,,,,
138.6453898,-33.9587085,Frome, ;  Assisted Wheelchair Access,Watervale Primary School,,0,Main North Rd WATERVALE SA,,SA,Watervale,0,0,,,,,,,
138.5043942,-34.9114325,Colton,enter off Marlborough Street;  Full Wheelchair Access,Fulham Gardens Primary School,,0,Mitton Ave HENLEY BEACH SA,,SA,Fulham Gardens,0,0,,,,,,,
138.514158,-34.930563,Colton,access from Phelps Court;  Full Wheelchair Access,Reedbeds Community Centre,,0,19 Fitch Rd FULHAM SA,,SA,Fulham,0,0,,,,,,,
137.7014838,-33.9638197,Goyder, ;  Full Wheelchair Access,Kadina Dart Club,,0,Downer Road WALLAROO MINES SA,,SA,Wallaroo Mines,0,0,,,,,,,
135.481244,-34.5495086,Flinders, ;  Assisted Wheelchair Access,Lake Wangary Primary School,,0,Third St WANGARY SA,,SA,Wangary,0,0,,,,,,,
137.401966,-34.990429,Goyder, ;  Full Wheelchair Access,Warooka Institute,,0,1-3 Player St WAROOKA SA,,SA,Warooka,0,0,,,,,,,
135.590167,-33.240074,Flinders, ;  Assisted Wheelchair Access,Warramboo Hall,,0,Barns St WARRAMBOO SA,,SA,Warramboo,0,0,,,,,,,
138.6856727,-34.0272307,Frome, ;  Full Wheelchair Access,Auburn RSL Hall,,0,Main North Rd AUBURN SA,,SA,Auburn,0,0,,,,,,,
138.4169482,-34.1507984,Frome, ;  Assisted Wheelchair Access,Balaklava Primary School,,0,Wallace St BALAKLAVA SA,,SA,Balaklava,0,0,,,,,,,
138.7272076,-34.8081718,Newland, ;  Full Wheelchair Access,Banksia Park Primary School,,0,Cottenham Rd BANKSIA PARK SA,,SA,Banksia Park,0,0,,,,,,,
140.4537004,-34.251858,Chaffey, ;  Full Wheelchair Access,Barmera Recreation Centre,,0,1 James Tce BARMERA SA,,SA,Barmera,0,0,,,,,,,
138.562508,-34.990672,Elder, ;  Full Wheelchair Access,Active Elders Association,,1,27A Charles St ASCOT PARK SA,,SA,Ascot Park,0,1,Plus fairy floss!,,,,,,
,,Heysen, ;  Full Wheelchair Access,Eastern Fleurieu School (Ashbourne Campus),,0,14 Ashbourne Rd ASHBOURNE SA,,SA,Ashbourne,0,0,,,,,,,
138.699915,-34.868285,Morialta, ;  Assisted Wheelchair Access,Athelstone Primary School,,1,8 Brookside Rd ATHELSTONE SA,,SA,Athelstone,0,0,,,,,,,
138.693191,-34.88417,Morialta, ;  Assisted Wheelchair Access,Thorndon Park Primary School,,1,71 Stradbroke Rd ATHELSTONE SA,,SA,Athelstone South,0,0,Plus drinks,,,,,,
140.0134959,-37.4761204,MacKillop, ;  Full Wheelchair Access,Beachport Recreation Centre,,0,Golf Course Rd BEACHPORT SA,,SA,Beachport,0,0,,,,,,,
138.658358,-34.944945,Bragg, ;  Assisted Wheelchair Access,Beaumont Scout Hall,,1,42 Cooper Pl BEAUMONT SA,,SA,Beaumont,0,0,,,,,,,
138.7449167,-34.5338973,Light, ;  Full Wheelchair Access,Roseworthy Primary School,,0,Gartrell St ROSEWORTHY SA,,SA,Roseworthy,0,0,,,,,,,
138.629302,-34.931545,Bragg, ;  Assisted Wheelchair Access,Rose Park Primary School,,0,54 Alexandra Ave ROSE PARK SA,,SA,Rose Park,0,0,,,,,,,
139.083006,-33.989666,Stuart, ;  Assisted Wheelchair Access,Robertstown Peace Hall,,0,32 Commercial St ROBERTSTOWN SA,,SA,Robertstown,0,0,,,,,,,
139.7602249,-37.1644782,MacKillop, ;  Assisted Wheelchair Access,Robe Primary School,,0,Union Street ROBE SA,,SA,Robe,0,0,,,,,,,
138.745021,-34.157653,Frome, ;  Assisted Wheelchair Access,Riverton Primary School,,0,21 Swinden St RIVERTON SA,,SA,Riverton,0,0,,,,,,,
137.992702,-33.206986,Frome, ;  Assisted Wheelchair Access,Baptist Church Hall,,1,44 Hannan St RISDON PARK SOUTH SA,,SA,Risdon Park South,0,0,,,,,,,
138.003539,-33.1979,Frome, ;  Full Wheelchair Access,Lighthouse Uniting Church,,0,390 The Terrace RISDON PARK SA,,SA,Risdon Park,0,0,,,,,,,
138.5619843,-34.9386561,West Torrens,via Bickford Street;  Assisted Wheelchair Access,Tenison Woods Catholic School,,0,68 Brooker Tce RICHMOND SA,,SA,Richmond,1,0,,,,,,,
138.6359181,-34.9490137,Bragg,Gym access via Conyngham Street;  Full Wheelchair Access,Glenunga International High School,,0,99 L'Estrange St GLENUNGA SA,,SA,Glenunga,0,0,,,,,,,
136.8955714,-30.5635286,Giles,Carpark off Burgoyne St;  Assisted Wheelchair Access,Roxby Downs Christian Community Church,,0,Cnr Burgoyne & Tutop Sts ROXBY DOWNS SA,,SA,Roxby Downs,0,0,,,,,,,
138.684753,-34.893565,Morialta, ;  Full Wheelchair Access,Stradbroke Primary School,,0,73 Koonga Ave ROSTREVOR SA,,SA,Rostrevor,0,0,,,,,,,
138.662969,-34.8492663,Torrens,Gym;  Full Wheelchair Access,Wandana Primary School,,0,2 Cowra Ave GILLES PLAINS SA,,SA,Gilles Plains,0,0,,,,,,,
138.472321,-35.148995,Kaurna, ;  Full Wheelchair Access,The Arts Centre Port Noarlunga ,,0,22 Gawler Street PORT NOARLUNGA SA,,SA,Port Noarlunga,0,0,,,,,,,
136.3487162,-34.1189294,Flinders, ;  Assisted Wheelchair Access,Port Neill War Memorial Hall,,0,41 Wallis St PORT NEILL SA,,SA,Port Neill,0,0,,,,,,,
138.6819228,-35.5341077,Finniss, ;  Full Wheelchair Access,Port Elliot RSL Hall,,0,10 The Strand PORT ELLIOT SA,,SA,Port Elliot,0,0,,,,,,,
138.0197754,-34.2240093,Goyder, ;  Assisted Wheelchair Access,Port Clinton Progress Hall,,0,Cnr Emeu St & Cumberland Rd PORT CLINTON SA,,SA,Port Clinton,0,0,,,,,,,
134.683312,-33.165838,Flinders, ;  No Wheelchair Access,Port Kenny Hall,,0,7 Main St PORT KENNY SA,,SA,Port Kenny,0,0,,,,,,,
,,Stuart, ;  Assisted Wheelchair Access,Port Germein District Hall,,0,High Street PORT GERMEIN SA,,SA,Port Germein,0,0,,,,,,,
135.8367808,-34.714659,Flinders, ;  Assisted Wheelchair Access,Port Lincoln Lutheran Church Hall,,0,Flinders Hwy PORT LINCOLN SA,,SA,Port Lincoln Central,0,0,,,,,,,
135.856357,-34.720452,Flinders, ;  Assisted Wheelchair Access,Port Lincoln RSL Hall,,0,14 Hallet Pl PORT LINCOLN SA,,SA,Port Lincoln,0,0,,,,,,,
140.6970727,-38.0527276,Mount Gambier, ;  Assisted Wheelchair Access,Port MacDonnell Senior Citizens Club,,0,Elizabeth St PORT MACDONNELL SA,,SA,Port MacDonnell,0,0,,,,,,,
135.846749,-34.740671,Flinders, ;  Assisted Wheelchair Access,Lincoln Gardens Primary School,,0,14 Barley Rd PORT LINCOLN SA,,SA,Port Lincoln South,0,0,,,,,,,
138.6459039,-34.6443311,Taylor, ;  Full Wheelchair Access,Angle Vale Primary School,,0,Heaslip Rd ANGLE VALE SA,,SA,Angle Vale,0,0,,,,,,,
138.2276688,-33.5390312,Frome,Corner of Moorehouse and Bowman Streets;  Full Wheelchair Access,Redhill Community Centre,,0,51 Moorhouse St REDHILL SA,,SA,Redhill,0,0,,,,,,,
139.9320686,-34.1702164,Chaffey, ;  Assisted Wheelchair Access,Ramco Community Hall,,0,294 Ramco Road RAMCO SA,,SA,Ramco,0,0,,,,,,,
138.041803,-32.345864,Giles, ;  Assisted Wheelchair Access,Flinders Ranges Council Chambers,,0,1 Seventh St QUORN SA,,SA,Quorn,0,0,,,,,,,
138.5094074,-34.8600879,Cheltenham, ;  Assisted Wheelchair Access,Alberton Primary School,,0,Spring St QUEENSTOWN SA,,SA,Queenstown,0,0,,,,,,,
140.7087714,-34.1700028,Chaffey, ;  Full Wheelchair Access,Renmark West Primary School,,0,327 Tarcoola St RENMARK WEST SA,,SA,Renmark West,0,0,,,,,,,
140.7201555,-34.1205085,Chaffey, ;  Full Wheelchair Access,Renmark North Primary School,,0,65 Warrego St RENMARK NORTH SA,,SA,Renmark North,0,0,,,,,,,
140.7491654,-34.1787289,Chaffey, ;  Full Wheelchair Access,Renmark Paringa Community and Civic Centre,,0,61 Eighteenth St RENMARK SA,,SA,Renmark,0,0,,,,,,,
140.2252787,-37.5492735,MacKillop, ;  Assisted Wheelchair Access,Rendelsham Community Hall,,0,Julia Moore St RENDELSHAM SA,,SA,Rendelsham,0,0,,,,,,,
136.494448,-33.702635,Flinders, ;  Assisted Wheelchair Access,Cleve RSL Hall,,0,23 Fourth St CLEVE SA,,SA,Cleve,0,0,,,,,,,
140.4049203,-34.2442096,Chaffey, ;  Full Wheelchair Access,Cobdogla Primary School,,0,Dolan St COBDOGLA SA,,SA,Cobdogla,0,0,,,,,,,
138.5545377,-35.0894948,Fisher, ;  Full Wheelchair Access,Reynella East College,,0,63 Malbeck Dr REYNELLA EAST SA,,SA,Reynella East,0,0,,,,,,,
138.5824716,-34.8943596,Croydon, ;  Assisted Wheelchair Access,Brompton Primary School,,0,Napier St RENOWN PARK SA,,SA,Renown Park,0,0,,,,,,,
138.5971001,-34.9875803,Waite, ;  Full Wheelchair Access,Colonel Light Gardens Primary School,,1,1 Windsor Ave COLONEL LIGHT GARDENS SA,,SA,Colonel Light Gardens South,0,0,,,,,,,
140.7332987,-37.7962444,Mount Gambier,Sassanowsky Rd off Princes Hwy;  Full Wheelchair Access,Compton Soldiers Memorial Hall,,0,Sassanowsky Rd COMPTON SA,,SA,Compton,0,0,,,,,,,
135.4693899,-34.6221832,Flinders, ;  Assisted Wheelchair Access,Coffin Bay Community Hall,,0,The Esplanade Coffin Bay SA,,SA,Coffin Bay,0,0,,,,,,,
138.616966,-34.907622,Dunstan,access via Harrow Rd.;  Assisted Wheelchair Access,Hackney Kindergarten,,0,68 Richmond St COLLEGE PARK SA,,SA,College Park,0,0,,,,,,,
138.589084,-34.928128,Adelaide,off Franklin St;  Full Wheelchair Access,St Mary's College,,0,253 Franklin St ADELAIDE SA,,SA,Adelaide West,1,0,,,,,,,
138.5266797,-34.9938226,Bright, ;  Assisted Wheelchair Access,Masonic Homes Inc,,0,91 Diagonal Rd SOMERTON PARK SA,,SA,Somerton Park,0,0,,,,,,,
138.6537758,-34.8414157,Playford, ;  No Wheelchair Access,Valley View Kindergarten,,0,Geoffrey Ave VALLEY VIEW SA,,SA,Valley View,0,0,,,,,,,
138.596729,-34.874715,Adelaide,Gymnasium - enter via Stuart Rd or Arthur St;  Full Wheelchair Access,Prospect North Primary School,,0,30 Stuart Rd PROSPECT SA,,SA,Prospect North,0,0,,,,,,,
138.7031144,-34.8141156,Newland, ;  Full Wheelchair Access,Redwood Park Primary School,,0,Lokan St REDWOOD PARK SA,,SA,Redwood Park,0,0,,,,,,,
138.556108,-34.960692,Ashford, ;  Assisted Wheelchair Access,Plympton Primary School,,0,19 Owen St PLYMPTON SA,,SA,Plympton,0,0,,,,,,,
138.552287,-34.962202,Ashford, ;  Full Wheelchair Access,William Light R-12 School,,0,81 Errington St PLYMPTON SA,,SA,Plympton West,0,0,,,,,,,
138.6132154,-34.7584572,Ramsay,enter via Halba Cres or Careena Ave;  Assisted Wheelchair Access,Paralowie R-12 School,,0,Whites Road PARALOWIE SA,,SA,Paralowie,0,0,,,,,,,
138.547484,-34.989126,Elder,Use Condada Ave entrance;  Assisted Wheelchair Access,Springpark Baptist Church,,0,80 Hendrie St PARK HOLME SA,,SA,Park Holme,0,0,,,,,,,
138.616056,-34.785564,Ramsay, ;  Assisted Wheelchair Access,Parafield Gardens R-7 School,,0,23 Shepherdson Rd PARAFIELD GARDENS SA,,SA,Parafield Gardens Central,0,0,,,,,,,
138.607707,-34.773352,Ramsay, ;  No Wheelchair Access,The Pines Primary School,,0,42 Andrew Smith Dr PARAFIELD GARDENS SA,,SA,Parafield Gardens North-West,0,0,,,,,,,
138.524338,-35.103752,Mitchell, ;  Assisted Wheelchair Access,Reynella South Primary School,,0,119-135 Sherrifs Rd REYNELLA SA,,SA,Reynella,0,0,,,,,,,
138.710285,-34.817978,Newland, ;  Full Wheelchair Access,Ridgehaven Primary School,,0,479 Milne Rd RIDGEHAVEN SA,,SA,Ridgehaven,0,0,,,,,,,
139.3005199,-34.913203,Schubert,via Adelaide Road;  Assisted Wheelchair Access,Mannum Leisure Centre,,0,51 Adelaide Rd MANNUM SA,,SA,Mannum,0,0,,,,,,,
138.5098573,-34.4350275,Goyder, ;  Full Wheelchair Access,Mallala Primary School,,0,28 Aerodrome Rd MALLALA SA,,SA,Mallala,0,0,,,,,,,
138.638292,-34.896498,Dunstan, ;  Full Wheelchair Access,Payneham Road Uniting Church,,0,343 Payneham Rd MARDEN SA,,SA,Marden,0,0,,,,,,,
138.8169708,-34.000652,Frome, ;  Assisted Wheelchair Access,Manoora Hall,,0,Weymouth St MANOORA SA,,SA,Manoora,0,0,,,,,,,
138.8363265,-35.1723944,Heysen, ;  Full Wheelchair Access,Macclesfield Institute,,0,Venables Rd MACCLESFIELD SA,,SA,Macclesfield,0,0,,,,,,,
140.6465667,-34.2551038,Chaffey, ;  Assisted Wheelchair Access,Lyrup Community Hall,,0,Wilson Pde LYRUP SA,,SA,Lyrup,0,0,,,,,,,
137.6743503,-34.3695778,Goyder, ;  Full Wheelchair Access,Maitland Area School,,0,Cnr Pioneer & Junction Rds MAITLAND SA,,SA,Maitland,0,0,,,,,,,
138.6794766,-34.9142033,Hartley, ;  Full Wheelchair Access,Magill Primary School,,0,Adelaide St MAGILL SA,,SA,Magill,0,0,,,,,,,
138.677139,-34.799999,Wright, ;  No Wheelchair Access,Keithcot Farm Children's Centre,,0,5 Keithcot Farm Dr WYNN VALE SA,,SA,Wynn Vale West,0,0,,,,,,,
138.5544134,-35.0045545,Elder, ;  Full Wheelchair Access,Marion Primary School,,0,Malcolm Ave MARION SA,,SA,Marion,0,0,,,,,,,
138.518107,-35.042704,Bright, ;  Full Wheelchair Access,Marino Community Hall,,0,44 Newland Ave MARINO SA,,SA,Marino,0,0,,,,,,,
138.6568063,-34.8610728,Torrens, ;  No Wheelchair Access,Windsor Gardens Vocational College,,0,McKay Ave WINDSOR GARDENS SA,,SA,Windsor Gardens East,0,0,,,,,,,
138.1267754,-32.687064,Stuart, ;  Assisted Wheelchair Access,Wilmington Kindergarten,,0,Main North Rd WILMINGTON SA,,SA,Wilmington,0,0,,,,,,,
137.5284272,-33.0242855,Giles,Enter via Toal St or McRitchie Cres;  Assisted Wheelchair Access,Samaritan College - Our Lady Help of Christians,,0,10 Toal St WHYALLA STUART SA,,SA,Whyalla Stuart South,0,0,,,,,,,
137.5320921,-33.0378495,Giles,"Car Park off Eyre Ave, in school Gym;  Assisted Wheelchair Access",Long St Primary School,,0,Cnr Eyre Ave & Long St WHYALLA NORRIE SA,,SA,Whyalla Norrie South,0,0,,,,,,,
140.3528383,-36.3589047,MacKillop, ;  Full Wheelchair Access,Willalooka Hall,,0,Riddoch Hwy WILLALOOKA SA,,SA,Willalooka,0,0,,,,,,,
137.5181812,-33.0164548,Giles,Enter from back of school.;  Assisted Wheelchair Access,Stuart High School,,0,Cnr Bastyan Cres & Bailey St WHYALLA STUART SA,,SA,Whyalla Stuart West,0,0,,,,,,,
138.8910631,-34.6674293,Schubert, ;  Full Wheelchair Access,Williamstown Primary School,,0,Margaret Street WILLIAMSTOWN SA,,SA,Williamstown,0,0,,,,,,,
138.7373565,-34.5891918,Light, ;  Full Wheelchair Access,1st Gawler Scout Hall,,0,Holmes Street WILLASTON SA,,SA,Willaston,0,0,,,,,,,
138.5534683,-35.2610453,Mawson, ;  Full Wheelchair Access,Willunga Show Hall,,0,Main Rd WILLUNGA SA,,SA,Willunga,0,0,,,,,,,
137.7787806,-32.5068584,Stuart,Activity room;  Assisted Wheelchair Access,Willsden Primary School,,0,Cnr Elizabeth Tce & Roberts Cres PORT AUGUSTA SA,,SA,Willsden,0,0,,,,,,,
139.454778,-35.254858,Hammond, ;  Assisted Wheelchair Access,Tailem Bend Town Hall,,0,95 Railway Tce TAILEM BEND SA,,SA,Tailem Bend,0,0,,,,,,,
140.4538099,-37.6976123,MacKillop, ;  Assisted Wheelchair Access,Tantanoola Primary School,,0,Randall St TANTANOOLA SA,,SA,Tantanoola,0,0,,,,,,,
138.71283,-34.993392,Heysen, ;  Assisted Wheelchair Access,Crafers Primary School,,0,55 Piccadilly Rd CRAFERS SA,,SA,Crafers,0,0,,,,,,,
138.47913,-35.137963,Kaurna,enter off Price Street;  Full Wheelchair Access,Christies Beach Primary School,,0,46 Maturin Ave CHRISTIES BEACH SA,,SA,Christies Beach,0,0,,,,,,,
138.5588559,-34.8628519,Croydon,via Stuart Street;  Full Wheelchair Access,St Pauls Lutheran Church,,0,Cnr Stuart & Parker Sts FERRYDEN PARK SA,,SA,Ferryden Park,0,0,,,,,,,
138.6756238,-34.7030062,Napier,Wheelchair access from Amport St;  Full Wheelchair Access,Elizabeth North Primary School,,0,141 Woodford Rd ELIZABETH NORTH SA,,SA,Elizabeth North,0,0,,,,,,,
138.5644327,-34.9743441,Ashford, ;  Full Wheelchair Access,Edwardstown Community Church,,0,Cnr De Laine Ave & Towers Tce EDWARDSTOWN SA,,SA,Edwardstown,0,0,,,,,,,
138.5918388,-34.9808784,Waite, ;  Full Wheelchair Access,Colonel Light Gardens Uniting Church Hall,,0,560 Goodwood Rd DAW PARK SA,,SA,Daw Park,0,0,,,,,,,
139.0677884,-34.4363825,Schubert, ;  Assisted Wheelchair Access,Stockwell Hall,,0,Duckponds Rd STOCKWELL SA,,SA,Stockwell,0,0,,,,,,,
138.8934688,-35.2560505,Heysen, ;  Full Wheelchair Access,Strathalbyn Town Hall,,1,High Street STRATHALBYN SA,,SA,Strathalbyn,0,0,,,,,,,
134.2113536,-32.7984074,Flinders, ;  Assisted Wheelchair Access,Streaky Bay RSL Hall,,0,Cnr Flinders Hwy & Montgomerie Tce STREAKY BAY SA,,SA,Streaky Bay,0,0,,,,,,,
138.551627,-35.01809,Mitchell, ;  Full Wheelchair Access,Marion Council Chambers,,0,245 Sturt Road STURT SA,,SA,Sturt,0,0,,,,,,,
138.7276829,-34.9584485,Bragg, ;  Assisted Wheelchair Access,Summertown Uniting Church Hall,,0,Cnr Greenhill & Bonython Rds SUMMERTOWN SA,,SA,Summertown,0,0,,,,,,,
138.7139371,-34.7995189,Newland, ;  Full Wheelchair Access,Surrey Downs Primary School,,0,Vine St SURREY DOWNS SA,,SA,Surrey Downs,0,0,,,,,,,
140.7592156,-37.793154,Mount Gambier, ;  Full Wheelchair Access,Suttontown Primary School,,0,Pine Hall Ave SUTTONTOWN SA,,SA,Suttontown,0,0,,,,,,,
139.602323,-34.5723155,Chaffey, ;  Assisted Wheelchair Access,Swan Reach Area School,,0,Showgrounds Rd SWAN REACH SA,,SA,Swan Reach,0,0,,,,,,,
139.0116717,-34.9500965,Kavel, ;  Assisted Wheelchair Access,Harrogate Soldiers Memorial Hall,,0,13 Mail Rd HARROGATE SA,,SA,Harrogate,0,0,,,,,,,
137.459738,-34.8929485,Goyder, ;  Full Wheelchair Access,Hardwicke Bay Community Centre,,0,5 Progress Rd HARDWICKE BAY SA,,SA,Hardwicke Bay,0,0,,,,,,,
138.553602,-35.081621,Fisher, ;  Full Wheelchair Access,Braeview Primary School,,0,1a Montana Dr HAPPY VALLEY SA,,SA,Happy Valley West,0,0,,,,,,,
138.5844476,-35.0870983,Fisher, ;  Full Wheelchair Access,Happy Valley Primary School,,0,18 Education Rd HAPPY VALLEY SA,,SA,Happy Valley,0,0,,,,,,,
138.6815701,-34.356815,Goyder, ;  Full Wheelchair Access,SA Ambulance Service Centre,,0,Light St HAMLEY BRIDGE SA,,SA,Hamley Bridge,0,0,,,,,,,
138.5047809,-35.0838183,Bright, ;  Full Wheelchair Access,Hallett Cove South Primary School,,0,Livonia St HALLETT COVE SA,,SA,Hallett Cove South,0,0,,,,,,,
138.5169364,-35.0729953,Bright, ;  Full Wheelchair Access,Hallett Cove East Primary School,,0,Quailo Ave HALLETT COVE SA,,SA,Hallett Cove East,0,0,,,,,,,
138.5155166,-35.0768071,Bright, ;  Full Wheelchair Access,Hallett Cove School,,0,2 Gledsdale Rd HALLETT COVE SA,,SA,Hallett Cove,1,0,,,,,,,
138.8927757,-33.4117162,Stuart, ;  Assisted Wheelchair Access,Hallett Institute Hall,,0,Alfred St HALLETT SA,,SA,Hallett,0,0,,,,,,,
138.811229,-35.027578,Heysen, ;  Full Wheelchair Access,St Michael's Lutheran Church,,0,3 Balhannah Road HAHNDORF SA,,SA,Hahndorf,0,0,,,,,,,
138.665971,-34.817768,Florey, ;  Assisted Wheelchair Access,East Para Primary School,,0,12 Caroona Ave PARA HILLS SA,,SA,Para Hills East,0,0,,,,,,,
138.657208,-34.834205,Florey, ;  No Wheelchair Access,Valley View Secondary School,,0,240 Wright Rd PARA VISTA SA,,SA,Para Vista,0,0,,,,,,,
138.5365811,-35.1001313,Reynell, ;  Full Wheelchair Access,Reynella Primary School,,0,55-63 Concord Dr OLD REYNELLA SA,,SA,Old Reynella,0,0,,,,,,,
138.640212,-35.019731,Davenport, ;  Full Wheelchair Access,Hawthorndene Primary School,,0,Suffolk Rd HAWTHORNDENE SA,,SA,Hawthorndene,0,0,,,,,,,
138.666662,-34.890069,Hartley, ;  Full Wheelchair Access,East Torrens Primary School,,0,12 Robson Rd HECTORVILLE SA,,SA,Hectorville,0,0,,,,,,,
138.42316,-31.8896482,Giles, ;  Full Wheelchair Access,Hawker Institute Hall,,0,Elder Tce HAWKER SA,,SA,Hawker,0,0,,,,,,,
138.601079,-34.972999,Waite, ;  Full Wheelchair Access,Hawthorn Church of Christ,,0,42 Angas Rd HAWTHORN SA,,SA,Hawthorn,0,0,,,,,,,
138.499142,-34.929818,Colton,access from Burford Road;  Full Wheelchair Access,Henley Beach Primary School,,0,38 Hazel Tce HENLEY BEACH SOUTH SA,,SA,Henley Beach South,0,0,,,,,,,
138.7501012,-34.5772652,Light, ;  Full Wheelchair Access,Hewett Centre,,0,28-30 Kingfisher Drive Hewett SA,,SA,Hewett,0,0,,,,,,,
138.6624187,-34.9071358,Hartley, ;  Assisted Wheelchair Access,Tranmere Sea Scouts,,0,17 Moore Street TRANMERE SA,,SA,Hectorville South,0,0,,,,,,,
138.495319,-34.917852,Colton, ;  Full Wheelchair Access,Henley Fulham Uniting Church,,0,214 Military Rd HENLEY BEACH SA,,SA,Henley Beach,0,0,,,,,,,
138.542125,-35.010865,Elder, ;  Assisted Wheelchair Access,St Elizabeth Of Hungary Anglican Church,,0,12 Dwyer Rd OAKLANDS PARK SA,,SA,Oaklands Park,0,0,,,,,,,
138.68193,-34.731803,Little Para, ;  Full Wheelchair Access,Canterbury Close,,0,37 Blamey Rd ELIZABETH EAST SA,,SA,Hillbank,0,0,,,,,,,
138.6378783,-34.8665869,Torrens, ;  Assisted Wheelchair Access,Hillcrest Primary School,,0,Condamine St HILLCREST SA,,SA,Hillcrest,0,0,,,,,,,
138.6174747,-34.7943019,Ramsay,enter via Blackie Street;  Full Wheelchair Access,Karrendi Primary School,,0,Bradman Rd PARAFIELD GARDENS SA,,SA,Parafield Gardens,0,0,,,,,,,
138.5011079,-35.1833542,Kaurna,enter from Patapinda Rd;  Assisted Wheelchair Access,Old Noarlunga Primary School,,0,Malpas St OLD NOARLUNGA SA,,SA,Old Noarlunga,0,0,,,,,,,
138.674578,-34.882453,Hartley, ;  Full Wheelchair Access,St Francis of Assisi School,,0,57 Newton Road NEWTON SA,,SA,Newton,0,0,,,,,,,
138.5220011,-35.0051895,Morphett, ;  Full Wheelchair Access,Brighton High School,,0,303 Brighton Rd NORTH BRIGHTON SA,,SA,North Brighton West,0,0,,,,,,,
138.4551645,-35.2729161,Kaurna, ;  Full Wheelchair Access,Aldinga Community Centre (Symonds Reserve Hall),,0,Stewart Ave ALDINGA BEACH SA,,SA,Aldinga Beach West,0,0,,,,,,,
138.4573237,-35.2685861,Kaurna, ;  Full Wheelchair Access,Aldinga Beach R-7 School,,0,Quinliven Rd ALDINGA BEACH SA,,SA,Aldinga Beach,1,0,,,,,,,
138.5541168,-34.9013794,Croydon, ;  Full Wheelchair Access,Allenby Gardens Primary School,,0,Barham St ALLENBY GARDENS SA,,SA,Allenby Gardens,0,0,,,,,,,
,,Frome, ;  Assisted Wheelchair Access,Alford Hall,,0,High St ALFORD SA,,SA,Alford,0,0,,,,,,,
137.1658968,-30.4503276,Giles, ;  Assisted Wheelchair Access,Andamooka Hall,,0,38 Government Rd ANDAMOOKA SA,,SA,Andamooka,0,0,,,,,,,
137.7717201,-35.7842367,Finniss, ;  Full Wheelchair Access,American River Medical Centre,,0,Tangara Dr AMERICAN RIVER SA,,SA,American River,0,0,,,,,,,
137.916833,-34.4232321,Goyder, ;  Full Wheelchair Access,Ardrossan Area School,,0,14 Second St ARDROSSAN SA,,SA,Ardrossan,0,0,,,,,,,
139.0426381,-34.5059378,Schubert,Annexe;  Assisted Wheelchair Access,Angaston Institute,,0,Washington St ANGASTON SA,,SA,Angaston,0,0,,,,,,,
137.756937,-34.259493,Goyder, ;  Full Wheelchair Access,Arthurton Town Hall,,0,14 Main St ARTHURTON SA,,SA,Arthurton,0,0,,,,,,,
136.56781,-33.910691,Flinders, ;  Assisted Wheelchair Access,Arno Bay Memorial Hall,,0,21-23 Tel El Kebir Tce ARNO BAY SA,,SA,Arno Bay,0,0,,,,,,,
138.616056,-34.785564,Port Adelaide, ;  Assisted Wheelchair Access,Parafield Gardens R-7 School,,0,23 Shepherdson Rd PARAFIELD GARDENS SA,,SA,Parafield Gardens Central,0,0,,,,,,,
139.0390724,-35.1146695,Kavel, ;  Assisted Wheelchair Access,Callington Primary School,,0,North Terrace CALLINGTON SA,,SA,Callington,0,0,,,,,,,
139.2817004,-34.652707,Schubert, ;  Assisted Wheelchair Access,Cambrai Area School,,0,Main Rd CAMBRAI SA,,SA,Cambrai,0,0,,,,,,,
135.866142,-34.62622,Flinders, ;  Full Wheelchair Access,North Shields Community Hall,,0,25 Dorward St NORTH SHIELDS SA,,SA,North Shields,0,0,,,,,,,
138.6204654,-34.8482525,Torrens, ;  Assisted Wheelchair Access,Northfield Primary School,,0,North Ave NORTHFIELD SA,,SA,Northfield,0,0,,,,,,,
138.524836,-35.002054,Bright, ;  Full Wheelchair Access,Paringa Park Primary School,,0,21 Bowker St NORTH BRIGHTON SA,,SA,North Brighton,0,0,,,,,,,
138.497535,-34.7889271,Port Adelaide,enter via Sir Claude Gibb Street;  Full Wheelchair Access,North Haven Primary School,,0,Tapping Cres NORTH HAVEN SA,,SA,North Haven,0,0,,,,,,,
138.6366322,-34.9217054,Dunstan, ;  Full Wheelchair Access,Salvation Army,,0,53 George St NORWOOD SA,,SA,Norwood,0,0,,,,,,,
138.631456,-34.919359,Dunstan, ;  Full Wheelchair Access,Norwood Primary School,,1,39 Osmond Tce NORWOOD SA,,SA,Norwood West,0,0,Plus bacon & eggs,,,,,,
138.6338272,-34.8550154,Torrens, ;  Assisted Wheelchair Access,Oakden Baptist Church,,1,215-233 Fosters Rd NORTHGATE SA,,SA,Northgate,0,0,,,,,,,
138.7282953,-34.9269412,Morialta, ;  Assisted Wheelchair Access,Norton Summit Primary School,,0,15 Crescent Dr NORTON SUMMIT SA,,SA,Norton Summit,0,0,,,,,,,
138.537486,-34.9730188,Ashford, via Morphett Rd;  Full Wheelchair Access,Immanuel Primary School,,0,Cnr Morphett Rd & Saratoga Dr NOVAR GARDENS SA,,SA,Novar Gardens,0,0,,,,,,,
138.996341,-34.472364,Schubert, ;  Assisted Wheelchair Access,Nuriootpa Senior Citizens Clubrooms,,0,24 Murray St NURIOOTPA SA,,SA,Nuriootpa,0,0,,,,,,,
137.71468,-33.961671,Goyder, ;  Full Wheelchair Access,Kadina Town Hall,,0,51 Taylor St KADINA SA,,SA,Kadina,1,0,,,,,,,
139.4359918,-35.265742,Hammond, ;  Assisted Wheelchair Access,Jervois Memorial Hall,,0,Williams St JERVOIS SA,,SA,Jervois,0,0,,,,,,,
138.642392,-35.1654863,Heysen, ;  Full Wheelchair Access,Kangarilla Primary School,,0,Mclaren Flat Rd KANGARILLA SA,,SA,Kangarilla,0,0,,,,,,,
140.6996118,-37.5627273,MacKillop, ;  Assisted Wheelchair Access,Kalangadoo Primary School,,0,48 Kangaroo Flat Rd KALANGADOO SA,,SA,Kalangadoo,0,0,,,,,,,
135.7298813,-34.0319099,Flinders, ;  Assisted Wheelchair Access,Karkoo Kooplex,,0,Archie Griffiths Rd KARKOO SA,,SA,Karkoo,0,0,,,,,,,
138.9201938,-34.3249259,Stuart,"Primary School Gym, Jeffs Street, Kapunda ;  Assisted Wheelchair Access",Kapunda Primary School,,0,Mildred St KAPUNDA SA,,SA,Kapunda,0,0,,,,,,,
140.3531433,-36.0993722,MacKillop, ;  Full Wheelchair Access,Keith Area School,,0,Tolmer Tce KEITH SA,,SA,Keith,0,0,,,,,,,
139.8947003,-35.0938678,Chaffey, ;  Assisted Wheelchair Access,Karoonda Institute,,0,15 Peake St KAROONDA SA,,SA,Karoonda,0,0,,,,,,,
138.6514778,-34.9205669,Bragg, ;  Assisted Wheelchair Access,Kensington Park RSL,,0,346 The Parade KENSINGTON PARK SA,,SA,Kensington Park,0,1,,,,,,,
138.6722881,-34.9192779,Hartley, ;  Assisted Wheelchair Access,Norwood Morialta High School Senior Campus Canteen,,0,505 The Parade MAGILL SA,,SA,Kensington Gardens,0,0,,,,,,,
138.6195088,-33.8497514,Frome, ;  Full Wheelchair Access,Vineyard Lutheran School,,0,59 Main North Rd CLARE SA,,SA,Clare,0,0,,,,,,,
138.604347,-34.9940601,Waite, ;  Assisted Wheelchair Access,Clapham Primary School,,0,Barretts Rd CLAPHAM SA,,SA,Clapham,0,0,,,,,,,
138.477966,-35.129503,Reynell, ;  Full Wheelchair Access,St John the Apostle Parish School,,0,14 Winnerah Rd CHRISTIES BEACH SA,,SA,Christies Beach North,0,0,,,,,,,
138.503163,-35.134229,Reynell, ;  Full Wheelchair Access,Elizabeth House Positive Ageing Centre,,0,112 Elizabeth Rd CHRISTIE DOWNS SA,,SA,Christie Downs East,0,0,,,,,,,
138.4965457,-35.1340912,Reynell, ;  Full Wheelchair Access,Christie Downs Primary School,,0,Elizabeth Rd CHRISTIE DOWNS SA,,SA,Christie Downs,0,0,,,,,,,
138.6553303,-35.0632837,Fisher, ;  Full Wheelchair Access,Cherry Gardens Memorial Hall,,0,Cherry Gardens Rd CHERRY GARDENS SA,,SA,Cherry Gardens,0,0,,,,,,,
138.52564,-34.866175,Cheltenham, ;  Assisted Wheelchair Access,Cheltenham Community Centre,,0,62 Stroud St North CHELTENHAM SA,,SA,Cheltenham,0,0,,,,,,,
138.9211925,-34.9160062,Kavel,enter via Newman Road;  Assisted Wheelchair Access,Charleston Memorial Hall,,0,Newman Rd CHARLESTON SA,,SA,Charleston,0,0,,,,,,,
138.5431356,-35.1296395,Mawson, ;  Full Wheelchair Access,Coorara Primary School,,0,Taylors Ave MORPHETT VALE SA,,SA,Onkaparinga Hills,0,0,,,,,,,
138.589924,-34.964239,Ashford, ;  Assisted Wheelchair Access,Church of the Trinity,,0,318 Goodwood Rd CLARENCE PARK SA,,SA,Clarence Park,0,0,,,,,,,
138.5732577,-34.9705484,Ashford, ;  Full Wheelchair Access,St Francis Community Centre,,0,Cnr South Rd & Dinwoodie Ave CLARENCE GARDENS SA,,SA,Clarence Gardens,1,0,,,,,,,
138.5960266,-35.0658006,Fisher, ;  Full Wheelchair Access,Aberfoyle Park Primary School Campus (Drama Hall),,0,Cnr Sunnymeade & Campus Dr ABERFOYLE PARK SA,,SA,Aberfoyle Park Central,0,0,,,,,,,
138.521702,-34.856144,Port Adelaide, ;  Assisted Wheelchair Access,Mount Carmel College,,0,33 Newcastle St ROSEWATER SA,,SA,Rosewater,0,0,,,,,,,
138.710285,-34.817978,Florey, ;  Full Wheelchair Access,Ridgehaven Primary School,,0,479 Milne Rd RIDGEHAVEN SA,,SA,Ridgehaven,0,0,,,,,,,
138.524338,-35.103752,Reynell, ;  Assisted Wheelchair Access,Reynella South Primary School,,0,119-135 Sherrifs Rd REYNELLA SA,,SA,Reynella,0,0,,,,,,,
138.7031144,-34.8141156,Florey, ;  Full Wheelchair Access,Redwood Park Primary School,,0,Lokan St REDWOOD PARK SA,,SA,Redwood Park,0,0,,,,,,,
138.596729,-34.874715,Enfield,Gymnasium - enter via Stuart Rd or Arthur St;  Full Wheelchair Access,Prospect North Primary School,,0,30 Stuart Rd PROSPECT SA,,SA,Prospect North,0,0,,,,,,,
138.552287,-34.962202,West Torrens, ;  Full Wheelchair Access,William Light R-12 School,,0,81 Errington St PLYMPTON SA,,SA,Plympton West,0,0,,,,,,,
138.556108,-34.960692,West Torrens, ;  Assisted Wheelchair Access,Plympton Primary School,,0,19 Owen St PLYMPTON SA,,SA,Plympton,0,0,,,,,,,
138.547484,-34.989126,Morphett,Use Condada Ave entrance;  Assisted Wheelchair Access,Springpark Baptist Church,,0,80 Hendrie St PARK HOLME SA,,SA,Park Holme,0,0,,,,,,,
138.6132154,-34.7584572,Taylor,enter via Halba Cres or Careena Ave;  Assisted Wheelchair Access,Paralowie R-12 School,,0,Whites Road PARALOWIE SA,,SA,Paralowie,0,0,,,,,,,
138.607707,-34.773352,Taylor, ;  No Wheelchair Access,The Pines Primary School,,0,42 Andrew Smith Dr PARAFIELD GARDENS SA,,SA,Parafield Gardens North-West,0,0,,,,,,,
138.5522864,-34.8640168,Enfield, ;  Full Wheelchair Access,Woodville Gardens School B-7,,0,Ridley Gr WOODVILLE GARDENS SA,,SA,Woodville Gardens,0,0,,,,,,,
138.5210355,-34.8854202,Lee, ;  Assisted Wheelchair Access,Woodville West Kindergarten,,0,Cnr Elizabeth St & Lawton Cres WOODVILLE WEST SA,,SA,Woodville West,0,0,,,,,,,
138.556371,-35.105304,Fisher,Gymnasium off Investigator Drive;  Full Wheelchair Access,Woodcroft Primary School,,0,1-23 Investigator Dr WOODCROFT SA,,SA,Woodcroft,0,0,,,,,,,
138.543843,-35.113504,Mawson, ;  Full Wheelchair Access,Woodcroft College,,0,143-173 Bains Rd MORPHETT VALE SA,,SA,Woodcroft West,0,0,,,,,,,
138.700704,-34.853403,Torrens, ;  Full Wheelchair Access,Turramurra Recreation Centre,,0,1000 Lower North East Rd HIGHBURY SA,,SA,Highbury,0,0,,,,,,,
138.607707,-34.773352,Port Adelaide, ;  No Wheelchair Access,The Pines Primary School,,0,42 Andrew Smith Dr PARAFIELD GARDENS SA,,SA,Parafield Gardens North-West,0,0,,,,,,,
138.677139,-34.799999,Florey, ;  No Wheelchair Access,Keithcot Farm Children's Centre,,0,5 Keithcot Farm Dr WYNN VALE SA,,SA,Wynn Vale West,0,0,,,,,,,
138.5918388,-34.9808784,Ashford, ;  Full Wheelchair Access,Colonel Light Gardens Uniting Church Hall,,0,560 Goodwood Rd DAW PARK SA,,SA,Daw Park,0,0,,,,,,,
138.67363,-34.6802379,Light, ;  Full Wheelchair Access,John Hartley School,,0,199 Peachey Rd SMITHFIELD PLAINS SA,,SA,Smithfield Plains,0,0,,,,,,,
138.5522864,-34.8640168,Cheltenham, ;  Full Wheelchair Access,Woodville Gardens School B-7,,0,Ridley Gr WOODVILLE GARDENS SA,,SA,Woodville Gardens,0,0,,,,,,,
138.71283,-34.993392,Bragg, ;  Assisted Wheelchair Access,Crafers Primary School,,1,55 Piccadilly Rd CRAFERS SA,,SA,Crafers,0,0,,,,,,,
138.7003008,-34.7123942,Little Para, ;  Assisted Wheelchair Access,Craigmore South Primary School,,0,Turner Dr CRAIGMORE SA,,SA,Craigmore South,0,0,,,,,,,
138.625428,-35.00373,Waite, ;  Full Wheelchair Access,Belair School,,1,45-83 Main Rd BELAIR SA,,SA,Belair,0,0,,,,,,,
138.47913,-35.137963,Reynell,enter off Price Street.;  Full Wheelchair Access,Christies Beach Primary School,,1,46 Maturin Ave CHRISTIES BEACH SA,,SA,Christies Beach,0,0,,,,,,,
138.5644327,-34.9743441,Elder, ;  Full Wheelchair Access,Edwardstown Community Church,,1,Cnr De Laine Ave & Towers Tce EDWARDSTOWN SA,,SA,Edwardstown,0,0,,,,,,,
138.6756238,-34.7030062,Little Para,Wheelchair access from Amport St;  Full Wheelchair Access,Elizabeth North Primary School,,0,141 Woodford Rd ELIZABETH NORTH SA,,SA,Elizabeth North,0,0,,,,,,,
138.6644061,-34.6978323,Napier, ;  Assisted Wheelchair Access,Swallowcliffe Primary School,,0,Swallowcliffe Rd DAVOREN PARK SA,,SA,Davoren Park,0,0,,,,,,,
138.5918388,-34.9808784,Elder,Use Aver Avenue  playground entrance;  Full Wheelchair Access,Colonel Light Gardens Uniting Church Hall,,0,560 Goodwood Rd DAW PARK SA,,SA,Daw Park,0,0,,,,,,,
138.5213194,-34.8768027,Cheltenham, ;  Assisted Wheelchair Access,Lutheran Church Albert Park,,0,Cnr Botting & Osborne Sts ALBERT PARK SA,,SA,Albert Park,0,0,,,,,,,
138.5588559,-34.8628519,Enfield,via Stuart Street;  Full Wheelchair Access,St Pauls Lutheran Church,,0,Cnr Stuart & Parker Sts FERRYDEN PARK SA,,SA,Ferryden Park,0,0,,,,,,,
138.662969,-34.8492663,Florey,Gym;  Full Wheelchair Access,Wandana Primary School,,0,2 Cowra Ave GILLES PLAINS SA,,SA,Gilles Plains,0,0,,,,,,,
133.673371,-32.125347,Flinders, ;  Assisted Wheelchair Access,Ceduna Memorial Hall,,0,31 Poynton St CEDUNA SA,,SA,Ceduna,0,0,,,,,,,
138.520057,-34.894716,Colton, ;  Full Wheelchair Access,Seaton Park Primary School,,0,80 Balcombe Ave SEATON SA,,SA,Seaton Park,0,0,,,,,,,
134.890267,-33.64856,Flinders, ;  Assisted Wheelchair Access,Elliston CWA Rooms,,0,9 Memorial Dr ELLISTON SA,,SA,Elliston,0,0,,,,,,,
138.6022664,-34.8659825,Enfield,off Harewood Ave;  Full Wheelchair Access,Enfield Primary School,,0,Clarice Ave ENFIELD SA,,SA,Enfield,0,0,,,,,,,
138.603608,-34.873147,Enfield, ;  Full Wheelchair Access,Our Lady of the Sacred Heart College,,1,496 Regency Road ENFIELD SA,,SA,Enfield South,0,1,,,,,,,
138.4953247,-34.8514928,Lee, ;  Full Wheelchair Access,Portlife Church,,0,1 Causeway Rd ETHELTON SA,,SA,Ethelton,0,0,,,,,,,
139.0848947,-34.1735308,Stuart, ;  Assisted Wheelchair Access,Eudunda RSL Club,,0,2 Railway Pde EUDUNDA SA,,SA,Eudunda,0,0,,,,,,,
138.7379327,-34.6151357,Light, ;  Assisted Wheelchair Access,Gawler and District College B12,,0,Barnet Rd EVANSTON SA,,SA,Evanston,0,0,,,,,,,
138.719474,-34.624135,Light,enter via Community Centre;  Full Wheelchair Access,Evanston Gardens Memorial Hall,,0,65 Angle Vale Road EVANSTON GARDENS SA,,SA,Evanston Gardens,0,0,,,,,,,
138.7304886,-34.7983823,Newland, ;  Full Wheelchair Access,Fairview Park Primary School,,0,Nepondi Ct FAIRVIEW PARK SA,,SA,Fairview Park,0,0,,,,,,,
138.796215,-33.827385,Stuart, ;  Assisted Wheelchair Access,Farrell Flat Primary School,,0,1-9 Love St FARRELL FLAT SA,,SA,Farrell Flat,0,0,,,,,,,
138.6435517,-34.8901433,Hartley, ;  Assisted Wheelchair Access,Felixstow Education Office,,0,5-11 Briar Rd FELIXSTOW SA,,SA,Felixstow,0,0,,,,,,,
138.5547179,-34.8755444,Croydon, ;  Full Wheelchair Access,Challa Gardens Primary School,,0,Humphries Tce KILKENNY SA,,SA,Challa Gardens,0,0,,,,,,,
138.6629509,-34.785334,Wright, ;  Assisted Wheelchair Access,Madison Park School,,0,19 Lincoln Ave SALISBURY EAST SA,,SA,Salisbury East,0,0,,,,,,,
138.6716678,-34.7729902,Wright, ;  Full Wheelchair Access,Tyndale Christian School,,0,London Dr SALISBURY EAST SA,,SA,Salisbury East North,0,0,,,,,,,
138.6570242,-34.7930731,Wright,enter via Melville Road;  Assisted Wheelchair Access,Keller Rd Primary School,,0,Keller Rd SALISBURY EAST SA,,SA,Salisbury East South,0,0,,,,,,,
138.678375,-34.758826,Little Para, ;  Assisted Wheelchair Access,Salisbury Heights Primary School,,0,9 Ward St SALISBURY HEIGHTS SA,,SA,Salisbury Heights,1,0,,,,,,,
138.783195,-34.080675,Frome, ;  Assisted Wheelchair Access,Saddleworth Primary School,,0,7 Saddle Rd SADDLEWORTH SA,,SA,Saddleworth,0,0,,,,,,,
138.647242,-34.767175,Ramsay,enter via Harvey Ave - Gym;  Assisted Wheelchair Access,Salisbury Primary School,,0,10 Compuda Street SALISBURY SA,,SA,Salisbury,0,0,,,,,,,
138.6460404,-34.7631385,Ramsay, ;  Full Wheelchair Access,TAFE SA Salisbury Campus,,0,16 Wiltshire St SALISBURY SA,,SA,Salisbury Central,1,0,,,,,,,
138.623353,-34.771628,Ramsay, ;  Full Wheelchair Access,Salisbury Downs Primary School,,0,39 Paramount Rd SALISBURY DOWNS SA,,SA,Salisbury Downs,0,0,,,,,,,
139.3762847,-35.3082808,Hammond, ;  Assisted Wheelchair Access,Wellington Community Hall,,0,Jervois Rd WELLINGTON SA,,SA,Wellington,0,0,,,,,,,
138.5208134,-35.0316711,Bright, ;  Full Wheelchair Access,Seacliff Uniting Church Hall,,0,Wheatland St SEACLIFF SA,,SA,Seacliff,0,0,,,,,,,
138.5424485,-35.0290947,Mitchell,Wheelchair access only through side door;  Full Wheelchair Access,Seaview High School,,0,Seacombe Rd SEACOMBE HEIGHTS SA,,SA,Seacombe Heights,0,0,,,,,,,
138.51019,-34.9387175,Morphett, ;  Full Wheelchair Access,West Beach Primary School,,0,3 Woodhead St WEST BEACH SA,,SA,West Beach,0,0,,,,,,,
138.6087013,-34.9062837,Adelaide,access from Melbourne St or Sussex St;  Full Wheelchair Access,St Cyprian's Anglican Church,,0,70 Melbourne St NORTH ADELAIDE SA,,SA,North Adelaide East,0,0,,,,,,,
138.597563,-34.904986,Adelaide,enter off Tynte St or Gover St;  Full Wheelchair Access,North Adelaide Primary School,,1,62-80 Tynte St NORTH ADELAIDE SA,,SA,North Adelaide,0,0,,,,,,,
140.7463852,-36.9791341,MacKillop, ;  Full Wheelchair Access,Naracoorte South Primary School,,0,Cedar Ave NARACOORTE SA,,SA,Naracoorte South,0,0,,,,,,,
140.742271,-36.955559,MacKillop, ;  Full Wheelchair Access,Naracoorte Town Hall,,0,95 Smith Street NARACOORTE SA,,SA,Naracoorte,0,0,,,,,,,
138.1006308,-33.1525743,Frome, ;  Assisted Wheelchair Access,Napperby Primary School,,0,Oaks Rd NAPPERBY SA,,SA,Napperby,0,0,,,,,,,
140.817513,-37.541343,MacKillop, ;  No Wheelchair Access,Nangwarry Primary School,,0,Whitford Cres NANGWARRY SA,,SA,Nangwarry,0,0,,,,,,,
138.4964926,-35.1512522,Mawson,enter off Canterbury Cres or Taranaki St;  Full Wheelchair Access,Noarlunga Downs Primary School,,0,Canterbury Cres NOARLUNGA DOWNS SA,,SA,Noarlunga Downs,0,0,,,,,,,
139.5848056,-34.7703823,Chaffey, ;  No Wheelchair Access,Nildottie Lutheran Church Hall,,0,4103 Hunter Rd NILDOTTIE SA,,SA,Nildottie,0,0,,,,,,,
138.5463817,-34.9542254,West Torrens, ;  Assisted Wheelchair Access,Netley Kindergarten,,0,Comet Ave NETLEY SA,,SA,Netley,0,0,,,,,,,
138.6252737,-34.9670692,Waite, ;  Assisted Wheelchair Access,Urrbrae Agricultural High School,,0,505 Fullarton Rd NETHERBY SA,,SA,Netherby,0,0,,,,,,,
138.675553,-34.925219,Bragg, ;  Assisted Wheelchair Access,Christopher Rawson Penfold Kindergarten,,0,2a Yeltana Ave WATTLE PARK SA,,SA,Wattle Park,0,0,,,,,,,
138.595497,-34.943095,Unley,access via Rose Place walkway;  Assisted Wheelchair Access,Latvian Evangelical Lutheran Church,,1,23 Rose Tce WAYVILLE SA,,SA,Wayville,0,0,,,,,,,
138.594753,-35.078135,Fisher, ;  Assisted Wheelchair Access,Aberfoyle Hub R-7 School,,0,29 Jeanette Cres ABERFOYLE PARK SA,,SA,Aberfoyle Park South,0,0,,,,,,,
137.753843,-32.471485,Stuart,School Gym;  Assisted Wheelchair Access,Flinders View Primary School,,0,54 Chinnery St PORT AUGUSTA WEST SA,,SA,Port Augusta West,0,0,,,,,,,
137.9308122,-33.5999266,Frome, ;  Full Wheelchair Access,Port Broughton Institute,,0,31 McKay St PORT BROUGHTON SA,,SA,Port Broughton,0,0,,,,,,,
137.763715,-32.494535,Stuart,Main hall entrance;  Assisted Wheelchair Access,Cooinda Club,,0,32 Flinders Tce PORT AUGUSTA SA,,SA,Port Augusta,0,0,,,,,,,
137.772662,-32.494171,Stuart,Main entrance;  Assisted Wheelchair Access,TAFE SA Port Augusta Campus,,0,9-39 Carlton Pde PORT AUGUSTA SA,,SA,Port Augusta Central,0,0,,,,,,,
138.62262,-34.823671,Playford, ;  Full Wheelchair Access,Pooraka Farm Community Centre Inc,,0,126 Henderson Ave POORAKA SA,,SA,Pooraka North,0,0,,,,,,,
138.4995425,-34.8446664,Port Adelaide, ;  Full Wheelchair Access,TAFE SA Port Adelaide Campus,,0,Mundy St PORT ADELAIDE SA,,SA,Port Adelaide,0,0,,,,,,,
134.8337018,-32.7209491,Flinders, ;  No Wheelchair Access,Poochera Community District Hall,,0,Cnr Main Rd & Kent St POOCHERA SA,,SA,Poochera,0,0,,,,,,,
138.613697,-34.833356,Playford, ;  Full Wheelchair Access,Pooraka Primary School,,0,11 South Tce POORAKA SA,,SA,Pooraka,0,0,,,,,,,
139.0507354,-34.0755995,Stuart, ;  Assisted Wheelchair Access,Point Pass District Hall,,0,15 Main St POINT PASS SA,,SA,Point Pass,0,0,,,,,,,
139.3071668,-34.948948,Hammond, ;  No Wheelchair Access,Ponde Hall,,0,443 Dabinett Rd PONDE SA,,SA,Ponde,0,0,,,,,,,
138.471613,-35.174885,Kaurna, ;  Full Wheelchair Access,Seaford K-7 School,,0,39 Jane St PORT NOARLUNGA SOUTH SA,,SA,Port Noarlunga South,0,0,,,,,,,
138.0040025,-33.1837914,Frome, ;  Full Wheelchair Access,TAFE SA Port Pirie Campus,,0,Cnr The Terrace & Mary Elie St PORT PIRIE SA,,SA,Port Pirie,0,0,,,,,,,
138.0094313,-33.203988,Frome, ;  Assisted Wheelchair Access,Risdon Park Primary School,,0,28 Kingston Rd PORT PIRIE SA,,SA,Port Pirie South,0,0,,,,,,,
137.484637,-34.4973646,Goyder, ;  Full Wheelchair Access,Port Victoria Institute,,0,16 Main St PORT VICTORIA SA,,SA,Port Victoria,0,0,,,,,,,
137.8562699,-34.7825043,Goyder, ;  Full Wheelchair Access,Port Vincent Senior Citizens Co-op,,0,Main St PORT VINCENT SA,,SA,Port Vincent,0,0,,,,,,,
138.1501372,-34.1851301,Goyder, ;  Full Wheelchair Access,Port Wakefield Soldiers Memorial Hall,,0,Edward St PORT WAKEFIELD SA,,SA,Port Wakefield,0,0,,,,,,,
138.590041,-34.885187,Adelaide,access via Olive St & Braund Rd;  Full Wheelchair Access,Prospect Primary School,,1,27 Gladstone Rd PROSPECT SA,,SA,Prospect,0,0,,,,,,,
138.7351716,-35.2162255,Heysen, ;  Full Wheelchair Access,Prospect Hill Community Hall,,0,Morris Road PROSPECT HILL SA,,SA,Prospect Hill,0,0,,,,,,,
138.5980531,-34.8956108,Adelaide,off Highbury Street;  Full Wheelchair Access,Blackfriars Gymnasium,,0,Highbury St PROSPECT SA,,SA,Prospect South,1,0,,,,,,,
139.6182931,-34.8538765,Chaffey, ;  Full Wheelchair Access,Purnong District Hall,,0,Forster St PURNONG SA,,SA,Purnong,0,0,,,,,,,
138.5756991,-35.0033039,Waite,enter from Walsh Avenue;  Assisted Wheelchair Access,St Bernadette's Parish Hall,,0,Cnr South Road & Walsh Avenue ST MARYS SA,,SA,St Marys,0,0,,,,,,,
138.6174747,-34.7943019,Port Adelaide,enter via Blackie Street;  Full Wheelchair Access,Karrendi Primary School,,0,Bradman Rd PARAFIELD GARDENS SA,,SA,Parafield Gardens,0,0,,,,,,,
138.657208,-34.834205,Playford, ;  No Wheelchair Access,Valley View Secondary School,,0,240 Wright Rd PARA VISTA SA,,SA,Para Vista,0,0,,,,,,,
138.540845,-34.872922,Cheltenham,enter from Brocas Ave;  No Wheelchair Access,Woodville High School,,0,11 Actil Ave ST CLAIR SA,,SA,St Clair,0,0,,,,,,,
138.542125,-35.010865,Mitchell, ;  Assisted Wheelchair Access,St Elizabeth Of Hungary Anglican Church,,1,12 Dwyer Rd OAKLANDS PARK SA,,SA,Oaklands Park,0,0,,,,,,,
138.5220011,-35.0051895,Bright, ;  Full Wheelchair Access,Brighton High School,,0,303 Brighton Rd NORTH BRIGHTON SA,,SA,North Brighton West,0,0,,,,,,,
138.674578,-34.882453,Morialta, ;  Full Wheelchair Access,St Francis of Assisi School,,0,57 Newton Road NEWTON SA,,SA,Newton,0,0,,,,,,,
138.603999,-34.8820002,Enfield,Balfour Street;  Full Wheelchair Access,Nailsworth Primary School,,0,2 Balfour St NAILSWORTH SA,,SA,Nailsworth,0,0,,,,,,,
138.665971,-34.817768,Playford, ;  Assisted Wheelchair Access,East Para Primary School,,0,12 Caroona Ave PARA HILLS SA,,SA,Para Hills East,0,0,,,,,,,
138.5431356,-35.1296395,Reynell, ;  Full Wheelchair Access,Coorara Primary School,,0,Taylors Ave MORPHETT VALE SA,,SA,Onkaparinga Hills,0,0,,,,,,,
138.5365811,-35.1001313,Mitchell, ;  Full Wheelchair Access,Reynella Primary School,,0,55-63 Concord Dr OLD REYNELLA SA,,SA,Old Reynella,0,0,,,,,,,
138.5011079,-35.1833542,Mawson,enter from Patapinda Rd;  Assisted Wheelchair Access,Old Noarlunga Primary School,,0,Malpas St OLD NOARLUNGA SA,,SA,Old Noarlunga,0,0,,,,,,,
138.0072533,-33.8653722,Frome, ;  Assisted Wheelchair Access,Bute Institute,,0,17 Railway Tce BUTE SA,,SA,Bute,0,0,,,,,,,
139.7636887,-34.0386285,Stuart, ;  Assisted Wheelchair Access,Cadell Institute,,0,McGuire Tce CADELL SA,,SA,Cadell,0,0,,,,,,,
138.531529,-35.211884,Mawson,enter from Caffrey St;  Full Wheelchair Access,McLaren Vale Primary School,,0,249 Main Rd MCLAREN VALE SA,,SA,McLaren Vale,1,0,,,,,,,
138.7538219,-35.1824315,Heysen, ;  Full Wheelchair Access,Meadows Memorial Hall,,0,Mawson Rd MEADOWS SA,,SA,Meadows,0,0,,,,,,,
138.5413205,-34.9625834,Ashford, ;  Full Wheelchair Access,Camden Park Scout Hall,,0,Cnr Deeds Rd & Bristol Ave CAMDEN PARK SA,,SA,Camden Park,0,0,,,,,,,
138.662208,-34.879316,Hartley,Parking off Rowney Avenue.;  Full Wheelchair Access,Uniting Church Hall Campbelltown,,0,607 Lower North East Rd CAMPBELLTOWN SA,,SA,Campbelltown,0,0,,,,,,,
138.1082183,-35.6044196,Finniss, ;  Full Wheelchair Access,"Cape Jervis Community , Recreation & Sporting Club",,0,Ransford Street CAPE JERVIS SA,,SA,Cape Jervis,0,0,,,,,,,
140.4345842,-37.8966014,Mount Gambier, ;  Assisted Wheelchair Access,Carpenter Rocks Recreation Hall,,0,Carpenter Rocks Rd CARPENTER ROCKS SA,,SA,Carpenter Rocks,0,0,,,,,,,
138.8779223,-34.1283231,Frome, ;  Assisted Wheelchair Access,Marrabel District Hall,,0,Main Rd MARRABEL SA,,SA,Marrabel,0,0,,,,,,,
138.4792021,-35.2253842,Kaurna, ;  Full Wheelchair Access,Maslin Beach Community Hall,,0,Parkway Dr MASLIN BEACH SA,,SA,Maslin Beach,0,0,,,,,,,
136.980977,-35.237355,Goyder, ;  Full Wheelchair Access,Marion Bay Community Hall,,0,10 Slow St MARION BAY SA,,SA,Marion Bay,0,0,,,,,,,
138.555315,-35.0120821,Elder, ;  Full Wheelchair Access,Marion Uniting Church,,0,Township Rd MARION SA,,SA,Marion South,0,0,,,,,,,
138.6360078,-34.9126305,Dunstan,access via Dover St;  No Wheelchair Access,New Life Christian Community Church,,0,17a Augusta St MAYLANDS SA,,SA,Maylands,0,0,,,,,,,
138.5869084,-35.2067099,Mawson, ;  Assisted Wheelchair Access,McLaren Flat Memorial Hall,,0,Main Rd MCLAREN FLAT SA,,SA,McLaren Flat,0,0,,,,,,,
138.6114386,-34.8181121,Port Adelaide, ;  Full Wheelchair Access,Mawson Lakes UNISA Sports Centre,,0,Mawson Lakes Blvd MAWSON LAKES SA,,SA,Mawson Lakes,0,0,,,,,,,
138.6149237,-34.8086732,Port Adelaide, ;  Full Wheelchair Access,Mawson Lakes School,,0,Garden Tce MAWSON LAKES SA,,SA,Mawson Lakes North,0,0,,,,,,,
138.7054245,-34.8345115,Newland, ;  Full Wheelchair Access,Ardtornish Primary School,,0,Saarinen Ave ST AGNES SA,,SA,St Agnes West,0,0,,,,,,,
138.557766,-34.979012,Elder, ;  Full Wheelchair Access,Forbes Primary School,,0,80 Thomas St SOUTH PLYMPTON SA,,SA,South Plympton,0,0,,,,,,,
137.5456819,-33.0199429,Giles,Enter via Schulz Ave;  Assisted Wheelchair Access,Hincks Ave Primary School,,0,Cnr Hincks & Schulze Ave WHYALLA NORRIE SA,,SA,Whyalla Norrie North,0,0,,,,,,,
137.5331059,-33.0161654,Giles, ;  Assisted Wheelchair Access,Fisk St Primary School,,0,Pattinson Cl WHYALLA NORRIE SA,,SA,Whyalla Norrie North-West,0,0,,,,,,,
137.5674614,-33.0339079,Giles, ;  Assisted Wheelchair Access,Memorial Oval Primary School,,0,Cnr Bradford & Lockhart Sts WHYALLA SA,,SA,Whyalla Central West,0,0,,,,,,,
137.5511059,-33.0281753,Giles,Enter from car park on Norrie Ave;  Assisted Wheelchair Access,Nicolson Ave Primary School,,0,Cnr Nicolson & Norrie Ave WHYALLA NORRIE SA,,SA,Whyalla Norrie East,0,0,,,,,,,
140.7287149,-36.5816324,MacKillop, ;  No Wheelchair Access,Western Flat Hall,,0,Bordertown-Naracoorte Rd WESTERN FLAT SA,,SA,Western Flat,0,0,,,,,,,
137.5859526,-33.0362689,Giles,Enter via Broadbent Tce. Disabled access via Walls St.;  Assisted Wheelchair Access,Whyalla Town Primary School,,0,3-9 Walls St WHYALLA SA,,SA,Whyalla Central East,0,0,,,,,,,
138.4821239,-34.8643201,Lee, ;  Full Wheelchair Access,West Lakes Shore Primary School,,0,Edwin St WEST LAKES SHORE SA,,SA,West Lakes Shore,0,0,,,,,,,
138.54844,-34.930743,West Torrens, ;  Assisted Wheelchair Access,Adelaide College of Divinity,,0,34 Lipsett Tce BROOKLYN PARK SA,,SA,West Richmond,0,0,,,,,,,
138.559167,-34.889366,Croydon, ;  Full Wheelchair Access,West Croydon United Church,,1,40 Rosetta St WEST CROYDON SA,,SA,West Croydon,0,1,"Plus tea, cream puffs and more",,,,,,
138.5628353,-34.9040582,Croydon,enter via Albermarle Street;  Full Wheelchair Access,St Joseph's School,,0,56 Albemarle St WEST HINDMARSH SA,,SA,West Hindmarsh,0,0,,,,,,,
138.588912,-34.951508,Unley, ;  Full Wheelchair Access,Goodwood Primary School,,1,140 Goodwood Rd GOODWOOD SA,,SA,Goodwood,0,0,,,,,,,
138.49588,-34.902423,Lee, ;  Full Wheelchair Access,Grange Primary School,,0,39a Jetty St GRANGE SA,,SA,Grange,0,0,,,,,,,
138.708397,-34.767947,Wright, ;  Full Wheelchair Access,Salvation Army,,0,1681 Golden Grove Rd GREENWITH SA,,SA,Greenwith West,0,0,,,,,,,
138.6678396,-34.7916168,Playford,Gym;  Assisted Wheelchair Access,Gulfview Heights Primary School,,0,Kiekebusch Rd GULFVIEW HEIGHTS SA,,SA,Gulfview Heights,0,0,,,,,,,
138.666258,-34.913279,Hartley, ;  Assisted Wheelchair Access,St Joseph's School,,0,1 Birkinshaw Ave TRANMERE SA,,SA,Tranmere,0,0,,,,,,,
138.563046,-34.917287,West Torrens, ;  Assisted Wheelchair Access,Thebarton Senior College,,1,40 Ashley St TORRENSVILLE SA,,SA,Torrensville,0,0,,,,,,,
138.700704,-34.853403,Newland, ;  Full Wheelchair Access,Turramurra Recreation Centre,,0,1000 Lower North East Rd HIGHBURY SA,,SA,Highbury,0,0,,,,,,,
138.6501329,-34.9256779,Bragg, ;  Assisted Wheelchair Access,Marryatville Primary School,,0,54 Dankel Ave KENSINGTON SA,,SA,Kensington,0,0,,,,,,,
138.7267785,-34.822401,Newland, ;  Full Wheelchair Access,Tea Tree Gully Primary School,,1,Memorial Dr TEA TREE GULLY SA,,SA,Tea Tree Gully,0,0,,,,,,,
140.7920329,-37.6494754,Mount Gambier, ;  Assisted Wheelchair Access,Tarpeena Community Hall,,0,Riddoch Highway TARPEENA SA,,SA,Tarpeena,0,0,,,,,,,
140.0847197,-35.9054731,MacKillop, ;  Assisted Wheelchair Access,Tintinara War Memorial Institute,,0,Dukes Hwy TINTINARA SA,,SA,Tintinara,0,0,,,,,,,
138.9193351,-33.150367,Stuart, ;  Assisted Wheelchair Access,Terowie Institute,,0,Cnr Main & Besanko Sts TEROWIE SA,,SA,Terowie,0,0,,,,,,,
138.4964568,-34.8042902,Port Adelaide, ;  Assisted Wheelchair Access,Ocean View College,,0,Gedville Rd TAPEROO SA,,SA,Taperoo,0,0,,,,,,,
138.9925514,-34.5113795,Schubert, ;  Full Wheelchair Access,Tanunda Primary School,,0,Research Rd TANUNDA SA,,SA,Tanunda,0,0,,,,,,,
138.7613909,-34.2664243,Frome, ;  Assisted Wheelchair Access,Tarlee Community Hall,,0,3475 Horrocks Highway TARLEE SA,,SA,Tarlee,0,0,,,,,,,
138.53053,-34.844174,Port Adelaide,enter via Railway Terrace;  Assisted Wheelchair Access,Our Lady of Visitation,,0,15 Railway Tce TAPEROO SA,,SA,Taperoo East,0,0,,,,,,,
138.885542,-34.82172,Kavel, ;  Assisted Wheelchair Access,Torrens Valley Community Centre,,0,45 Albert St GUMERACHA SA,,SA,Gumeracha,0,0,,,,,,,
138.5167679,-35.1419611,Mawson, ;  Full Wheelchair Access,Hackham West R-7 School,,0,50 Glynville Dr HACKHAM WEST SA,,SA,Hackham West,0,0,,,,,,,
138.6260823,-34.8716331,Torrens,enter via Karoomba Avenue;  Full Wheelchair Access,Hampstead Primary School,,0,38 Muller Rd GREENACRES SA,,SA,Greenacres,0,0,,,,,,,
138.629007,-34.866952,Torrens, ;  No Wheelchair Access,St Martin's Parish Primary School,,0,66-80 Princes Rd GREENACRES SA,,SA,Greenacres North,0,0,,,,,,,
138.9271213,-34.4574849,Schubert, ;  Full Wheelchair Access,Greenock Institute,,0,Kapunda Rd GREENOCK SA,,SA,Greenock,0,0,,,,,,,
138.7163789,-34.7680815,Wright, ;  Full Wheelchair Access,Greenwith Primary School,,0,Golden Grove Rd GREENWITH SA,,SA,Greenwith,0,0,,,,,,,
138.6977251,-34.79465,Wright,Dame Roma Mitchell Centre;  Assisted Wheelchair Access,Golden Grove High School,,0,Adey Pl GOLDEN GROVE SA,,SA,Golden Grove Central,0,0,,,,,,,
138.706119,-34.7883024,Wright,Gym - enter via Botany Drive;  Assisted Wheelchair Access,Golden Grove Primary School,,1,Bicentennial Dr GOLDEN GROVE SA,,SA,Golden Grove East,0,0,,,,,,,
138.7755212,-35.501262,Hammond, ;  Full Wheelchair Access,Goolwa Primary School,,0,Gardiner St GOOLWA SA,,SA,Goolwa,0,0,,,,,,,
138.778499,-35.5044,Hammond, ;  Assisted Wheelchair Access,Goolwa Uniting Church Hall,,0,1 Collingwood St GOOLWA SA,,SA,Goolwa Central,0,0,,,,,,,
138.67363,-34.6802379,Napier, ;  Full Wheelchair Access,John Hartley School,,0,199 Peachey Rd SMITHFIELD PLAINS SA,,SA,Smithfield Plains,0,0,,,,,,,
138.74901,-35.019445,Heysen, ;  Full Wheelchair Access,Aldgate Primary School,,0,3 Fairview Rd ALDGATE SA,,SA,Aldgate,0,0,,,,,,,
138.856842,-35.074275,Heysen, ;  Assisted Wheelchair Access,Mount Barker High School,,0,2 Wellington Rd MOUNT BARKER SA,,SA,Mount Barker,0,0,,,,,,,
138.543605,-34.9955958,Elder, ;  Assisted Wheelchair Access,Marion Sports & Leisure,,0,Oaklands Road MORPHETTVILLE SA,,SA,Morphettville,0,0,,,,,,,
138.603999,-34.8820002,Adelaide,Balfour Street;  Full Wheelchair Access,Nailsworth Primary School,,0,2 Balfour St NAILSWORTH SA,,SA,Nailsworth,0,0,,,,,,,
138.8581834,-35.0808965,Heysen, ;  Full Wheelchair Access,Mount Barker South Primary School,,0,Princes Rd MOUNT BARKER SA,,SA,Mount Barker South,0,0,,,,,,,
137.877778,-34.574534,Goyder, ;  Assisted Wheelchair Access,Pine Point Institute,,0,50 Main Coast Rd PINE POINT SA,,SA,Pine Point,0,0,,,,,,,
138.5289938,-35.1140558,Reynell, ;  Full Wheelchair Access,Pimpala Primary School,,0,24 Vanstone Ave MORPHETT VALE SA,,SA,Pimpala,0,0,,,,,,,
138.725973,-34.98212,Bragg, ;  Assisted Wheelchair Access,Piccadilly Community Hall,,0,171 Piccadilly Rd PICCADILLY SA,,SA,Piccadilly,0,0,,,,,,,
138.838093,-32.973511,Stuart, ;  Assisted Wheelchair Access,Peterborough Town Hall,,0,108 Main St PETERBOROUGH SA,,SA,Peterborough,0,0,,,,,,,
140.8354291,-37.3792776,MacKillop, ;  Assisted Wheelchair Access,Penola RSL Hall,,0,Young St PENOLA SA,,SA,Penola,0,0,,,,,,,
138.5321416,-34.8568533,Cheltenham, ;  Full Wheelchair Access,Pennington Primary School,,1,Butler Ave PENNINGTON SA,,SA,Pennington,0,0,,,,,,,
137.9314472,-35.7199274,Finniss, ;  Full Wheelchair Access,Penneshaw Area School,,0,Howard Dr PENNESHAW SA,,SA,Penneshaw,0,0,,,,,,,
137.9023781,-34.0389353,Goyder, ;  Full Wheelchair Access,Paskeville Community Centre,,0,Railway Tce PASKEVILLE SA,,SA,Paskeville,0,0,,,,,,,
138.5551366,-34.9702183,Ashford, ;  Full Wheelchair Access,Plympton RSL Hall,,0,464 Marion Rd PLYMPTON PARK SA,,SA,Plympton Park,0,0,,,,,,,
140.9091398,-35.261544,Chaffey, ;  Assisted Wheelchair Access,Pinnaroo Institute,,0,Day St PINNAROO SA,,SA,Pinnaroo,0,0,,,,,,,
138.5507753,-34.8840877,Croydon,enter from Wilpena Tce.;  Full Wheelchair Access,Kilkenny Community Hall,,0,Cnr Tarcowie St & Wilpena Tce KILKENNY SA,,SA,Kilkenny,0,0,,,,,,,
136.4188398,-33.1385788,Giles, ;  Assisted Wheelchair Access,Kimba District Council,,0,Cnr West Tce & Cross St KIMBA SA,,SA,Kimba,0,0,,,,,,,
138.5252878,-34.9127396,Colton, ;  Full Wheelchair Access,Kidman Park Primary School,,0,Dean Ave KIDMAN PARK SA,,SA,Kidman Park,0,0,,,,,,,
138.588255,-34.862327,Enfield, ;  Full Wheelchair Access,St Brigid's Parish Hall,,0,43-45 Le Hunte St KILBURN SA,,SA,Kilburn,0,0,,,,,,,
138.5722535,-34.943371,Ashford, ;  Assisted Wheelchair Access,Richmond Primary School,,0,8 Surrey Rd KESWICK SA,,SA,Keswick,0,0,,,,,,,
,,Schubert,via Moculta Road;  No Wheelchair Access,Keyneton Primary School,,0,Moculta Road KEYNETON SA,,SA,Keyneton,0,0,,,,,,,
138.6230246,-34.919467,Dunstan,enter via Grenfell St;  No Wheelchair Access,Wesley Uniting Church,,0,Cnr Fullarton Rd & Grenfell St KENT TOWN SA,,SA,Kent Town,0,0,,,,,,,
138.8502035,-34.7832153,Schubert, ;  Assisted Wheelchair Access,Kersbrook Primary School,,0,Bowden St KERSBROOK SA,,SA,Kersbrook,0,0,,,,,,,
137.63313,-35.651167,Finniss, ;  Full Wheelchair Access,Kingscote Area School,,0,5 Centenary Rd KINGSCOTE SA,,SA,Kingscote,0,0,,,,,,,
139.855666,-36.837413,MacKillop, ;  Full Wheelchair Access,Kingston Community School,,0,46 East Tce KINGSTON SE SA,,SA,Kingston,0,0,,,,,,,
140.4583467,-37.5389662,MacKillop, ;  Assisted Wheelchair Access,Mount Burr United Netball Clubrooms,,0,Riddoch Ave MOUNT BURR SA,,SA,Mount Burr,0,0,,,,,,,
138.8534037,-35.0689221,Kavel, ;  Assisted Wheelchair Access,TAFE SA Mount Barker Campus,,0,Dumas St MOUNT BARKER SA,,SA,Mount Barker Central,0,0,,,,,,,
138.6090355,-34.9281031,Adelaide,enter off Wakefield St;  Full Wheelchair Access,Christian Brothers College,,0,214 Wakefield St ADELAIDE SA,,SA,Adelaide,0,0,,,,,,,
137.589886,-34.06738,Goyder, ;  Assisted Wheelchair Access,Moonta Town Hall,,0,67 George St MOONTA SA,,SA,Moonta,0,0,,,,,,,
138.7490351,-34.8966747,Morialta, ;  No Wheelchair Access,Montacute Institute,,0,63 Institute Rd MONTACUTE SA,,SA,Montacute,0,0,,,,,,,
140.367211,-34.28886,Chaffey, ;  Assisted Wheelchair Access,Moorook Community Hall,,0,644 Kingston Rd MOOROOK SA,,SA,Moorook,0,0,,,,,,,
140.7310887,-37.8641585,Mount Gambier, ;  Assisted Wheelchair Access,Moorak Public Hall,,0,Yells Rd MOORAK SA,,SA,Moorak,0,0,,,,,,,
138.5240626,-35.1226701,Reynell, ;  Assisted Wheelchair Access,St Hilary's Anglican Church,,0,1 High Street MORPHETT VALE SA,,SA,Morphett Vale,0,0,,,,,,,
139.669994,-34.033431,Stuart, ;  Assisted Wheelchair Access,Morgan Institute,,0,3 Ninth St MORGAN SA,,SA,Morgan,0,0,,,,,,,
138.517218,-35.1109569,Reynell, ;  Full Wheelchair Access,Wakefield House Positive Ageing Centre,,0,65 Acre Ave MORPHETT VALE SA,,SA,Morphett Vale North,0,0,,,,,,,
138.534059,-35.127814,Reynell, ;  Full Wheelchair Access,Wirreanda High School,,0,105 Richards Ave MORPHETT VALE SA,,SA,Morphett Vale East,0,0,,,,,,,
138.505836,-34.898174,Lee, ;  Full Wheelchair Access,Christian Family Centre,,0,185 Frederick Rd SEATON SA,,SA,Seaton West,0,0,,,,,,,
138.67363,-34.6802379,Taylor, ;  Full Wheelchair Access,John Hartley School,,0,199 Peachey Rd SMITHFIELD PLAINS SA,,SA,Smithfield Plains,0,0,,,,,,,
138.6712568,-34.7587905,Ramsay, ;  Assisted Wheelchair Access,Salisbury Park Primary School,,0,Wildwood Dr SALISBURY PARK SA,,SA,Salisbury Park,0,0,,,,,,,
138.8276692,-34.611704,Light, ;  Full Wheelchair Access,Sandy Creek Primary School,,0,Davies Rd SANDY CREEK SA,,SA,Sandy Creek,0,0,,,,,,,
138.508657,-34.8848485,Cheltenham, ;  Full Wheelchair Access,Seaton High School,,0,Glenburnie St SEATON SA,,SA,Seaton,0,0,,,,,,,
138.520057,-34.894716,Cheltenham, ;  Full Wheelchair Access,Seaton Park Primary School,,0,80 Balcombe Ave SEATON SA,,SA,Seaton Park,0,0,,,,,,,
138.6763533,-34.900672,Hartley,enter via Moules Road;  Full Wheelchair Access,Norwood Morialta Middle School,,0,Morialta Rd West ROSTREVOR SA,,SA,Rostrevor South,0,0,,,,,,,
138.511895,-34.870653,Lee, ;  Assisted Wheelchair Access,United Church Royal Park,,0,50 Tapleys Hill Rd ROYAL PARK SA,,SA,Royal Park,0,0,,,,,,,
138.5114624,-34.8729983,Lee, ;  Assisted Wheelchair Access,Hendon Primary School,,0,Cedar Ave ROYAL PARK SA,,SA,Royal Park South,0,0,,,,,,,
138.635396,-34.753208,Taylor, ;  Assisted Wheelchair Access,Salisbury North R-7 School,,0,38 Bagster Rd SALISBURY NORTH SA,,SA,Salisbury North,0,0,,,,,,,
138.9710218,-35.4065606,Hammond, ;  Full Wheelchair Access,Eastern Fleurieu School (Milang Campus),,0,Coxe St MILANG SA,,SA,Milang,0,0,,,,,,,
138.7061591,-35.5080955,Finniss, ;  Full Wheelchair Access,Middleton Pioneer Hall,,0,Walker Pl MIDDLETON SA,,SA,Middleton,0,0,,,,,,,
139.3352051,-35.7235779,MacKillop, ;  Full Wheelchair Access,Meningie Uniting Church Hall,,0,Princes Hwy MENINGIE SA,,SA,Meningie,0,0,,,,,,,
138.187876,-32.82377,Stuart, ;  Assisted Wheelchair Access,Melrose Primary School,,0,29 Stuart St MELROSE SA,,SA,Melrose,0,0,,,,,,,
138.5915852,-34.9561663,Unley,enter via Mitchell Street to Orphanage car park;  Full Wheelchair Access,Tabor Adelaide,,0,181 Goodwood Road MILLSWOOD SA,,SA,Millswood,0,0,,,,,,,
140.3619612,-37.6082383,MacKillop, ;  Assisted Wheelchair Access,Newbery Park Primary School,,0,Bridges St MILLICENT SA,,SA,Millicent South,0,0,,,,,,,
140.3503229,-37.592441,MacKillop, ;  Assisted Wheelchair Access,The Millicent War Memorial Civic and Arts Centre,,0,Ridge Tce MILLICENT SA,,SA,Millicent,0,0,,,,,,,
138.570192,-34.923014,West Torrens,via Taylors Lane;  Assisted Wheelchair Access,St George College,,0,75 Rose St MILE END SA,,SA,Mile End,0,0,,,,,,,
135.154575,-32.854147,Flinders, ;  No Wheelchair Access,Minnipa Memorial Hall,,0,24 Thomas St MINNIPA SA,,SA,Minnipa,0,0,,,,,,,
137.594417,-34.772432,Goyder, ;  Full Wheelchair Access,Minlaton Town Hall,,0,57 Main St MINLATON SA,,SA,Minlaton,0,0,,,,,,,
138.5987835,-34.741195,Taylor, ;  No Wheelchair Access,Burton Primary School,,0,49A Kensington Way BURTON SA,,SA,Burton,0,0,,,,,,,
138.938316,-33.682154,Stuart, ;  Assisted Wheelchair Access,Burra Town Hall,,0,4 Market St BURRA SA,,SA,Burra,0,0,,,,,,,
138.5356445,-34.93037,West Torrens,via May Terrace;  Full Wheelchair Access,Lockleys Primary School,,1,29 Elston St BROOKLYN PARK SA,,SA,Brooklyn Park South,0,0,,,,,,,
138.5488,-34.925984,West Torrens, ;  Assisted Wheelchair Access,Brooklyn Park Church of Christ,,1,9 Allen Ave BROOKLYN PARK SA,,SA,Brooklyn Park,0,0,,,,,,,
138.660348,-34.935375,Bragg, ;  Assisted Wheelchair Access,St David's Church Hall,,1,486 Glynburn Rd BURNSIDE SA,,SA,Burnside,0,0,,,,,,,
138.9399147,-35.0088809,Kavel, ;  Assisted Wheelchair Access,Brukunga Community Association,,0,Pyrites Rd BRUKUNGA SA,,SA,Brukunga,0,0,,,,,,,
138.403022,-33.694548,Frome, ;  Assisted Wheelchair Access,Brinkworth Memorial Hall,,0,49 Main St BRINKWORTH SA,,SA,Brinkworth,0,0,,,,,,,
138.521986,-35.016353,Bright, ;  Full Wheelchair Access,Brighton Uniting Church Hall,,0,443 Brighton Rd BRIGHTON SA,,SA,Brighton,0,0,,,,,,,
138.576368,-34.897937,Croydon, ;  Full Wheelchair Access,Bowden Brompton Community Centre,,0,19 Green St BROMPTON SA,,SA,Brompton,0,0,,,,,,,
138.6154099,-34.8803329,Enfield,from Collingrove Ave;  Full Wheelchair Access,Broadview Uniting Church,,1,cnr Galway & Collingrove Ave BROADVIEW SA,,SA,Broadview,0,0,,,,,,,
138.5989846,-35.0590534,Fisher, ;  Full Wheelchair Access,Aberfoyle Park Baptist Church Hall,,0,Cnr Manning Rd & Lyn St ABERFOYLE PARK SA,,SA,Aberfoyle Park North,0,0,,,,,,,
138.6122553,-35.3198787,Finniss, ;  Full Wheelchair Access,Yundi War Memorial Hall,,0,482 Yundi Road  YUNDI SA,,SA,Yundi,0,0,,,,,,,
137.606748,-35.019615,Goyder, ;  Full Wheelchair Access,Yorketown Town Hall,,0,15 Edithburgh Rd YORKETOWN SA,,SA,Yorketown,0,0,,,,,,,
138.337295,-35.4555245,Finniss, ;  Full Wheelchair Access,Yankalilla Area School Jubilee Hall,,0,207 Main Rd YANKALILLA SA,,SA,Yankalilla,0,0,,,,,,,
140.8582494,-37.8786917,Mount Gambier, ;  Full Wheelchair Access,Yahl Primary School,,0,Lange Rd YAHL SA,,SA,Yahl,0,0,,,,,,,
138.4446241,-33.5708659,Frome, ;  Full Wheelchair Access,Yacka Hall,,0,Cnr Charles & Hawker Sts YACKA SA,,SA,Yacka,0,0,,,,,,,
138.6878279,-34.7996618,Wright, ;  No Wheelchair Access,Wynn Vale Primary School,,0,Sunnybrook Dr WYNN VALE SA,,SA,Wynn Vale,0,0,,,,,,,
135.466688,-33.048194,Flinders, ;  Assisted Wheelchair Access,Wudinna Senior Citizens Hall,,0,20 Naylor Tce WUDINNA SA,,SA,Wudinna,0,0,,,,,,,
138.6459039,-34.6443311,Light, ;  Full Wheelchair Access,Angle Vale Primary School,,0,Heaslip Rd ANGLE VALE SA,,SA,Angle Vale,0,0,,,,,,,
138.6597471,-34.6754486,Taylor, ;  Assisted Wheelchair Access,St Columba College,,0,President Ave ANDREWS FARM SA,,SA,Andrews Farm,0,0,,,,,,,
138.6779515,-34.7261161,Little Para, ;  Assisted Wheelchair Access,Elizabeth East Primary School,,0,15 Dolphin St ELIZABETH EAST SA,,SA,Elizabeth East,0,0,,,,,,,
138.6953271,-34.6993311,Napier,via school carpark;  Assisted Wheelchair Access,Elizabeth Downs Primary School,,0,Heard St ELIZABETH DOWNS SA,,SA,Elizabeth Downs,0,0,,,,,,,
138.6847113,-34.7133365,Little Para, ;  Assisted Wheelchair Access,Elizabeth Park Primary School,,0,15 Turner Rd ELIZABETH PARK SA,,SA,Elizabeth Park,1,0,,,,,,,
138.6709367,-34.7319216,Little Para,Wheelchair access from Smitham Street;  Assisted Wheelchair Access,Elizabeth Grove Primary School,,0,20 Haynes St ELIZABETH GROVE SA,,SA,Elizabeth Grove,0,0,,,,,,,
139.1148178,-34.6051894,Schubert, ;  Assisted Wheelchair Access,Eden Valley Lutheran Church Hall,,0,Cnr Murray St & Keyneton Rd EDEN VALLEY SA,,SA,Eden Valley,0,0,,,,,,,
138.6057507,-35.025144,Davenport, ;  Full Wheelchair Access,Blackwood Primary School,,0,Seymour St EDEN HILLS SA,,SA,Eden Hills,0,0,,,,,,,
138.6683857,-34.7157514,Little Para, ;  Assisted Wheelchair Access,Church of the Holy Cross,,0,Elizabeth Way ELIZABETH SA,,SA,Elizabeth,0,0,,,,,,,
137.7458176,-35.0848371,Goyder, ;  Full Wheelchair Access,Edithburgh Institute,,0,Blanche St EDITHBURGH SA,,SA,Edithburgh,0,0,,,,,,,
138.6695983,-34.7469318,Little Para, ;  Assisted Wheelchair Access,Elizabeth Vale Primary School,,0,Rollison Rd ELIZABETH VALE SA,,SA,Elizabeth Vale,0,0,,,,,,,
138.6606989,-34.731101,Little Para, ;  Assisted Wheelchair Access,Elizabeth South Primary School,,0,Chivell St ELIZABETH SOUTH SA,,SA,Elizabeth South,1,0,,,,,,,
138.491278,-34.855121,Lee, ;  Full Wheelchair Access,Westport Primary School,,0,53 West St SEMAPHORE PARK SA,,SA,Semaphore Park South,0,0,,,,,,,
138.4860517,-34.8523476,Lee, ;  No Wheelchair Access,Baptist Church Semaphore Park,,0,Bray Ave SEMAPHORE PARK SA,,SA,Semaphore Park,0,0,,,,,,,
138.4811249,-35.186494,Kaurna, ;  Full Wheelchair Access,All Saints Catholic Primary School,,0,621-631 Grand Boulevard SEAFORD SA,,SA,Seaford East,0,0,,,,,,,
138.4733565,-35.1898521,Kaurna, ;  Full Wheelchair Access,Moana Primary School,,0,Schooner Rd SEAFORD SA,,SA,Seaford,0,0,,,,,,,
138.5348443,-35.0426383,Mitchell, ;  No Wheelchair Access,Seaview Downs Primary School,,0,26-44 Ross St SEAVIEW DOWNS SA,,SA,Seaview Downs,0,0,,,,,,,
138.4830247,-35.20168,Kaurna,enter off Barbados Drive;  Assisted Wheelchair Access,Seaford Rise Primary School,,0,Grand Blvd SEAFORD RISE SA,,SA,Seaford Rise,0,0,,,,,,,
139.3228995,-34.5730304,Schubert,via Stott Highway;  Assisted Wheelchair Access,Sedan Hall,,0,Stott Highway SEDAN SA,,SA,Sedan,0,0,,,,,,,
138.2278308,-35.5280403,Finniss, ;  Assisted Wheelchair Access,Second Valley Soldiers Memorial Hall,,0,Cnr Main South Rd & Finniss Vale Dr SECOND VALLEY SA,,SA,Second Valley,0,0,,,,,,,
138.484715,-34.839359,Lee, ;  Assisted Wheelchair Access,Masonic Hall,,0,66 Semaphore Rd SEMAPHORE SA,,SA,Semaphore,0,0,,,,,,,
138.4561066,-35.3248848,Finniss, ;  Full Wheelchair Access,Sellicks Beach Community Hall,,0,Riviera Dr SELLICKS BEACH SA,,SA,Sellicks Beach,0,0,,,,,,,
138.628766,-34.958046,Unley, ;  Full Wheelchair Access,Fullarton Scout Hall,,0,1A Culross Ave MYRTLE BANK SA,,SA,Myrtle Bank,0,0,,,,,,,
138.9025339,-35.0379736,Kavel, ;  Assisted Wheelchair Access,Nairne Primary School,,0,Saleyard Rd NAIRNE SA,,SA,Nairne,1,0,,,,,,,
138.6990975,-34.67257,Napier, ;  Assisted Wheelchair Access,Munno Para Primary School,,0,Maltarra Rd MUNNO PARA SA,,SA,Munno Para East,0,0,,,,,,,
139.2716606,-35.1167076,Hammond,via Mannum Rd/Ind St;  Assisted Wheelchair Access,Murray Bridge Primary School,,0,North Tce MURRAY BRIDGE SA,,SA,Murray Bridge,0,0,,,,,,,
144.9006185,-37.7943963,Hammond, ;  Assisted Wheelchair Access,Murray Bridge Basketball Stadium,,0,Princes Hwy East MURRAY BRIDGE EAST SA,,SA,Murray Bridge East,0,0,,,,,,,
139.2854968,-35.1334483,Hammond,Gym via Long Island Road;  Assisted Wheelchair Access,Murray Bridge High School,,0,Lohmann St MURRAY BRIDGE SA,,SA,Murray Bridge South,0,0,,,,,,,
139.264831,-35.126242,Hammond, ;  No Wheelchair Access,Bridge Evangelical Christian Church,,0,10 Thomas Street MURRAY BRIDGE SA,,SA,Murray Bridge West,0,0,,,,,,,
138.7600186,-35.0434131,Heysen, ;  Full Wheelchair Access,Mylor Community Hall,,0,Strathalbyn Rd MYLOR SA,,SA,Mylor,0,0,,,,,,,
139.3553081,-35.04071,Hammond, ;  Assisted Wheelchair Access,Mypolonga Institute,,0,Green St MYPOLONGA SA,,SA,Mypolonga,0,0,,,,,,,
138.4661984,-35.3916894,Finniss,via Oval Road Car Park;  Full Wheelchair Access,"Myponga Primary School ""The Shed""",,0,Hutchinson St MYPONGA SA,,SA,Myponga,0,0,,,,,,,
138.856842,-35.074275,Kavel, ;  Assisted Wheelchair Access,Mount Barker High School,,0,2 Wellington Rd MOUNT BARKER SA,,SA,Mount Barker,0,0,,,,,,,
138.8581834,-35.0808965,Kavel, ;  Full Wheelchair Access,Mount Barker South Primary School,,0,Princes Rd MOUNT BARKER SA,,SA,Mount Barker South,0,0,,,,,,,
138.5634261,-34.9512714,West Torrens,via Cross Tce;  Assisted Wheelchair Access,Hayhurst Guide Hall,,0,Cnr Daly St & Cross Tce KURRALTA PARK SA,,SA,Kurralta Park,0,0,,,,,,,
138.4949362,-34.8240065,Lee, ;  Assisted Wheelchair Access,Largs Bay Primary School,,1,Cnr Fletcher Rd & Centre St LARGS BAY SA,,SA,Largs Bay,0,0,,,,,,,
138.4959668,-34.8258153,Lee, ;  Full Wheelchair Access,St Albans Anglican Church,,0,Jetty Rd LARGS BAY SA,,SA,Largs Bay Central,0,0,,,,,,,
138.5265778,-34.9260559,Colton, ;  Assisted Wheelchair Access,Christ the King Church,,0,456 Henley Beach Rd LOCKLEYS SA,,SA,Lockleys,0,0,,,,,,,
138.537705,-34.920681,West Torrens, ;  Full Wheelchair Access,Lockleys North Primary School,,0,55 Malurus Ave LOCKLEYS SA,,SA,Lockleys North,0,0,,,,,,,
138.551214,-34.854431,Enfield,Dudley Street;  Full Wheelchair Access,St Patricks School,,0,33a Dudley St MANSFIELD PARK SA,,SA,Mansfield Park,0,0,,,,,,,
138.5793154,-34.9792113,Elder, ;  Full Wheelchair Access,Edwardstown Primary School,,0,Maria St MELROSE PARK SA,,SA,Melrose Park,0,0,,,,,,,
138.543605,-34.9955958,Morphett, ;  Assisted Wheelchair Access,Marion Sports & Leisure,,0,Oaklands Road MORPHETTVILLE SA,,SA,Morphettville,0,0,,,,,,,
138.828149,-34.9199911,Kavel, ;  Assisted Wheelchair Access,Lenswood Uniting Church Hall,,0,Cnr Swamp & Adelaide-Lobethal Rds LENSWOOD SA,,SA,Lenswood,0,0,,,,,,,
138.3991904,-30.5946767,Stuart, ;  Assisted Wheelchair Access,Leigh Creek Area School,,0,Cnr Black Oak Dr & Moonah St LEIGH CREEK SA,,SA,Leigh Creek,0,0,,,,,,,
138.3006747,-33.1831221,Frome, ;  Assisted Wheelchair Access,Laura RSL Hall,,0,33 Herbert St LAURA SA,,SA,Laura,0,0,,,,,,,
139.0855068,-35.3144646,Hammond, ;  Assisted Wheelchair Access,Langhorne Creek Memorial Hall,,0,Wellington Rd LANGHORNE CREEK SA,,SA,Langhorne Creek,0,0,,,,,,,
140.5153757,-35.335793,Chaffey, ;  Full Wheelchair Access,SA Ambulance Station,,0,Chandos Tce LAMEROO SA,,SA,Lameroo,0,0,,,,,,,
138.6205132,-34.7397115,Taylor, ;  Assisted Wheelchair Access,Lake Windemere School,,0,Uraidla Ave SALISBURY NORTH SA,,SA,Lake Windemere,0,0,,,,,,,
140.9260551,-36.8700415,MacKillop, ;  Assisted Wheelchair Access,Kybybolite Memorial Sports Complex,,0,Kiddle St KYBYBOLITE SA,,SA,Kybybolite,0,0,,,,,,,
140.5569305,-37.8992648,Mount Gambier, ;  Assisted Wheelchair Access,Kongorong Soldiers Memorial Institute,,0,Hay Tce KONGORONG SA,,SA,Kongorong,0,0,,,,,,,
135.8699108,-34.7312646,Flinders, ;  Assisted Wheelchair Access,Kirton Point Primary School,,0,47 Matthew Pl PORT LINCOLN SA,,SA,Kirton Point,0,0,,,,,,,
138.6158827,-34.9715659,Waite, ;  Full Wheelchair Access,Mitcham Primary School,,0,Hillview Rd KINGSWOOD SA,,SA,Kingswood,0,0,,,,,,,
134.7556059,-29.0093321,Giles, ;  Assisted Wheelchair Access,TAFE SA Coober Pedy Campus,,0,Post Office Hill Rd & Hutchison St COOBER PEDY SA,,SA,Coober Pedy,0,0,,,,,,,
137.7303013,-35.0420933,Goyder, ;  Full Wheelchair Access,Coobowie Community Hall,,0,Gilbert St COOBOWIE SA,,SA,Coobowie,0,0,,,,,,,
138.514957,-34.981295,Morphett, ;  Assisted Wheelchair Access,St Mary's Hall,,0,17 High St GLENELG SA,,SA,Glenelg,0,0,,,,,,,
140.6029819,-37.6704192,MacKillop, ;  Assisted Wheelchair Access,Glencoe Central Primary School,,0,Kirip Rd GLENCOE SA,,SA,Glencoe,0,0,,,,,,,
138.5238078,-34.9874875,Morphett, ;  Full Wheelchair Access,Glenelg Primary School,,0,Diagonal Rd GLENELG EAST SA,,SA,Glenelg East Central,1,0,,,,,,,
138.520576,-34.980497,Morphett, ;  Assisted Wheelchair Access,St Paul's Lutheran Church Hall,,0,48 Brighton Road GLENELG EAST SA,,SA,Glenelg East,0,0,,,,,,,
138.516976,-34.989565,Morphett, ;  Assisted Wheelchair Access,St Martin's Church,,0,45 Hastings St GLENELG SOUTH SA,,SA,Glenelg South,0,0,,,,,,,
138.5199788,-34.9728653,Morphett, ;  Assisted Wheelchair Access,St Leonards Primary School,,0,Jervois St GLENELG NORTH SA,,SA,Glenelg North,0,0,,,,,,,
140.5434503,-34.2786807,Chaffey, ;  Assisted Wheelchair Access,Glossop High School,,0,Old Sturt Hwy GLOSSOP SA,,SA,Glossop,0,0,,,,,,,
138.5301238,-34.9834938,Morphett, ;  Assisted Wheelchair Access,Glengowrie Uniting Church,,0,Cnr Butler Cres & Beadnall Tce GLENGOWRIE SA,,SA,Glengowrie,0,0,,,,,,,
138.7315977,-34.7744796,Little Para, ;  Assisted Wheelchair Access,Uniting Church,,0,Cnr One Tree Hill & Crouch Rds GOLDEN GROVE SA,,SA,Golden Grove,0,0,,,,,,,
138.6565634,-34.8913692,Hartley, ;  Full Wheelchair Access,Zion Lutheran Church,,0,15 Glynburn Rd GLYNDE SA,,SA,Glynde,0,0,,,,,,,
138.5374477,-35.0031672,Elder, ;  Full Wheelchair Access,Warradale Primary School,,0,Keynes Ave WARRADALE SA,,SA,Warradale,1,0,,,,,,,
138.6161112,-34.887827,Adelaide,off North East Rd;  Full Wheelchair Access,St Monica's Parish School,,0,92 North East Rd WALKERVILLE SA,,SA,Walkerville North,0,0,,,,,,,
138.5332069,-35.141617,Reynell,Main Gymnasium;  Assisted Wheelchair Access,Hackham East Primary School,,0,Collins Pde HACKHAM SA,,SA,Hackham,0,0,,,,,,,
138.6239665,-35.1087625,Fisher, ;  Assisted Wheelchair Access,Clarendon Community Association Hall,,0,Grants Gully Rd CLARENDON SA,,SA,Clarendon,0,0,,,,,,,
138.625781,-34.873206,Enfield, ;  Full Wheelchair Access,Church of Christ Hampstead Gardens,,0,28 Gambia Ave HAMPSTEAD GARDENS SA,,SA,Hampstead Gardens,0,0,,,,,,,
138.610323,-34.852887,Enfield, ;  Assisted Wheelchair Access,The Good Shepherd Community Centre,,0,59 Fairview Tce CLEARVIEW SA,,SA,Clearview,0,0,,,,,,,
138.650189,-34.775459,Ramsay, ;  Assisted Wheelchair Access,Brahma Lodge Primary School,,0,20 Mortess St BRAHMA LODGE SA,,SA,Brahma Lodge,0,0,,,,,,,
138.762636,-35.004275,Heysen, ;  Full Wheelchair Access,Bridgewater Primary School,,0,46 Morella Gr BRIDGEWATER SA,,SA,Bridgewater,0,0,,,,,,,
140.7728735,-36.3128086,MacKillop, ;  Full Wheelchair Access,Bordertown High School,,0,30 South Tce BORDERTOWN SA,,SA,Bordertown,0,0,,,,,,,
138.7239014,-35.0539554,Heysen, ;  Full Wheelchair Access,Longwood Hall,,0,Longwood Rd BRADBURY SA,,SA,Bradbury,0,0,,,,,,,
138.7636505,-33.5627303,Stuart, ;  Assisted Wheelchair Access,Booborowie Town Hall,,0,Cnr North Tce & Fourth St BOOBOROWIE SA,,SA,Booborowie,0,0,,,,,,,
138.351699,-32.881808,Stuart, ;  Assisted Wheelchair Access,Booleroo Centre District Hall,,0,30 Stephens St BOOLEROO CENTRE SA,,SA,Booleroo Centre,0,0,,,,,,,
139.6088899,-34.3521668,Stuart, ;  Assisted Wheelchair Access,Blanchetown Combined Sporting Bodies,,0,Onslow St BLANCHETOWN SA,,SA,Blanchetown,0,0,,,,,,,
138.489123,-33.846603,Frome,enter via carpark at rear of hall;  Full Wheelchair Access,Blyth Community Hall,,0,10 Harley St BLYTH SA,,SA,Blyth,0,0,,,,,,,
138.599425,-34.86093,Enfield,via Audrey Ave;  Full Wheelchair Access,St Paul Lutheran Church Hall,,0,44 Audrey Ave BLAIR ATHOL SA,,SA,Blair Athol,0,0,,,,,,,
138.5979723,-34.852473,Enfield, ;  Full Wheelchair Access,Blair Athol North School B-7,,0,5 Marmion Ave BLAIR ATHOL SA,,SA,Blair Athol North,0,0,,,,,,,
138.63769,-34.876944,Dunstan, ;  Assisted Wheelchair Access,Klemzig Primary School,,0,2 Hay St KLEMZIG SA,,SA,Klemzig,0,0,,,,,,,
138.608667,-34.921025,Adelaide,Main Entrance North Tce;  Full Wheelchair Access,Royal Adelaide Hospital,,0,North Tce ADELAIDE SA,,SA,Adelaide Hospital,0,0,,,,,,,
138.5634261,-34.9512714,Ashford,via Cross Tce;  Assisted Wheelchair Access,Hayhurst Guide Hall,,0,Cnr Daly St & Cross Tce KURRALTA PARK SA,,SA,Kurralta Park,0,0,,,,,,,
137.6271674,-33.9329111,Goyder, ;  Full Wheelchair Access,Wallaroo Town Hall,,0,Cnr Irwin St & John Tce WALLAROO SA,,SA,Wallaroo,0,0,,,,,,,
138.6382134,-34.8371695,Playford, ;  No Wheelchair Access,Walkley Heights Child Care Centre,,0,1-5 Homestead Ave WALKLEY HEIGHTS SA,,SA,Walkley Heights,0,0,,,,,,,
138.612118,-34.894732,Adelaide,off Stephens Tce;  Full Wheelchair Access,Walkerville Primary School,,0,159 Stephen Tce WALKERVILLE SA,,SA,Walkerville,0,0,,,,,,,
139.5017635,-34.7975877,Schubert,via Mallee Road next to CFS shed;  Assisted Wheelchair Access,Walker Flat Hall,,0,142 Mallee ROAD WALKER FLAT SA,,SA,Walker Flat,0,0,,,,,,,
139.9819923,-34.1849984,Chaffey, ;  Full Wheelchair Access,Lutheran Social Centre,,0,Cates Ave WAIKERIE SA,,SA,Waikerie,0,0,,,,,,,
138.5542286,-34.6649085,Taylor, ;  Assisted Wheelchair Access,Virginia Primary School,,0,Park Rd VIRGINIA SA,,SA,Virginia,0,0,,,,,,,
138.6012368,-35.5559308,Finniss,from Victor Harbor ring road;  Full Wheelchair Access,Encounter Centre Inc,,0,42 Armstrong Rd VICTOR HARBOR SA,,SA,Victor Harbor South,0,0,,,,,,,
138.6365121,-35.5278448,Finniss, ;  Full Wheelchair Access,"Encounter Lutheran College ""Kondole Centre""",,0,64 Adelaide Rd VICTOR HARBOR SA,,SA,Victor Harbor East,0,0,,,,,,,
138.6230173,-35.5538849,Finniss, ;  Full Wheelchair Access,Victor Harbor Town Hall,,0,Coral St VICTOR HARBOR SA,,SA,Victor Harbor,0,0,,,,,,,
138.626594,-34.885311,Dunstan,Wheelchair access >50m from carparking;  Assisted Wheelchair Access,Vale Park Primary School,,1,40-56 Ascot Ave VALE PARK SA,,SA,Vale Park,0,0,,,,,,,
136.102731,-34.37734,Flinders, ;  Assisted Wheelchair Access,Tumby Bay Senior Citizens Clubrooms,,0,11 Tumby Tce TUMBY BAY SA,,SA,Tumby Bay,0,0,,,,,,,
138.6423491,-34.9376438,Bragg, ;  Full Wheelchair Access,Burnside City Uniting Church,,0,384 Portrush Rd TUSMORE SA,,SA,Tusmore,0,0,,,,,,,
138.6412338,-34.9084254,Dunstan,Disabled access only via Amherst Ave;  Assisted Wheelchair Access,Trinity Gardens Primary School,,0,160 Portrush Rd TRINITY GARDENS SA,,SA,Trinity Gardens,0,0,,,,,,,
139.127174,-34.4086933,Stuart, ;  Assisted Wheelchair Access,Truro Town Hall,,0,Moorundie St TRURO SA,,SA,Truro,0,0,,,,,,,
138.6004,-34.9605142,Unley, ;  Assisted Wheelchair Access,Unley Park Baptist Church,,0,Northgate Street UNLEY PARK SA,,SA,Unley Park,0,0,,,,,,,
138.6097973,-34.9536017,Unley,enter via Rugby Street;  Full Wheelchair Access,Unley Primary School,,0,Cnr Cremorne St & Rugby St UNLEY SA,,SA,Unley South,0,0,,,,,,,
136.0493552,-34.1776326,Flinders, ;  No Wheelchair Access,Ungarra Hall,,0,Cnr Pedler & Schramm Sts UNGARRA SA,,SA,Ungarra,0,0,,,,,,,
138.607915,-34.950759,Unley,access via Oxford Terrace;  Full Wheelchair Access,Unley Civic Centre,,0,181 Unley Rd UNLEY SA,,SA,Unley,0,0,,,,,,,
138.6861356,-35.0186315,Heysen, ;  Assisted Wheelchair Access,Upper Sturt Primary School,,0,118 Upper Sturt Rd UPPER STURT SA,,SA,Upper Sturt,0,0,,,,,,,
138.7421546,-34.9593871,Bragg, ;  Full Wheelchair Access,Uraidla Primary School,,0,17 Kidney St URAIDLA SA,,SA,Uraidla,0,0,,,,,,,
