lon,lat,division,booth_info,premises,opening_hours,has_bbq,address,source,state,polling_place_name,has_nothing,has_caek,extra_info,polling_place_type,has_run_out,has_other,stall_name,stall_description,stall_website,first_report,latest_report
147.354,-42.8131,,Standard,Risdon Vale Primary School,,0,Heather Rd TAS 7016,,TAS,Risdon Vale Primary School,0,1,Plus egg & bacon rolls and coffee,,,,,,
147.097015,-41.409693,,Assisted Disabled,Riverside High School,,0,354 West Tamar Highway TAS 7250,,TAS,Riverside High School,0,0,,,,,,,
145.837,-41.1398,,Assisted Disabled,Ridgley Primary School,,0,904 Ridgley Hwy TAS 7321,,TAS,Ridgley Primary School,0,0,,,,,,,
147.73568,-41.24241,,Assisted Disabled,Ringarooma Hall,,0,Charles St TAS 7263,,TAS,Ringarooma Hall,0,0,,,,,,,
145.999,-41.2015,,Standard,Riana Community Centre,,0,1221 Pine Rd TAS 7316,,TAS,Riana Community Centre,0,0,,,,,,,
147.43846,-42.73504,,Assisted Disabled,Richmond Primary School,,0,Commercial Road TAS 7025,,TAS,Richmond Primary School,0,0,,,,,,,
147.177,-41.4162,,Assisted Disabled,Ravenswood Heights Primary School Gynasium ,,0,25 Prossers Forest Rd TAS 7250,,TAS,Ravenswood Heights Primary School Gynasium ,0,0,,,,,,,
143.916,-39.7532,,Standard,Reekara Community Complex,,0,2249 North Rd TAS 7256,,TAS,Reekara Community Complex,0,0,,,,,,,
146.026,-41.0935,,Standard,Sulphur Creek Memorial Hall,,0,Preservation Dr TAS 7321,,TAS,Sulphur Creek Memorial Hall,0,0,,,,,,,
147.13,-41.4683,,Assisted Disabled,Summerdale Community Centre,,0,82-84 Stanley St TAS 7250,,TAS,Summerdale Community Centre,0,0,,,,,,,
147.125949,-41.377716,,Assisted Disabled,Brooks High School,,0,215 George Town Rd TAS 7248,,TAS,Brooks High School,0,0,,,,,,,
145.487,-40.905,,Assisted Disabled,Rocky Cape Public Hall,,0,19074 Bass Hwy TAS 7321,,TAS,Rocky Cape Public Hall,0,0,,,,,,,
147.4862704,-42.9136629,,Assisted Disabled,Lauderdale Community Hall,,0,528A South Arm Rd TAS 7021,,TAS,Lauderdale Community Hall,0,0,,,,,,,
146.415,-41.2365,,Assisted Disabled,Latrobe Primary School,,0,Lewis St TAS 7307,,TAS,Latrobe Primary School,0,0,,,,,,,
148.246,-40.2094,,Assisted Disabled,W.G. Holloway Park Building,,0,Barr St TAS 7255,,TAS,W.G. Holloway Park Building,0,0,,,,,,,
147.043,-42.8304,,Assisted Disabled,Lachlan Community Hall,,0,511 Lachlan Rd TAS 7140,,TAS,Lachlan Community Hall,0,0,,,,,,,
147.228,-41.1773,,Standard,Lebrina Memorial Hall,,0,905 Golconda Rd TAS 7254,,TAS,Lebrina Memorial Hall,0,0,,,,,,,
147.141,-41.4399,,Assisted Disabled,St John's Parish Centre,,0,157 St John St TAS 7250,,TAS,St John's Parish Centre,0,0,,,,,,,
147.137,-41.4366,,Standard,Pilgrim Hall,,0,36 Paterson St TAS 7250,,TAS,Pilgrim Hall,0,0,,,,,,,
147.143,-41.4464,,Assisted Disabled,Launceston General Hospital,,0, Meeting Rooom Level 3 Charles St TAS 7250,,TAS,Launceston General Hospital,0,0,,,,,,,
147.268,-42.8297,,Assisted Disabled,Glenorchy Primary School,,0,Cnr Main Rd & Kensington St TAS 7010,,TAS,Glenorchy Primary School,0,0,,,,,,,
147.284,-42.8624,,Standard,St Andrew's Hall,,0,Lenah Valley Rd TAS 7008,,TAS,St Andrew's Hall,0,0,,,,,,,
147.047,-41.3632,,Assisted Disabled,Legana Memorial Hall,,0,43 Fulton St TAS 7277,,TAS,Legana Memorial Hall,0,0,,,,,,,
147.727,-43.0273,,Assisted Disabled,Saltwater River Public Hall,,0,600 Saltwater River Rd TAS 7186,,TAS,Saltwater River Public Hall,0,0,,,,,,,
147.395,-41.0026,,Assisted Disabled,Bridport Hall,,0,Main St TAS 7262,,TAS,Bridport Hall,0,0,,,,,,,
147.258,-42.6991,,Assisted Disabled,Brighton Primary School,,0,17 Downie St TAS 7030,,TAS,Brighton Primary School,0,0,,,,,,,
147.312,-42.8949,,Assisted Disabled,St Francis Xavier's Church Hall,,0,34 Anglesea St TAS 7004,,TAS,St Francis Xavier's Church Hall,0,0,,,,,,,
147.492498,-42.031409,,Standard,Ross Town Hall,,0,12 Bridge St TAS 7209,,TAS,Ross Town Hall,0,0,,,,,,,
147.006,-42.3819,,Assisted Disabled,Bothwell Council Chambers,,0,Alexander St TAS 7030,,TAS,Bothwell Council Chambers,0,0,,,,,,,
146.943,-41.6512,,Assisted Disabled,Bracknell War Memorial Hall,,0,Louisa St TAS 7302,,TAS,Bracknell War Memorial Hall,0,1,,,,,,,
147.73648,-41.165606,,Standard,Branxholm Community Hall,,0,Stoke St TAS 7261,,TAS,Branxholm Community Hall,0,0,,,,,,,
147.24448,-42.73831,,Assisted Disabled,Brighton Civic Centre,,1,25 Green Point Rd TAS 7030,,TAS,Brighton Civic Centre,0,0,,,,,,,
147.266,-42.8199,,Standard,Montrose Bay Yacht Club,,0, Foreshore Rd TAS 7010,,TAS,Montrose Bay Yacht Club,0,0,,,,,,,
147.718,-42.6072,,Assisted Disabled,Buckland Memorial Hall,,0,22 Kent St TAS 7190,,TAS,Buckland Memorial Hall,0,0,,,,,,,
145.906,-41.0532,,Assisted Disabled,Burnie City Council Offices,,0,80 Wilson St TAS 7320,,TAS,Burnie City Council Offices,0,0,,,,,,,
145.54094,-41.77853,,Assisted Disabled,Rosebery Neighbourhood Centre,,0, 8 Agnes St TAS 7470,,TAS,Rosebery Neighbourhood Centre,0,0,,,,,,,
147.317,-42.8878,,Standard,Goulburn Street Primary School,,0,Forest Rd TAS 7000,,TAS,Goulburn Street Primary School,0,0,,,,,,,
147.3100773,-42.8778039,,Assisted Disabled,Lawrenny Court,,0,131 Hill St TAS 7000,,TAS,Lawrenny Court,0,0,,,,,,,
145.8995841,-41.0766337,,Assisted Disabled,Romaine Park Primary School,,0,Cnr Roslyn Avenue and Mount Street TAS 7320,,TAS,Romaine Park Primary School,0,0,,,,,,,
146.17091,-41.16201,,Assisted Disabled,Ulverstone High School,,0,38 Leven St TAS 7315,,TAS,Ulverstone High School,0,0,,,,,,,
146.192,-41.1546,,Assisted Disabled,East Ulverstone Primary School,,0,18 Crawford St TAS 7315,,TAS,East Ulverstone Primary School,0,0,,,,,,,
147.3825601,-42.8611504,,Assisted Disabled,Warrane Primary School,,0,213 Cambridge Rd TAS 7018,,TAS,Warrane Primary School,0,0,,,,,,,
147.432,-42.8959,,Assisted Disabled,Rokeby Community Centre,,0,Hart Pl TAS 7019,,TAS,Rokeby Community Centre,1,0,,,,,,,
147.19,-41.4321,,Standard,Waverley School Primary School,,0,6 Naroo St TAS 7250,,TAS,Waverley School Primary School,0,0,,,,,,,
147.384,-42.8559,,Assisted Disabled,Warrane Mornington Neighbourhood Centre,,0,150A Bligh St TAS 7018,,TAS,Warrane Mornington Neighbourhood Centre,0,0,,,,,,,
147.309,-42.8819,,Assisted Disabled,Lansdowne Crescent Primary School,,0,Gourlay St TAS 7000,,TAS,Lansdowne Crescent Primary School,0,0,,,,,,,
146.457,-41.1885,,Assisted Disabled,Wesley Vale Primary School,,0,West Wind Dr (Wesley Vale Road) TAS 7307,,TAS,Wesley Vale Primary School,0,0,,,,,,,
146.8238,-41.1076,,Assisted Disabled,George Town Memorial Hall,,0,29-67 Macquarie St TAS 7253,,TAS,George Town Memorial Hall,0,0,,,,,,,
146.372,-41.1779,,Assisted Disabled,East Devonport Primary School,,0,19 Thomas St TAS 7310,,TAS,East Devonport Primary School,0,0,,,,,,,
147.495,-42.9402,,Standard,Sandford Hall,,0,973 South Arm Rd TAS 7020,,TAS,Sandford Hall,0,0,,,,,,,
145.145,-40.9133,,Standard,Irishtown Lodge Arthur Temple,,0,604 Irishtown Rd TAS 7330,,TAS,Irishtown Lodge Arthur Temple,0,0,,,,,,,
146.9283,-42.9982,,Assisted Disabled,Judbury Hall,,0,1273 Glen Huon Rd TAS 7109,,TAS,Judbury Hall,0,0,,,,,,,
147.148,-41.2539,,Assisted Disabled,Karoola Hall,,0,1126 Pipers River Rd TAS 7267,,TAS,Karoola Hall,0,0,,,,,,,
146.794,-41.1037,,Standard,Kelso Community Centre,,0,Foreshore Rd TAS 7270,,TAS,Kelso Community Centre,0,0,,,,,,,
147.2,-42.5313,,Assisted Disabled,Kempton Council Chambers,,0,Main St TAS 7030,,TAS,Kempton Council Chambers,0,0,,,,,,,
147.247,-43.1257,,Assisted Disabled,Kettering Community Centre,,0,2963 Channel Hwy TAS 7050,,TAS,Kettering Community Centre,0,0,,,,,,,
147.16,-41.4677,,Assisted Disabled,Y.M.C.A. Centre,,0,8A Blaydon St TAS 7249,,TAS,Y.M.C.A. Centre,0,0,,,,,,,
147.311406,-42.975321,,Disabled,Kingborough Council,,0,15 Channel Hwy TAS 7050,,TAS,Kingborough Council,0,0,,,,,,,
147.309,-42.9896,,Assisted Disabled,Southern Christian College,,1,150 Redwood Rd TAS 7050,,TAS,Southern Christian College,0,0,,,,,,,
147.3235074,-42.9815337,,Assisted Disabled,Kingston Beach Hall,,0,Beach Rd TAS 7050,,TAS,Kingston Beach Hall,0,0,,,,,,,
147.367,-41.3107,,Assisted Disabled,Myrtle Park Hall,,0,38250 Tasman Hwy TAS 7259,,TAS,Myrtle Park Hall,0,0,,,,,,,
147.868,-43.0371,,Assisted Disabled,Tasman Peninsula Community Centre,,0,Gourlay Rd TAS 7180,,TAS,Tasman Peninsula Community Centre,0,0,,,,,,,
145.092,-40.9705,,Assisted Disabled,Edith Creek Primary School,,0,1282 Trowutta Rd TAS 7330,,TAS,Edith Creek Primary School,0,0,,,,,,,
146.871,-41.3383,,Assisted Disabled,Glengarry Fire Station,,0,Frankford Rd TAS 7275,,TAS,Glengarry Fire Station,0,0,,,,,,,
146.345,-41.1864,,Assisted Disabled,TasTafe,,0,20-36 Valley Rd TAS 7310,,TAS,TasTafe,0,0,,,,,,,
146.349,-41.1893,,Assisted Disabled,Reece High School,,0,41-43 Middle Rd TAS 7310,,TAS,Reece High School,0,0,,,,,,,
146.358,-41.1789,,Assisted Disabled,St Johns Parish Hall,,0,Fenton St TAS 7310,,TAS,St Johns Parish Hall,0,0,,,,,,,
146.344,-41.1737,,Assisted Disabled,Addison Street Scout Hall,,0,11 Addison St TAS 7310,,TAS,Addison Street Scout Hall,0,0,,,,,,,
146.337,-41.1728,,Assisted Disabled,Nixon Street Primary School,,0,Nixon St TAS 7310,,TAS,Nixon Street Primary School,0,0,,,,,,,
146.354,-41.1667,,Assisted Disabled,Mersey Bluff Church of Christ,,0,232 William St TAS 7310,,TAS,Mersey Bluff Church of Christ,0,0,,,,,,,
146.66111,-41.52917,,Assisted Disabled,Deloraine High School Hall,,0,East Barrack St TAS 7304,,TAS,Deloraine High School Hall,0,0,,,,,,,
145.614,-41.7376,,Assisted Disabled,Tullah Fire Station,,0,Farrell St TAS 7321,,TAS,Tullah Fire Station,0,0,,,,,,,
147.296,-42.838,,Assisted Disabled,Moonah Primary School,,1,42 Derwent Park Rd TAS 7009,,TAS,Moonah Primary School,0,1,,,,,,,
147.80236,-41.14933,,Standard,Derby Town Hall,,0,Cnr Main & Krushka St TAS 7264,,TAS,Derby Town Hall,0,0,,,,,,,
147.013,-43.3105,,Assisted Disabled,Dover District High School,,0,6940 Huon Hwy TAS 7117,,TAS,Dover District High School,0,0,,,,,,,
147.824,-41.0979,,Standard,Winnaleah Memorial Hall,,0,20 Main St TAS 7265,,TAS,Winnaleah Memorial Hall,0,0,,,,,,,
145.93609,-41.06904,,Assisted Disabled,Wivenhoe Campus Leighland Christian School,,0,Stowport Rd TAS 7320,,TAS,Wivenhoe Campus Leighland Christian School,0,0,,,,,,,
146.931,-41.5825,,Standard,Whitemore Historical Group Rooms (Old School),,0,769 Whitemore Rd TAS 7303,,TAS,Whitemore Historical Group Rooms (Old School),0,0,,,,,,,
146.1732064,-41.3855154,,Assisted Disabled,Wilmot Primary School,,0,Main Rd (Wilmot Road) TAS 7310,,TAS,Wilmot Primary School,0,0,,,,,,,
147.154,-41.0153,,Standard,Weymouth Hall,,0,18 Major St TAS 7252,,TAS,Weymouth Hall,0,0,,,,,,,
148.019,-40.1214,,Assisted Disabled,Whitemark Lions Club,,0,James St TAS 7255,,TAS,Whitemark Lions Club,0,0,,,,,,,
146.83,-41.528,,Assisted Disabled,Westbury Town Hall,,0,26 Lyall St TAS 7303,,TAS,Westbury Town Hall,0,0,,,,,,,
146.787,-42.6775,,Assisted Disabled,Westerway Primary School,,0,1619 Gordon River Rd TAS 7140,,TAS,Westerway Primary School,0,0,,,,,,,
147.129,-41.4492,,Assisted Disabled,West Launceston Primary School,,0,24 Basin Rd TAS 7250,,TAS,West Launceston Primary School,0,0,,,,,,,
146.16,-41.1482,,Assisted Disabled,West Ulverstone Primary School,,0,34 Maud St TAS 7315,,TAS,West Ulverstone Primary School,0,0,,,,,,,
146.556,-41.1657,,Assisted Disabled,Port Sorell Memorial Hall,,0,Cnr Meredith & Darling St TAS 7307,,TAS,Port Sorell Memorial Hall,0,0,,,,,,,
147.845,-43.142,,Assisted Disabled,Port Arthur Sports Ground,,0,2745 Nubeena Rd TAS 7182,,TAS,Port Arthur Sports Ground,0,0,,,,,,,
147.266,-42.6836,,Assisted Disabled,Pontville Old Council Chambers,,0,262 Midland Hwy TAS 7030,,TAS,Pontville Old Council Chambers,0,0,,,,,,,
146.9637994,-43.1553225,,Assisted Disabled,Port Huon Sports & Aquatic Centre,,0,Huon Hwy TAS 7116,,TAS,Port Huon Sports & Aquatic Centre,0,0,,,,,,,
146.071,-41.112,,Assisted Disabled,Penguin Uniting Church Hall,,0,50 Main Rd TAS 7316,,TAS,Penguin Uniting Church Hall,0,0,,,,,,,
147.407,-42.3503,,Assisted Disabled,Parattah Jubilee Hall,,0,657 Tunnack Rd TAS 7120,,TAS,Parattah Jubilee Hall,0,0,,,,,,,
147.091,-41.1006,,Standard,Pipers River Fire Station,,0,76 School Rd TAS 7252,,TAS,Pipers River Fire Station,0,0,,,,,,,
147.173,-41.5725,,Assisted Disabled,Perth Community Centre,,0,173 Fairtlough St TAS 7300,,TAS,Perth Community Centre,0,0,,,,,,,
147.26576,-42.77427,,Standard,Old Beach Fire Station,,0,Jetty Rd TAS 7017,,TAS,Old Beach Fire Station,0,0,,,,,,,
147.372,-42.3,,Assisted Disabled,"Oatlands Council Chambers, Court Room",,0,71 High St TAS 7120,,TAS,"Oatlands Council Chambers, Court Room",0,0,,,,,,,
146.669,-42.4464,,Assisted Disabled,Ouse Online Centre,,0,6947 Lyell Hwy TAS 7140,,TAS,Ouse Online Centre,0,0,,,,,,,
147.874,-42.5629,,Assisted Disabled,Orford Community Hall,,0,Charles St TAS 7190,,TAS,Orford Community Hall,0,0,,,,,,,
147.404,-42.8819,,Assisted Disabled,Howrah Scout Hall,,0,"Howrah Primary School, Howrah Rd TAS 7018",,TAS,Howrah Scout Hall,0,0,,,,,,,
147.2915454,-43.0191283,,Assisted Disabled,Howden Fire Station,,0,Howden Rd TAS 7054,,TAS,Howden Fire Station,0,0,,,,,,,
147.0469969,-43.0291001,,Assisted Disabled,The Salvation Army Hall,,1,31 Wilmot Rd TAS 7109,,TAS,The Salvation Army Hall,0,0,,,,,,,
147.409,-42.8911,,Assisted Disabled,Tranmere Hall,,0,27 Tranmere Rd TAS 7018,,TAS,Tranmere Hall,0,0,,,,,,,
147.324,-42.8806,,Assisted Disabled,GA Wood Hall,,0,29 Bathurst St TAS 7000,,TAS,GA Wood Hall,1,0,,,,,,,
146.974945,-41.236252,,Assisted Disabled,Hillwood Memorial Hall,,0,280 Jetty Rd TAS 7252,,TAS,Hillwood Memorial Hall,0,0,,,,,,,
147.3204475,-42.8812157,,Standard,St Peter's Hall,,0,cnr Brisbane & Harrington Sts TAS 7000,,TAS,St Peter's Hall,0,0,,,,,,,
147.331806,-42.880739,,Assisted Disabled,City Hall,,0,57-63 Macquarie St TAS 7000,,TAS,City Hall,0,0,,,,,,,
146.244,-41.1589,,Assisted Disabled,Turners Community Centre,,0,Henry St TAS 7315,,TAS,Turners Community Centre,0,0,,,,,,,
147.11,-41.4782,,Standard,Residential Retirement Village Clubrooms,,0,12 Casino Rise TAS 7250,,TAS,Residential Retirement Village Clubrooms,0,0,,,,,,,
146.248975,-41.192921,,Assisted Disabled,Forth Primary School,,0,45 Wilmot Road TAS 7310,,TAS,Forth Primary School,0,0,,,,,,,
146.732,-41.3165,,Assisted Disabled,Frankford Memorial Hall,,0,Frankford Rd TAS 7275,,TAS,Frankford Memorial Hall,0,0,,,,,,,
147.132,-41.4157,,Assisted Disabled,St Finn Barr's School,,0,247 Invermay Rd TAS 7248,,TAS,St Finn Barr's School,0,0,,,,,,,
147.131233,-41.421676,,Assisted Disabled,Invermay Primary School,,0,35-43 Mayne St TAS 7248,,TAS,Invermay Primary School,0,0,,,,,,,
146.16,-41.1852,,Assisted Disabled,Gawler Public Hall,,0,15 Top Gawler Rd TAS 7315,,TAS,Gawler Public Hall,0,0,,,,,,,
147.126,-41.472,,Assisted Disabled,St Patrick's College,,0,282 Westbury Rd TAS 7250,,TAS,St Patrick's College,0,0,,,,,,,
147.148229,-41.461287,,Assisted Disabled,Cosgrove Park Bowls Club,,0,25 Waveney St TAS 7249,,TAS,Cosgrove Park Bowls Club,0,0,,,,,,,
145.558,-42.0802,,Standard,Queenstown Memorial Hall,,0,53 Orr St TAS 7467,,TAS,Queenstown Memorial Hall,1,0,,,,,,,
146.16,-41.2627,,Assisted Disabled,Sprent Primary School,,0,1245 Castra Rd TAS 7315,,TAS,Sprent Primary School,0,0,,,,,,,
148.001,-41.2924,,Assisted Disabled,Pyengana War Memorial Hall,,0,St Columba Falls Rd TAS 7216,,TAS,Pyengana War Memorial Hall,0,0,,,,,,,
147.196,-42.985,,Assisted Disabled,Sandfly Hall,,0,811 Sandfly Rd TAS 7150,,TAS,Sandfly Hall,0,0,,,,,,,
146.34434,-41.21207,,Assisted Disabled,Spreyton Primary School,,0,1 Mersey Main Rd TAS 7310,,TAS,Spreyton Primary School,0,0,,,,,,,
146.492,-42.136,,Standard,Bronte Park Highland Village,,0,378 Marlborough Rd TAS 7140,,TAS,Bronte Park Highland Village,0,0,,,,,,,
147.327957,-43.360818,,Standard,Adventure Bay Hall,,0,706 Adventure Bay Rd TAS 7150,,TAS,Adventure Bay Hall,0,0,,,,,,,
145.977,-41.2345,,Assisted Disabled,South Riana Public Hall,,0,776 South Riana Rd TAS 7316,,TAS,South Riana Public Hall,0,0,,,,,,,
147.726,-41.7817,,Standard,Avoca Primary School,,0,26-30 St Pauls Pl TAS 7213,,TAS,Avoca Primary School,0,0,,,,,,,
146.889,-42.6969,,Standard,Glenora District High School,,0,620 Gordon River Rd TAS 7140,,TAS,Glenora District High School,0,0,,,,,,,
146.9795856,-43.4341277,,Assisted Disabled,Southport Fire Station,,0,3 Cathkit St TAS 7109,,TAS,Southport Fire Station,0,0,,,,,,,
147.239,-43.1601,,Assisted Disabled,Woodbridge Hall,,0,3445 Channel Hwy TAS 7162,,TAS,Woodbridge Hall,0,0,,,,,,,
145.729,-40.9909,,Assisted Disabled,Senior Citizens Club Rooms,,0,28 Jackson St TAS 7325,,TAS,Senior Citizens Club Rooms,0,0,,,,,,,
145.717,-40.9867,,Assisted Disabled,Wynyard High School,,1,30 Church St TAS 7325,,TAS,Wynyard High School,0,0,,,,,,,
145.719,-41.1237,,Assisted Disabled,Yolla District High School,,0,School La TAS 7325,,TAS,Yolla District High School,0,0,,,,,,,
147.164,-41.4823,,Assisted Disabled,Youngtown Primary School,,0,Napier St TAS 7249,,TAS,Youngtown Primary School,0,0,,,,,,,
147.126,-42.6567,,Assisted Disabled,Broadmarsh Hall,,0,1218 Elderslie Rd TAS 7030,,TAS,Broadmarsh Hall,0,0,,,,,,,
145.34,-41.888,,Assisted Disabled,Zeehan Primary School,,0,7 Belstead St TAS 7469,,TAS,Zeehan Primary School,0,0,,,,,,,
145.836367,-41.043137,,Assisted Disabled,Somerset Primary School,,0,8 Wragg Street TAS 7322,,TAS,Somerset Primary School,0,0,,,,,,,
147.255,-43.0664,,Assisted Disabled,Snug Primary School,,0,Channel Hwy TAS 7054,,TAS,Snug Primary School,0,0,,,,,,,
145.986,-41.0751,,Assisted Disabled,Blythe Heads Hall,,0,Sice Ave TAS 7316,,TAS,Blythe Heads Hall,0,0,,,,,,,
145.806,-41.1904,,Standard,Highclere Community Centre,,0,1558 Ridgley Hwy TAS 7321,,TAS,Highclere Community Centre,0,0,,,,,,,
145.565,-40.9181,,Standard,Sisters Beach Fire Station,,0,Honeysuckle Ave TAS 7321,,TAS,Sisters Beach Fire Station,0,0,,,,,,,
146.887,-41.2221,,Assisted Disabled,Sidmouth Community Centre,,0,255 Batman Hwy TAS 7270,,TAS,Sidmouth Community Centre,0,0,,,,,,,
145.127,-40.8427,,Standard,Smithton Uniting Church Hall,,0,45 Goldie St TAS 7330,,TAS,Smithton Uniting Church Hall,0,0,,,,,,,
145.586,-40.9605,,Assisted Disabled,Sisters Creek Hall,,0,17894 Bass Hwy TAS 7321,,TAS,Sisters Creek Hall,0,0,,,,,,,
146.923,-42.6444,,Standard,Gretna (St Mary's Parish) Hall,,0,3548 Lyell Hwy TAS 7140,,TAS,Gretna (St Mary's Parish) Hall,0,0,,,,,,,
146.039,-41.2774,,Assisted Disabled,Gunns Plains Hall,,0,957 Gunns Plains Rd TAS 7315,,TAS,Gunns Plains Hall,0,0,,,,,,,
144.058,-40.0484,,Standard,Grassy Club,,0,10 Grassy Rd TAS 7256,,TAS,Grassy Club,0,0,,,,,,,
146.973,-41.2939,,Assisted Disabled,Gravelly Beach Main Hall,,0,Edinburgh Park Off Gravelly Beach Rd TAS 7276,,TAS,Gravelly Beach Main Hall,0,0,,,,,,,
146.83,-42.5597,,Assisted Disabled,Hamilton Hall,,0,Tarleton St TAS 7140,,TAS,Hamilton Hall,0,0,,,,,,,
145.911,-41.0836,,Assisted Disabled,Havenview Primary School,,0,15 Marriott St TAS 7320,,TAS,Havenview Primary School,0,0,,,,,,,
147.064,-41.5064,,Assisted Disabled,Hadspen Uniting Church Centre,,0,47 Main St TAS 7290,,TAS,Hadspen Uniting Church Centre,0,0,,,,,,,
146.887,-41.5267,,Standard,Hagley Uniting Church Hall,,0,Meander Valley Rd TAS 7292,,TAS,Hagley Uniting Church Hall,0,0,,,,,,,
147.259102,-42.80013,,Disabled,Windermere Primary School,,0,2 Cadbury Rd TAS 7011,,TAS,Windermere Primary School,0,0,,,,,,,
147.2405494,-42.7861799,,Disabled,Austins Ferry Primary School,,0,13 Brodie St TAS 7011,,TAS,Austins Ferry Primary School,1,0,,,,,,,
147.495,-41.927,,Assisted Disabled,Campbell Town Town Hall,,0,75 High St(Midland Highway) TAS 7210,,TAS,Campbell Town Town Hall,0,0,,,,,,,
147.422,-42.6672,,Assisted Disabled,Campania Hall,,0,Reeve St TAS 7026,,TAS,Campania Hall,0,0,,,,,,,
147.3527368,-42.9433021,,Assisted Disabled,Taroona Primary School,,0,104 Channel Hwy TAS 7053,,TAS,Taroona Primary School,0,0,,,,,,,
145.631,-41.0685,,Standard,Calder Hall,,0,1320 Calder Rd TAS 7325,,TAS,Calder Hall,0,0,,,,,,,
147.2482384,-42.7931591,,Assisted Disabled,Claremont Girl Guide Hall,,0,Box Hill Rd TAS 7011,,TAS,Claremont Girl Guide Hall,0,0,,,,,,,
147.421,-43.0264,,Assisted Disabled,South Arm Primary School,,0,Harmony Lane TAS 7022,,TAS,South Arm Primary School,0,0,,,,,,,
147.2416549,-42.8111937,,Assisted Disabled,Chigwell Barn,,0,10 Bucaan St TAS 7011,,TAS,Chigwell Barn,0,0,,,,,,,
147.011,-41.5311,,Assisted Disabled,Carrick Public Hall,,0,29 Meander Valley Rd TAS 7291,,TAS,Carrick Public Hall,0,0,,,,,,,
147.561,-42.7859,,Assisted Disabled,Sorell School Performing Arts Centre,,0,41 Gordon St TAS 7172,,TAS,Sorell School Performing Arts Centre,0,0,,,,,,,
146.833,-41.1124,,Assisted Disabled,George Town South  Primary School,,0,48-70 Victoria St TAS 7253,,TAS,George Town South  Primary School,0,0,,,,,,,
147.223,-42.6249,,Standard,Bagdad Primary School,,0,46-48 School Rd TAS 7030,,TAS,Bagdad Primary School,0,0,,,,,,,
145.5313,-41.44422,,Assisted Disabled,Waratah Municipal Chambers,,0,12-14 Smith St TAS 7321,,TAS,Waratah Municipal Chambers,0,0,,,,,,,
147.154,-41.459,,Assisted Disabled,St Mark's Church Hall,,0,6 Hobart Rd TAS 7249,,TAS,St Mark's Church Hall,0,0,,,,,,,
145.782,-41.0922,,Standard,Elliott Community Centre,,0,829 Murchison Hwy TAS 7325,,TAS,Elliott Community Centre,0,0,,,,,,,
147.283,-42.8358,,Assisted Disabled,Cosgrove High School,,0,286 Main Rd TAS 7010,,TAS,Cosgrove High School,0,0,,,,,,,
147.318,-42.6903,,Assisted Disabled,Tea Tree Community Hall,,0,Briar Banks Rd TAS 7017,,TAS,Tea Tree Community Hall,0,0,,,,,,,
147.349,-42.8383,,Standard,Geilston Bay High School,,0,271 East Derwent Hwy TAS 7015,,TAS,Geilston Bay High School,0,0,,,,,,,
146.563,-41.4618,,Assisted Disabled,Elizabeth Town Fire Station,,0,5816 Bass Hwy TAS 7304,,TAS,Elizabeth Town Fire Station,0,0,,,,,,,
147.082,-41.3368,,Assisted Disabled,Dilston War Memorial Hall,,0,308 John Lees Dr TAS 7252,,TAS,Dilston War Memorial Hall,0,0,,,,,,,
147.624,-42.8485,,Assisted Disabled,Dodges Ferry Community Recreation Centre,,0,532 Old Forcett Rd TAS 7173,,TAS,Dodges Ferry Community Recreation Centre,0,0,,,,,,,
148.249,-41.3222,,Assisted Disabled,St Helens Memorial Hall,,0,Cecilia St TAS 7216,,TAS,St Helens Memorial Hall,0,0,,,,,,,
147.2,-41.4597,,Assisted Disabled,St Leonards Primary School,,0,330 St Leonards Rd TAS 7250,,TAS,St Leonards Primary School,0,0,,,,,,,
147.179,-42.7282,,Standard,Dromedary (Millvale) Community Hall,,0,14 Millvale Rd TAS 7030,,TAS,Dromedary (Millvale) Community Hall,0,0,,,,,,,
147.812,-42.8852,,Assisted Disabled,Dunalley Primary School,,0,20-32 Bay St TAS 7177,,TAS,Dunalley Primary School,0,0,,,,,,,
147.128,-41.3873,,Assisted Disabled,Launceston North Uniting Church,,0,128 George Town Rd TAS 7248,,TAS,Launceston North Uniting Church,0,0,,,,,,,
147.304,-42.8615,,Standard,Sacred Heart College,,1,2 Cross St TAS 7008,,TAS,Sacred Heart College,0,1,,,,,,,
147.059,-42.7728,,Assisted Disabled,New Norfolk Sport & Recreation Centre,,0,50 Derwent Tce TAS 7140,,TAS,New Norfolk Sport & Recreation Centre,0,0,,,,,,,
147.064,-42.7793,,Assisted Disabled,New Norfolk Primary School,,0,8 Pioneer Ave TAS 7140,,TAS,New Norfolk Primary School,0,0,,,,,,,
145.922,-41.1701,,Assisted Disabled,Natone Primary School,,0,100 Upper Natone Rd TAS 7321,,TAS,Natone Primary School,0,0,,,,,,,
147.131059,-41.4081402,,Standard,Launceston Church Grammar School,,0,Button St TAS 7248,,TAS,Launceston Church Grammar School,0,0,,,,,,,
147.109,-42.9614,,Assisted Disabled,Mountain River Memorial Hall,,0,263 Mountain River Rd TAS 7109,,TAS,Mountain River Memorial Hall,0,0,,,,,,,
147.299,-42.875,,Standard,Mt Stuart Primary School,,0,106 Gillon Cres TAS 7000,,TAS,Mt Stuart Primary School,0,0,,,,,,,
147.323,-42.9136,,Assisted Disabled,Mt Nelson Primary School,,0,388 Nelson Rd TAS 7007,,TAS,Mt Nelson Primary School,0,0,,,,,,,
147.401,-42.8582,,Assisted Disabled,Citywide Baptist Church & Venue,,0,400 Cambridge Rd TAS 7018,,TAS,Citywide Baptist Church & Venue,1,0,,,,,,,
147.671829,-42.892403,,Assisted Disabled,Primrose Sands Community Hall,,0,570 Primrose Sands Rd TAS 7173,,TAS,Primrose Sands Community Hall,0,0,,,,,,,
147.2993026,-42.8951454,,Standard,Badminton Association Centre,,0,101 Cascade Rd TAS 7004,,TAS,Badminton Association Centre,0,0,,,,,,,
147.144026,-41.452876,,Assisted Disabled,Launceston RSL,,0,313-315 Wellington St TAS 7249,,TAS,Launceston RSL,0,0,,,,,,,
145.908441,-41.060997,,Assisted Disabled,SES Burnie Unit,,0,9 Wellington Street TAS 7320,,TAS,SES Burnie Unit,0,0,,,,,,,
147.373,-43.1125,,Assisted Disabled,Barnes Bay CWA Rooms,,0,678 Bruny Island Main Rd TAS 7150,,TAS,Barnes Bay CWA Rooms,1,0,,,,,,,
147.316,-42.867,,Assisted Disabled,Friends Junior School Hall,,0,393Argyle St TAS 7000,,TAS,Friends Junior School Hall,0,1,,,,,,,
147.161,-41.4331,,Assisted Disabled,Newstead College,,0,30 Cypress St TAS 7250,,TAS,Newstead College,0,0,,,,,,,
147.157,-41.4472,,Assisted Disabled,Police Citizens & Youth Club,,0,148 Abbott St TAS 7250,,TAS,Police Citizens & Youth Club,0,0,,,,,,,
146.10937,-41.20637,,Assisted Disabled,North Motton Hall,,0,578 Preston Rd TAS 7315,,TAS,North Motton Hall,0,0,,,,,,,
147.174,-41.4621,,Assisted Disabled,Norwood Primary School,,0,103 Norwood Ave TAS 7250,,TAS,Norwood Primary School,0,0,,,,,,,
147.318,-42.8776,,Assisted Disabled,Elizabeth College,,0,256 Elizabeth St TAS 7000,,TAS,Elizabeth College,0,0,,,,,,,
147.314,-42.8728,,Assisted Disabled,Hobart North Uniting Church,,0,Swan St TAS 7000,,TAS,Hobart North Uniting Church,1,0,,,,,,,
147.743212,-43.099481,,Assisted Disabled,Tasman Civic Centre,,0,Clarke St TAS 7184,,TAS,Tasman Civic Centre,0,0,,,,,,,
147.296,-41.394,,Assisted Disabled,Nunamara Public Hall,,0,39461 Tasman Hwy TAS 7259,,TAS,Nunamara Public Hall,0,0,,,,,,,
146.062,-41.2972,,Assisted Disabled,Preston Community Centre,,0,1833 Preston Rd TAS 7315,,TAS,Preston Community Centre,0,0,,,,,,,
147.244455,-43.31807,,Assisted Disabled,Bruny Island District School,,0,School Rd TAS 7150,,TAS,Bruny Island District School,0,0,,,,,,,
147.265,-42.8455,,Assisted Disabled,Tolosa Hall,,0,148 Tolosa St TAS 7010,,TAS,Tolosa Hall,0,0,,,,,,,
147.276,-42.7488,,Assisted Disabled,Gagebrook Primary School,,0,4 Tottenham Rd TAS 7030,,TAS,Gagebrook Primary School,0,0,,,,,,,
147.2511051,-42.7744865,,Standard,St Virgil's College,,0,195 Main Rd TAS 7011,,TAS,St Virgil's College,0,0,,,,,,,
147.224,-42.7498,,Assisted Disabled,Granton Memorial Hall,,0,Lyell Hwy TAS 7030,,TAS,Granton Memorial Hall,0,0,,,,,,,
147.276,-42.8265,,Standard,Girl Guides Hall,,0,Booth Ave TAS 7010,,TAS,Girl Guides Hall,0,0,,,,,,,
145.616,-40.981,,Assisted Disabled,Moorleah Community Centre,,0,720 Preolenna Rd TAS 7321,,TAS,Moorleah Community Centre,0,0,,,,,,,
146.481134,-41.216812,,Assisted Disabled,Moriarty Hall,,0,1 Bonneys La TAS 7307,,TAS,Moriarty Hall,0,0,,,,,,,
147.346,-42.9087,,Assisted Disabled,St Stephen's Church Hall,,0,524 Sandy Bay Rd TAS 7005,,TAS,St Stephen's Church Hall,1,0,,,,,,,
147.319,-42.8984,,Assisted Disabled,Princes Street Primary School,,0,cnr Princes & Randall Sts TAS 7005,,TAS,Princes Street Primary School,0,0,,,,,,,
145.898,-41.0605,,Assisted Disabled,Montello Primary School,,0,Bird St TAS 7320,,TAS,Montello Primary School,0,0,,,,,,,
147.2934743,-42.8321544,,Disabled,Goodwood Primary School,,0,Elmsleigh Rd TAS 7009,,TAS,Goodwood Primary School,0,0,,,,,,,
147.296066,-42.845951,,Assisted Disabled,Salvation Army Community Centre,,0,73 Hopkins St TAS 7009,,TAS,Salvation Army Community Centre,0,0,,,,,,,
147.308,-42.8474,,Assisted Disabled,Bowen Road Primary School,,0,35 Bowen Rd TAS 7009,,TAS,Bowen Road Primary School,1,0,,,,,,,
146.405,-41.5581,,Assisted Disabled,Mole Creek Primary School,,0,4 Caveside Rd TAS 7304,,TAS,Mole Creek Primary School,0,0,,,,,,,
147.157,-42.8038,,Assisted Disabled,Molesworth Primary School,,0,540 Molesworth Rd TAS 7140,,TAS,Molesworth Primary School,0,0,,,,,,,
144.9775271,-40.7847873,,Assisted Disabled,Montagu Fire Station,,0,Montagu Rd TAS 7330,,TAS,Montagu Fire Station,0,0,,,,,,,
147.353,-42.8646,,Disabled,Montagu Bay Primary School,,0,10 Conara Rd TAS 7018,,TAS,Montagu Bay Primary School,0,0,,,,,,,
146.819,-41.2024,,Assisted Disabled,Beaconsfield Senior Citizens' Hall,,0,Weld St TAS 7270,,TAS,Beaconsfield Senior Citizens' Hall,0,0,,,,,,,
147.326,-42.8912,,Standard,Albuera Street Primary School,,0,Albuera St TAS 7004,,TAS,Albuera Street Primary School,0,0,,,,,,,
147.371577,-42.875227,,Assisted,Clarence Police & Community Youth Club Inc,,0,10 Scott St TAS 7018,,TAS,Clarence Police & Community Youth Club Inc,0,0,,,,,,,
146.815,-41.1475,,Assisted Disabled,Beauty Point (Sandy Beach) Bowls Club Hall,,0,11 Mainwaring St TAS 7270,,TAS,Beauty Point (Sandy Beach) Bowls Club Hall,0,0,,,,,,,
148.3049286,-41.872521,,Assisted Disabled,Bicheno Primary School,,0,James St TAS 7215,,TAS,Bicheno Primary School,0,0,,,,,,,
147.389,-42.8784,,Assisted Disabled,Clarence High School,,1,Wentworth St TAS 7018,,TAS,Clarence High School,0,1,,,,,,,
147.3199914,-42.9987749,,Assisted Disabled,The Salvation Army Kingborough,,0,3 Opal Dr TAS 7052,,TAS,The Salvation Army Kingborough,0,0,,,,,,,
146.995,-41.6164,,Standard,Bishopsbourne Community Centre,,0,"Recreation Ground, 1111 Bishopsbourne Rd TAS 7301",,TAS,Bishopsbourne Community Centre,0,0,,,,,,,
145.636,-40.9452,,Assisted,Boat Harbour Primary School,,1,17386 Bass Hwy TAS 7321,,TAS,Boat Harbour Primary School,0,0,,,,,,,
147.505,-41.4823,,Assisted Disabled,North Esk Memorial Hall,,0,3132 Blessington Rd TAS 7212,,TAS,North Esk Memorial Hall,0,0,,,,,,,
144.879,-40.9601,,Assisted Disabled,Togari Community Centre,,0,7 Salmon River Rd TAS 7330,,TAS,Togari Community Centre,0,0,,,,,,,
147.106,-41.4301,,Assisted Disabled,Trevallyn Life Church,,0,34 Pitt Ave TAS 7250,,TAS,Trevallyn Life Church,0,0,,,,,,,
147.115,-41.4381,,Disabled,Trevallyn Primary School,,0,55 Gorge Rd TAS 7250,,TAS,Trevallyn Primary School,0,0,,,,,,,
147.442,-42.8362,,Assisted Disabled,Cambridge Primary School,,0,976 Cambridge Rd TAS 7170,,TAS,Cambridge Primary School,0,0,,,,,,,
147.917,-42.508,,Standard,"Triabunna Council Chambers, Recreation Room",,0,38 Vicary St TAS 7190,,TAS,"Triabunna Council Chambers, Recreation Room",0,0,,,,,,,
147.891,-41.4719,,Standard,Mathinna Community Centre,,0,21 High St TAS 7214,,TAS,Mathinna Community Centre,0,0,,,,,,,
144.697,-40.9229,,Assisted Disabled,Marrawah Memorial Hall,,0,844 Comeback Rd TAS 7330,,TAS,Marrawah Memorial Hall,0,0,,,,,,,
146.629,-42.7555,,Standard,Maydena Online Access Centre,,0,36 Kallista Rd (Gordon River Road) TAS 7140,,TAS,Maydena Online Access Centre,0,0,,,,,,,
145.37,-40.9538,,Assisted Disabled,Mawbanna Hall,,0,1444 Mawbanna Rd TAS 7321,,TAS,Mawbanna Hall,0,0,,,,,,,
146.289,-41.2417,,Assisted Disabled,Melrose Memorial Hall,,0,673 Melrose Rd TAS 7310,,TAS,Melrose Memorial Hall,0,0,,,,,,,
146.612,-41.6515,,Assisted Disabled,Meander Primary School,,0,137 Main Rd (Meander Road) TAS 7304,,TAS,Meander Primary School,0,0,,,,,,,
147.256,-43.2311,,Assisted Disabled,South Channel Community Centre,,0,McDowall St TAS 7163,,TAS,South Channel Community Centre,0,0,,,,,,,
146.343,-41.1946,,Assisted Disabled,School of Special Education,,0,113 Middle Rd TAS 7310,,TAS,School of Special Education,0,0,,,,,,,
146.708,-41.9937,,Assisted Disabled,Miena Community Centre,,0,55-57 Cider Gum Rd TAS 7030,,TAS,Miena Community Centre,0,0,,,,,,,
147.533,-42.7997,,Assisted Disabled,Midway Point Community Hall,,0,Raynors Rd TAS 7171,,TAS,Midway Point Community Hall,0,0,,,,,,,
146.318,-41.1827,,Assisted Disabled,Don Memorial Hall,,0,17 Forth Rd TAS 7310,,TAS,Don Memorial Hall,0,0,,,,,,,
147.462,-42.4548,,Assisted Disabled,Tunnack Public Hall,,0,Tunnack Rd TAS 7120,,TAS,Tunnack Public Hall,0,0,,,,,,,
146.481,-41.5573,,Assisted Disabled,Chudleigh Memorial Hall,,0,54 Sorell St TAS 7304,,TAS,Chudleigh Memorial Hall,0,0,,,,,,,
147.0120184,-43.0856539,,Assisted Disabled,Franklin Primary School,,0,10 New Rd TAS 7113,,TAS,Franklin Primary School,0,0,,,,,,,
146.962,-43.0278,,Assisted Disabled,Glen Huon Primary School,,0,801 Glen Huon Rd TAS 7109,,TAS,Glen Huon Primary School,0,0,,,,,,,
146.327186,-41.383044,,Assisted Disabled,Sheffield District High School,,0,12 Henry St TAS 7306,,TAS,Sheffield District High School,0,0,,,,,,,
145.88153,-41.06128,,Standard,Tasmanian Academy (Hellyer College),,0,Mooreville Rd TAS 7320,,TAS,Tasmanian Academy (Hellyer College),0,0,,,,,,,
146.175,-41.1559,,Assisted Disabled,Ulverstone Guide Hall,,1,34 Main St TAS 7315,,TAS,Ulverstone Guide Hall,0,1,,,,,,,
145.219,-41.5119,,Assisted Disabled,Grange Resources Lodge,,0,Corinna Rd TAS 7321,,TAS,Grange Resources Lodge,0,0,,,,,,,
148.261,-41.4541,,Assisted Disabled,Scamander Fire Station,,0,Campbell St TAS 7215,,TAS,Scamander Fire Station,0,0,,,,,,,
147.515,-41.1625,,Standard,St Barnabas' Church Hall,,0,55 King St (Tasman Highway) TAS 7260,,TAS,St Barnabas' Church Hall,0,0,,,,,,,
147.511,-42.8526,,Assisted Disabled,Wyndham Vacation Resort,,0,78 Surf Rd TAS 7170,,TAS,Wyndham Vacation Resort,0,0,,,,,,,
147.327,-42.8992,,Assisted Disabled,Wellspring Anglican Church Hall,,0,Grosvenor St TAS 7005,,TAS,Wellspring Anglican Church Hall,0,0,,,,,,,
147.355,-42.9138,,Assisted Disabled,Harold Gregg Centre,,0,1 Southerwood Dr TAS 7005,,TAS,Harold Gregg Centre,1,0,,,,,,,
147.3367403,-42.9090106,,Standard,Waimea Heights Primary School,,0,12 Balfour Ct TAS 7005,,TAS,Waimea Heights Primary School,0,0,,,,,,,
146.503,-41.2871,,Assisted Disabled,Sassafras Primary School,,0,50 School Rd TAS 7307,,TAS,Sassafras Primary School,0,0,,,,,,,
147.08,-41.6892,,Assisted Disabled,Cressy Community Hall,,0,Main St (Cressy Road) TAS 7302,,TAS,Cressy Community Hall,0,0,,,,,,,
143.855,-39.9298,,Assisted Disabled,Currie Town Hall,,0,Cnr Meech & George Sts TAS 7256,,TAS,Currie Town Hall,0,0,,,,,,,
147.812,-42.8194,,Assisted Disabled,Copping Hall,,0,Marion Bay Rd TAS 7174,,TAS,Copping Hall,0,0,,,,,,,
147.034,-43.1064,,Assisted Disabled,Cradoc Park,,0,8427 Channel Hwy TAS 7109,,TAS,Cradoc Park,0,0,,,,,,,
147.198,-42.8367,,Assisted Disabled,Collinsvale Primary School,,0,508 Collinsvale Rd TAS 7012,,TAS,Collinsvale Primary School,0,0,,,,,,,
145.86801,-41.04076,,Assisted Disabled,Cooee Primary School,,0,Fidler St TAS 7320,,TAS,Cooee Primary School,0,0,,,,,,,
147.361,-42.5313,,Assisted Disabled,Colebrook Fire Station,,0,Colebrook Rd TAS 7027,,TAS,Colebrook Fire Station,0,0,,,,,,,
148.286,-42.1249,,Standard,Coles Bay Community Hall,,0,Harold St TAS 7215,,TAS,Coles Bay Community Hall,0,0,,,,,,,
147.445,-42.8873,,Assisted Disabled,Clarendon Vale Primary School,,0,25 Mockridge Rd TAS 7019,,TAS,Clarendon Vale Primary School,0,0,,,,,,,
146.274857,-41.43438,,Assisted Disabled,Claude Road Fire Station,,0,787 Claude Rd TAS 7306,,TAS,Claude Road Fire Station,0,0,,,,,,,
146.174,-41.2135,,Assisted,Abbotsham Hall,,0,590 Castra Rd TAS 7315,,TAS,Abbotsham Hall,0,0,,,,,,,
146.367,-41.1972,,Assisted Disabled,Mersey Rowing Club,,0,52 River Rd TAS 7310,,TAS,Mersey Rowing Club,0,0,,,,,,,
147.3320854,-42.8915725,,Assisted Disabled,St George's Church Hall,,1,28 Cromwell St TAS 7004,,TAS,St George's Church Hall,0,0,,,,,,,
146.922,-43.1625,,Assisted,Geeveston Community Hall,,1,7 Brady St TAS 7116,,TAS,Geeveston Community Hall,0,0,,,,,,,
147.279,-42.8322,,Assisted Disabled,Glenorchy YMCA ,,0,8a Constance Ave TAS 7010,,TAS,Glenorchy YMCA ,0,0,,,,,,,
146.291,-41.291,,Standard,Lower Barrington Public Hall,,0,1027 Sheffield Rd TAS 7306,,TAS,Lower Barrington Public Hall,0,0,,,,,,,
147.3114121,-42.8441626,,Assisted Disabled,St Anne's Anglican Church Hall,,0,27 Ashbolt Cres TAS 7009,,TAS,St Anne's Anglican Church Hall,0,0,,,,,,,
147.356,-42.8467,,Assisted Disabled,St Aidan's Church Hall,,0,Lincoln St TAS 7015,,TAS,St Aidan's Church Hall,0,0,,,,,,,
147.123,-41.5945,,Assisted Disabled,Longford War Memorial Hall,,0,Wellington St TAS 7301,,TAS,Longford War Memorial Hall,0,0,,,,,,,
147.216,-41.2523,,Standard,Lilydale Memorial Hall,,0,1949 Main Rd (Lilydale Road) TAS 7268,,TAS,Lilydale Memorial Hall,0,0,,,,,,,
147.363,-42.8519,,Assisted Disabled,Lindisfarne Primary School,,1,Loatta Rd TAS 7018,,TAS,Lindisfarne Primary School,0,0,,,,,,,
147.29,-42.8612,,Assisted Disabled,Lenah Valley Primary School,,0,Creek Rd TAS 7008,,TAS,Lenah Valley Primary School,0,0,,,,,,,
147.568,-42.5443,,Assisted Disabled,Levendale Primary School,,0,1315 Woodsdale Rd TAS 7120,,TAS,Levendale Primary School,0,0,,,,,,,
147.039,-43.0086,,Assisted Disabled,Ranelagh Memorial Hall,,0,Marguerite St TAS 7109,,TAS,Ranelagh Memorial Hall,0,0,,,,,,,
146.414,-41.3526,,Assisted Disabled,Railton Primary School,,0,94 Foster St TAS 7305,,TAS,Railton Primary School,0,0,,,,,,,
147.054,-42.7559,,Assisted Disabled,Magra CWA Building,,0,Back River Rd TAS 7140,,TAS,Magra CWA Building,0,0,,,,,,,
147.263,-43.029,,Assisted Disabled,Margate Hall,,0,Channel Hwy TAS 7054,,TAS,Margate Hall,0,0,,,,,,,
147.971,-41.6377,,Assisted Disabled,Fingal Activity Centre (former Council Chambers),,0,29 Talbot St (cnr of Esk Hwy and Mathinna Rd) TAS 7214,,TAS,Fingal Activity Centre (former Council Chambers),0,0,,,,,,,
147.262,-42.9223,,Assisted Disabled,Fern Tree Community Centre,,0,Stephenson Pl TAS 7054,,TAS,Fern Tree Community Centre,0,0,,,,,,,
146.957,-41.2996,,Assisted Disabled,Exeter High School Gymnasium,,0,28 Glen Ard Mohr Rd TAS 7275,,TAS,Exeter High School Gymnasium,0,0,,,,,,,
147.247,-41.5672,,Assisted Disabled,Evandale Primary School,,0,5-11 Barclay St TAS 7212,,TAS,Evandale Primary School,0,0,,,,,,,
147.335,-41.7446,,Assisted Disabled,Epping Forest Public Hall,,0,13515 Midland Hwy TAS 7211,,TAS,Epping Forest Public Hall,0,0,,,,,,,
147.0771417,-43.1625204,,Assisted Disabled,Carmel Hall,,0,25 Mary St TAS 7112,,TAS,Carmel Hall,0,0,,,,,,,
146.716,-42.6182,,Standard,Ellendale Hall,,0,939 Ellendale Rd TAS 7140,,TAS,Ellendale Hall,0,0,,,,,,,
147.14588,-41.43616,,Assisted Disabled,East Launceston Bowling Club,,0,off High St TAS 7250,,TAS,East Launceston Bowling Club,0,0,,,,,,,
147.277,-42.8339,,Assisted Disabled,Glenorchy Civic Centre,,0,Cooper St TAS 7010,,TAS,Glenorchy Civic Centre,0,0,,,,,,,
145.248,-40.8486,,Assisted Disabled,Forest Primary School,,0,422 Mengha Rd TAS 7330,,TAS,Forest Primary School,0,0,,,,,,,
147.631,-42.8057,,Assisted Disabled,Forcett Public Hall,,0,699 Arthur Hwy TAS 7173,,TAS,Forcett Public Hall,0,0,,,,,,,
145.89229,-41.07264,,Assisted Disabled,Burnie Child and Family Centre,,0,36 Thorne St TAS 7320,,TAS,Burnie Child and Family Centre,0,0,,,,,,,
145.329,-42.1497,,Assisted Disabled,Strahan Fire Station,,0,18 Reid St TAS 7468,,TAS,Strahan Fire Station,0,0,,,,,,,
145.929,-41.1124,,Assisted Disabled,Stowport Public Hall,,0,580 Stowport Rd TAS 7321,,TAS,Stowport Public Hall,0,0,,,,,,,
145.291,-40.7603,,Assisted Disabled,Stanley Primary School,,0,Wilson St TAS 7331,,TAS,Stanley Primary School,0,0,,,,,,,
148.008,-40.9601,,Assisted Disabled,Gladstone Hall,,0,1 Carr St TAS 7264,,TAS,Gladstone Hall,0,0,,,,,,,
148.186,-41.5791,,Assisted Disabled,St Marys Community Hall,,0,Main St (Esk Highway) TAS 7215,,TAS,St Marys Community Hall,0,0,,,,,,,
148.077,-42.1245,,Assisted Disabled,Swansea Town Hall,,0,12 Franklin St (Tasman Highway) TAS 7190,,TAS,Swansea Town Hall,0,0,,,,,,,
147.15253,-41.44176,,Assisted Disabled,East Launceston Primary School,,0,Abbott St TAS 7250,,TAS,East Launceston Primary School,0,0,,,,,,,
146.998,-43.2196,,Assisted Disabled,Surges Bay Hall,,0,Esperance Coast Rd TAS 7109,,TAS,Surges Bay Hall,0,0,,,,,,,
